interactions:
- request:
    body: null
    headers:
      Accept: ['*/*']
      Accept-Encoding: ['gzip, deflate']
      Connection: [keep-alive]
      User-Agent: [python-requests/2.19.1]
    method: GET
    uri: https://aviationweather.gov/adds/dataserver_current/httpparam?dataSource=metars&requestType=retrieve&format=csv&hoursBeforeNow=24&stationString=UGKO
  response:
    body: {string: 'No errors

        No warnings

        4 ms

        data source=metars

        48 results

        raw_text,station_id,observation_time,latitude,longitude,temp_c,dewpoint_c,wind_dir_degrees,wind_speed_kt,wind_gust_kt,visibility_statute_mi,altim_in_hg,sea_level_pressure_mb,corrected,auto,auto_station,maintenance_indicator_on,no_signal,lightning_sensor_off,freezing_rain_sensor_off,present_weather_sensor_off,wx_string,sky_cover,cloud_base_ft_agl,sky_cover,cloud_base_ft_agl,sky_cover,cloud_base_ft_agl,sky_cover,cloud_base_ft_agl,flight_category,three_hr_pressure_tendency_mb,maxT_c,minT_c,maxT24hr_c,minT24hr_c,precip_in,pcp3hr_in,pcp6hr_in,pcp24hr_in,snow_in,vert_vis_ft,metar_type,elevation_m

        UGKO 210500Z 09017G30KT 060V120 CAVOK 27/15 Q1010 NOSIG,UGKO,2018-08-21T05:00:00Z,42.18,42.48,27.0,15.0,90,17,30,6.21,29.822834,,,,,,TRUE,,,,,CAVOK,,,,,,,,VFR,,,,,,,,,,,,METAR,68.0

        UGKO 210430Z 09017KT CAVOK 26/14 Q1010 NOSIG,UGKO,2018-08-21T04:30:00Z,42.18,42.48,26.0,14.0,90,17,,6.21,29.822834,,,,,,TRUE,,,,,CAVOK,,,,,,,,VFR,,,,,,,,,,,,METAR,68.0

        UGKO 210400Z 09016KT CAVOK 25/14 Q1010 NOSIG,UGKO,2018-08-21T04:00:00Z,42.18,42.48,25.0,14.0,90,16,,6.21,29.822834,,,,,,TRUE,,,,,CAVOK,,,,,,,,VFR,,,,,,,,,,,,METAR,68.0

        UGKO 210330Z 09015KT CAVOK 24/15 Q1010 NOSIG,UGKO,2018-08-21T03:30:00Z,42.18,42.48,24.0,15.0,90,15,,6.21,29.822834,,,,,,TRUE,,,,,CAVOK,,,,,,,,VFR,,,,,,,,,,,,METAR,68.0

        UGKO 210300Z 09014KT CAVOK 22/14 Q1011 NOSIG,UGKO,2018-08-21T03:00:00Z,42.18,42.48,22.0,14.0,90,14,,6.21,29.852362,,,,,,TRUE,,,,,CAVOK,,,,,,,,VFR,,,,,,,,,,,,METAR,68.0

        UGKO 210230Z 10013KT CAVOK 22/14 Q1010 NOSIG,UGKO,2018-08-21T02:30:00Z,42.18,42.48,22.0,14.0,100,13,,6.21,29.822834,,,,,,TRUE,,,,,CAVOK,,,,,,,,VFR,,,,,,,,,,,,METAR,68.0

        UGKO 210200Z 10012KT CAVOK 23/13 Q1011 NOSIG,UGKO,2018-08-21T02:00:00Z,42.18,42.48,23.0,13.0,100,12,,6.21,29.852362,,,,,,TRUE,,,,,CAVOK,,,,,,,,VFR,,,,,,,,,,,,METAR,68.0

        UGKO 210130Z AUTO 10012KT CAVOK 24/14 Q1011 NOSIG,UGKO,2018-08-21T01:30:00Z,42.18,42.48,24.0,14.0,100,12,,6.21,29.852362,,,TRUE,,,TRUE,,,,,CAVOK,,,,,,,,VFR,,,,,,,,,,,,METAR,68.0

        UGKO 210100Z 09014G24KT CAVOK 24/14 Q1010 NOSIG,UGKO,2018-08-21T01:00:00Z,42.18,42.48,24.0,14.0,90,14,24,6.21,29.822834,,,,,,TRUE,,,,,CAVOK,,,,,,,,VFR,,,,,,,,,,,,METAR,68.0

        UGKO 210030Z 09014KT CAVOK 23/15 Q1011 NOSIG,UGKO,2018-08-21T00:30:00Z,42.18,42.48,23.0,15.0,90,14,,6.21,29.852362,,,,,,TRUE,,,,,CAVOK,,,,,,,,VFR,,,,,,,,,,,,METAR,68.0

        UGKO 210000Z 09014KT CAVOK 23/15 Q1011 NOSIG,UGKO,2018-08-21T00:00:00Z,42.18,42.48,23.0,15.0,90,14,,6.21,29.852362,,,,,,TRUE,,,,,CAVOK,,,,,,,,VFR,,,,,,,,,,,,METAR,68.0

        UGKO 202330Z AUTO 10012KT CAVOK 23/15 Q1011 NOSIG,UGKO,2018-08-20T23:30:00Z,42.18,42.48,23.0,15.0,100,12,,6.21,29.852362,,,TRUE,,,TRUE,,,,,CAVOK,,,,,,,,VFR,,,,,,,,,,,,METAR,68.0

        UGKO 202300Z 09016KT CAVOK 24/15 Q1011 NOSIG,UGKO,2018-08-20T23:00:00Z,42.18,42.48,24.0,15.0,90,16,,6.21,29.852362,,,,,,TRUE,,,,,CAVOK,,,,,,,,VFR,,,,,,,,,,,,METAR,68.0

        UGKO 202230Z 10014KT CAVOK 24/15 Q1011 NOSIG,UGKO,2018-08-20T22:30:00Z,42.18,42.48,24.0,15.0,100,14,,6.21,29.852362,,,,,,TRUE,,,,,CAVOK,,,,,,,,VFR,,,,,,,,,,,,METAR,68.0

        UGKO 202200Z 10016KT CAVOK 23/16 Q1011 NOSIG,UGKO,2018-08-20T22:00:00Z,42.18,42.48,23.0,16.0,100,16,,6.21,29.852362,,,,,,TRUE,,,,,CAVOK,,,,,,,,VFR,,,,,,,,,,,,METAR,68.0

        UGKO 202130Z 09015KT CAVOK 24/15 Q1011 NOSIG,UGKO,2018-08-20T21:30:00Z,42.18,42.48,24.0,15.0,90,15,,6.21,29.852362,,,,,,TRUE,,,,,CAVOK,,,,,,,,VFR,,,,,,,,,,,,METAR,68.0

        UGKO 202100Z 10014KT CAVOK 24/16 Q1011 NOSIG,UGKO,2018-08-20T21:00:00Z,42.18,42.48,24.0,16.0,100,14,,6.21,29.852362,,,,,,TRUE,,,,,CAVOK,,,,,,,,VFR,,,,,,,,,,,,METAR,68.0

        UGKO 202030Z 09015KT CAVOK 24/16 Q1011 NOSIG,UGKO,2018-08-20T20:30:00Z,42.18,42.48,24.0,16.0,90,15,,6.21,29.852362,,,,,,TRUE,,,,,CAVOK,,,,,,,,VFR,,,,,,,,,,,,METAR,68.0

        UGKO 202000Z AUTO 11012KT CAVOK 25/15 Q1011 NOSIG,UGKO,2018-08-20T20:00:00Z,42.18,42.48,25.0,15.0,110,12,,6.21,29.852362,,,TRUE,,,TRUE,,,,,CAVOK,,,,,,,,VFR,,,,,,,,,,,,METAR,68.0

        UGKO 201930Z 09018KT CAVOK 25/15 Q1011 NOSIG,UGKO,2018-08-20T19:30:00Z,42.18,42.48,25.0,15.0,90,18,,6.21,29.852362,,,,,,TRUE,,,,,CAVOK,,,,,,,,VFR,,,,,,,,,,,,METAR,68.0

        UGKO 201900Z 09020KT CAVOK 26/15 Q1011 NOSIG,UGKO,2018-08-20T19:00:00Z,42.18,42.48,26.0,15.0,90,20,,6.21,29.852362,,,,,,TRUE,,,,,CAVOK,,,,,,,,VFR,,,,,,,,,,,,METAR,68.0

        UGKO 201830Z 09021KT CAVOK 26/15 Q1011 NOSIG,UGKO,2018-08-20T18:30:00Z,42.18,42.48,26.0,15.0,90,21,,6.21,29.852362,,,,,,TRUE,,,,,CAVOK,,,,,,,,VFR,,,,,,,,,,,,METAR,68.0

        UGKO 201800Z 08021G31KT CAVOK 26/15 Q1010 NOSIG,UGKO,2018-08-20T18:00:00Z,42.18,42.48,26.0,15.0,80,21,31,6.21,29.822834,,,,,,TRUE,,,,,CAVOK,,,,,,,,VFR,,,,,,,,,,,,METAR,68.0

        UGKO 201730Z 08021G31KT CAVOK 27/14 Q1010 NOSIG,UGKO,2018-08-20T17:30:00Z,42.18,42.48,27.0,14.0,80,21,31,6.21,29.822834,,,,,,TRUE,,,,,CAVOK,,,,,,,,VFR,,,,,,,,,,,,METAR,68.0

        UGKO 201700Z 08022G33KT CAVOK 27/14 Q1010 NOSIG,UGKO,2018-08-20T17:00:00Z,42.18,42.48,27.0,14.0,80,22,33,6.21,29.822834,,,,,,TRUE,,,,,CAVOK,,,,,,,,VFR,,,,,,,,,,,,METAR,68.0

        UGKO 201630Z 08022G33KT CAVOK 27/14 Q1009 NOSIG,UGKO,2018-08-20T16:30:00Z,42.18,42.48,27.0,14.0,80,22,33,6.21,29.793306,,,,,,TRUE,,,,,CAVOK,,,,,,,,VFR,,,,,,,,,,,,METAR,68.0

        UGKO 201600Z 08022G38KT CAVOK 28/14 Q1009 NOSIG,UGKO,2018-08-20T16:00:00Z,42.18,42.48,28.0,14.0,80,22,38,6.21,29.793306,,,,,,TRUE,,,,,CAVOK,,,,,,,,VFR,,,,,,,,,,,,METAR,68.0

        UGKO 201530Z 08023G33KT CAVOK 29/14 Q1009 NOSIG,UGKO,2018-08-20T15:30:00Z,42.18,42.48,29.0,14.0,80,23,33,6.21,29.793306,,,,,,TRUE,,,,,CAVOK,,,,,,,,VFR,,,,,,,,,,,,METAR,68.0

        UGKO 201500Z 08023G41KT CAVOK 30/15 Q1009 NOSIG,UGKO,2018-08-20T15:00:00Z,42.18,42.48,30.0,15.0,80,23,41,6.21,29.793306,,,,,,TRUE,,,,,CAVOK,,,,,,,,VFR,,,,,,,,,,,,METAR,68.0

        UGKO 201430Z 08024G34KT CAVOK 30/15 Q1008 NOSIG,UGKO,2018-08-20T14:30:00Z,42.18,42.48,30.0,15.0,80,24,34,6.21,29.763779,,,,,,TRUE,,,,,CAVOK,,,,,,,,VFR,,,,,,,,,,,,METAR,68.0

        UGKO 201400Z 08024G36KT CAVOK 31/15 Q1008 NOSIG,UGKO,2018-08-20T14:00:00Z,42.18,42.48,31.0,15.0,80,24,36,6.21,29.763779,,,,,,TRUE,,,,,CAVOK,,,,,,,,VFR,,,,,,,,,,,,METAR,68.0

        UGKO 201330Z 08025G35KT CAVOK 31/15 Q1008 NOSIG,UGKO,2018-08-20T13:30:00Z,42.18,42.48,31.0,15.0,80,25,35,6.21,29.763779,,,,,,TRUE,,,,,CAVOK,,,,,,,,VFR,,,,,,,,,,,,METAR,68.0

        UGKO 201300Z 08024G34KT CAVOK 32/14 Q1008 NOSIG,UGKO,2018-08-20T13:00:00Z,42.18,42.48,32.0,14.0,80,24,34,6.21,29.763779,,,,,,TRUE,,,,,CAVOK,,,,,,,,VFR,,,,,,,,,,,,METAR,68.0

        UGKO 201230Z 07026G36KT CAVOK 32/15 Q1008 NOSIG,UGKO,2018-08-20T12:30:00Z,42.18,42.48,32.0,15.0,70,26,36,6.21,29.763779,,,,,,TRUE,,,,,CAVOK,,,,,,,,VFR,,,,,,,,,,,,METAR,68.0

        UGKO 201200Z 08022G32KT CAVOK 32/15 Q1008 NOSIG,UGKO,2018-08-20T12:00:00Z,42.18,42.48,32.0,15.0,80,22,32,6.21,29.763779,,,,,,TRUE,,,,,CAVOK,,,,,,,,VFR,,,,,,,,,,,,METAR,68.0

        UGKO 201130Z 08025G38KT CAVOK 33/15 Q1008 NOSIG,UGKO,2018-08-20T11:30:00Z,42.18,42.48,33.0,15.0,80,25,38,6.21,29.763779,,,,,,TRUE,,,,,CAVOK,,,,,,,,VFR,,,,,,,,,,,,METAR,68.0

        UGKO 201100Z 08024G38KT CAVOK 33/15 Q1008 NOSIG,UGKO,2018-08-20T11:00:00Z,42.18,42.48,33.0,15.0,80,24,38,6.21,29.763779,,,,,,TRUE,,,,,CAVOK,,,,,,,,VFR,,,,,,,,,,,,METAR,68.0

        UGKO 201030Z 07026G36KT CAVOK 32/15 Q1008 NOSIG,UGKO,2018-08-20T10:30:00Z,42.18,42.48,32.0,15.0,70,26,36,6.21,29.763779,,,,,,TRUE,,,,,CAVOK,,,,,,,,VFR,,,,,,,,,,,,METAR,68.0

        UGKO 201000Z 07027G42KT CAVOK 32/15 Q1008 NOSIG,UGKO,2018-08-20T10:00:00Z,42.18,42.48,32.0,15.0,70,27,42,6.21,29.763779,,,,,,TRUE,,,,,CAVOK,,,,,,,,VFR,,,,,,,,,,,,METAR,68.0

        UGKO 200930Z 08026G42KT CAVOK 32/15 Q1008 NOSIG,UGKO,2018-08-20T09:30:00Z,42.18,42.48,32.0,15.0,80,26,42,6.21,29.763779,,,,,,TRUE,,,,,CAVOK,,,,,,,,VFR,,,,,,,,,,,,METAR,68.0

        UGKO 200900Z 07027G42KT CAVOK 31/16 Q1009 NOSIG,UGKO,2018-08-20T09:00:00Z,42.18,42.48,31.0,16.0,70,27,42,6.21,29.793306,,,,,,TRUE,,,,,CAVOK,,,,,,,,VFR,,,,,,,,,,,,METAR,68.0

        UGKO 200830Z 07027G42KT CAVOK 31/16 Q1009 NOSIG,UGKO,2018-08-20T08:30:00Z,42.18,42.48,31.0,16.0,70,27,42,6.21,29.793306,,,,,,TRUE,,,,,CAVOK,,,,,,,,VFR,,,,,,,,,,,,METAR,68.0

        UGKO 200800Z 08027G42KT CAVOK 31/16 Q1009 R07/0///70 NOSIG,UGKO,2018-08-20T08:00:00Z,42.18,42.48,31.0,16.0,80,27,42,6.21,29.793306,,,,,,TRUE,,,,,CAVOK,,,,,,,,VFR,,,,,,,,,,,,METAR,68.0

        UGKO 200730Z 07027G39KT CAVOK 30/15 Q1009 R07/0///70 NOSIG,UGKO,2018-08-20T07:30:00Z,42.18,42.48,30.0,15.0,70,27,39,6.21,29.793306,,,,,,TRUE,,,,,CAVOK,,,,,,,,VFR,,,,,,,,,,,,METAR,68.0

        UGKO 200700Z 08024G38KT CAVOK 30/16 Q1009 R07/0///70 NOSIG,UGKO,2018-08-20T07:00:00Z,42.18,42.48,30.0,16.0,80,24,38,6.21,29.793306,,,,,,TRUE,,,,,CAVOK,,,,,,,,VFR,,,,,,,,,,,,METAR,68.0

        UGKO 200630Z 08024G34KT CAVOK 29/16 Q1009 R07/0///70 NOSIG,UGKO,2018-08-20T06:30:00Z,42.18,42.48,29.0,16.0,80,24,34,6.21,29.793306,,,,,,TRUE,,,,,CAVOK,,,,,,,,VFR,,,,,,,,,,,,METAR,68.0

        UGKO 200600Z 08024G38KT CAVOK 29/16 Q1009 NOSIG,UGKO,2018-08-20T06:00:00Z,42.18,42.48,29.0,16.0,80,24,38,6.21,29.793306,,,,,,TRUE,,,,,CAVOK,,,,,,,,VFR,,,,,,,,,,,,METAR,68.0

        UGKO 200530Z 08019G34KT CAVOK 28/16 Q1010 NOSIG,UGKO,2018-08-20T05:30:00Z,42.18,42.48,28.0,16.0,80,19,34,6.21,29.822834,,,,,,TRUE,,,,,CAVOK,,,,,,,,VFR,,,,,,,,,,,,METAR,68.0

'}
    headers:
      Connection: [keep-alive]
      Content-Length: ['8946']
      Content-Type: [application/x-csv]
      Date: ['Tue, 21 Aug 2018 06:30:19 GMT']
      Server: [Apache-Coyote/1.1]
      Strict-Transport-Security: [max-age=63072000; includeSubdomains;]
      X-Content-Type-Options: [nosniff]
      X-Frame-Options: [SAMEORIGIN]
      X-XSS-Protection: [1; mode=block]
    status: {code: 200, message: OK}
version: 1
