interactions:
- request:
    body: null
    headers:
      Accept: ['*/*']
      Accept-Encoding: ['gzip, deflate']
      Connection: [keep-alive]
      User-Agent: [python-requests/2.19.1]
    method: GET
    uri: https://aviationweather.gov/adds/dataserver_current/httpparam?dataSource=metars&requestType=retrieve&format=csv&hoursBeforeNow=24&stationString=UGKO
  response:
    body: {string: 'No errors

        No warnings

        7 ms

        data source=metars

        48 results

        raw_text,station_id,observation_time,latitude,longitude,temp_c,dewpoint_c,wind_dir_degrees,wind_speed_kt,wind_gust_kt,visibility_statute_mi,altim_in_hg,sea_level_pressure_mb,corrected,auto,auto_station,maintenance_indicator_on,no_signal,lightning_sensor_off,freezing_rain_sensor_off,present_weather_sensor_off,wx_string,sky_cover,cloud_base_ft_agl,sky_cover,cloud_base_ft_agl,sky_cover,cloud_base_ft_agl,sky_cover,cloud_base_ft_agl,flight_category,three_hr_pressure_tendency_mb,maxT_c,minT_c,maxT24hr_c,minT24hr_c,precip_in,pcp3hr_in,pcp6hr_in,pcp24hr_in,snow_in,vert_vis_ft,metar_type,elevation_m

        UGKO 151800Z 10004KT 9999 SCT026 BKN045 21/20 Q1015 NOSIG,UGKO,2018-09-15T18:00:00Z,42.18,42.48,21.0,20.0,100,4,,6.21,29.970472,,,,,,TRUE,,,,,SCT,2600,BKN,4500,,,,,VFR,,,,,,,,,,,,METAR,68.0

        UGKO 151730Z 31004KT 9999 SCT026 BKN045 22/20 Q1014 NOSIG,UGKO,2018-09-15T17:30:00Z,42.18,42.48,22.0,20.0,310,4,,6.21,29.940945,,,,,,TRUE,,,,,SCT,2600,BKN,4500,,,,,VFR,,,,,,,,,,,,METAR,68.0

        UGKO 151700Z 26004KT 9999 SCT026 BKN047 21/20 Q1014 NOSIG,UGKO,2018-09-15T17:00:00Z,42.18,42.48,21.0,20.0,260,4,,6.21,29.940945,,,,,,TRUE,,,,,SCT,2600,BKN,4700,,,,,VFR,,,,,,,,,,,,METAR,68.0

        UGKO 151630Z 23003KT 190V270 9999 -RA SCT026 BKN047 21/20 Q1014 NOSIG,UGKO,2018-09-15T16:30:00Z,42.18,42.48,21.0,20.0,230,3,,6.21,29.940945,,,,,,TRUE,,,,-RA,SCT,2600,BKN,4700,,,,,VFR,,,,,,,,,,,,METAR,68.0

        UGKO 151600Z 24005KT 9999 -RA SCT026 BKN047 22/20 Q1013 NOSIG,UGKO,2018-09-15T16:00:00Z,42.18,42.48,22.0,20.0,240,5,,6.21,29.911417,,,,,,TRUE,,,,-RA,SCT,2600,BKN,4700,,,,,VFR,,,,,,,,,,,,METAR,68.0

        UGKO 151530Z 25007KT 9999 -RA SCT024 BKN045 22/20 Q1013 R25/1///60 NOSIG,UGKO,2018-09-15T15:30:00Z,42.18,42.48,22.0,20.0,250,7,,6.21,29.911417,,,,,,TRUE,,,,-RA,SCT,2400,BKN,4500,,,,,VFR,,,,,,,,,,,,METAR,68.0

        UGKO 151500Z 24004KT 9999 -RA SCT025 BKN046 23/20 Q1013 NOSIG,UGKO,2018-09-15T15:00:00Z,42.18,42.48,23.0,20.0,240,4,,6.21,29.911417,,,,,,TRUE,,,,-RA,SCT,2500,BKN,4600,,,,,VFR,,,,,,,,,,,,METAR,68.0

        UGKO 151430Z 25007KT 9999 SCT023CB BKN045 24/19 Q1013 NOSIG,UGKO,2018-09-15T14:30:00Z,42.18,42.48,24.0,19.0,250,7,,6.21,29.911417,,,,,,TRUE,,,,,SCT,2300,BKN,4500,,,,,VFR,,,,,,,,,,,,METAR,68.0

        UGKO 151400Z 27011KT 9999 SCT026CB BKN045 25/19 Q1013 NOSIG,UGKO,2018-09-15T14:00:00Z,42.18,42.48,25.0,19.0,270,11,,6.21,29.911417,,,,,,TRUE,,,,,SCT,2600,BKN,4500,,,,,VFR,,,,,,,,,,,,METAR,68.0

        UGKO 151330Z 26011KT 9999 SCT024CB BKN045 26/19 Q1013 NOSIG,UGKO,2018-09-15T13:30:00Z,42.18,42.48,26.0,19.0,260,11,,6.21,29.911417,,,,,,TRUE,,,,,SCT,2400,BKN,4500,,,,,VFR,,,,,,,,,,,,METAR,68.0

        UGKO 151300Z 28011KT 250V310 9999 SCT027CB BKN046 26/19 Q1012 NOSIG,UGKO,2018-09-15T13:00:00Z,42.18,42.48,26.0,19.0,280,11,,6.21,29.88189,,,,,,TRUE,,,,,SCT,2700,BKN,4600,,,,,VFR,,,,,,,,,,,,METAR,68.0

        UGKO 151230Z 28012KT 9999 SCT026CB BKN045 26/19 Q1012 NOSIG,UGKO,2018-09-15T12:30:00Z,42.18,42.48,26.0,19.0,280,12,,6.21,29.88189,,,,,,TRUE,,,,,SCT,2600,BKN,4500,,,,,VFR,,,,,,,,,,,,METAR,68.0

        UGKO 151200Z 26012KT 9999 SCT027CB BKN045 25/19 Q1012 NOSIG,UGKO,2018-09-15T12:00:00Z,42.18,42.48,25.0,19.0,260,12,,6.21,29.88189,,,,,,TRUE,,,,,SCT,2700,BKN,4500,,,,,VFR,,,,,,,,,,,,METAR,68.0

        UGKO 151130Z 27013KT 9999 SCT029CB BKN046 25/20 Q1012 NOSIG,UGKO,2018-09-15T11:30:00Z,42.18,42.48,25.0,20.0,270,13,,6.21,29.88189,,,,,,TRUE,,,,,SCT,2900,BKN,4600,,,,,VFR,,,,,,,,,,,,METAR,68.0

        UGKO 151100Z AUTO 28010KT 9999 FEW029/// SCT044/// BKN050/// 26/20 Q1012 NOSIG,UGKO,2018-09-15T11:00:00Z,42.18,42.48,26.0,20.0,280,10,,6.21,29.88189,,,TRUE,,,TRUE,,,,,FEW,2900,SCT,4400,BKN,5000,,,VFR,,,,,,,,,,,,METAR,68.0

        UGKO 151030Z 26011KT 9999 SCT030 BKN048 26/19 Q1011 NOSIG,UGKO,2018-09-15T10:30:00Z,42.18,42.48,26.0,19.0,260,11,,6.21,29.852362,,,,,,TRUE,,,,,SCT,3000,BKN,4800,,,,,VFR,,,,,,,,,,,,METAR,68.0

        UGKO 151000Z 26010KT 230V290 9999 SCT031 27/20 Q1011 NOSIG,UGKO,2018-09-15T10:00:00Z,42.18,42.48,27.0,20.0,260,10,,6.21,29.852362,,,,,,TRUE,,,,,SCT,3100,,,,,,,VFR,,,,,,,,,,,,METAR,68.0

        UGKO 150930Z 26010KT 210V280 9999 SCT032 27/19 Q1011 NOSIG,UGKO,2018-09-15T09:30:00Z,42.18,42.48,27.0,19.0,260,10,,6.21,29.852362,,,,,,TRUE,,,,,SCT,3200,,,,,,,VFR,,,,,,,,,,,,METAR,68.0

        UGKO 150900Z 26009KT 9999 SCT032 26/19 Q1011 NOSIG,UGKO,2018-09-15T09:00:00Z,42.18,42.48,26.0,19.0,260,9,,6.21,29.852362,,,,,,TRUE,,,,,SCT,3200,,,,,,,VFR,,,,,,,,,,,,METAR,68.0

        UGKO 150830Z AUTO 27009KT 240V300 CAVOK 26/18 Q1011 NOSIG,UGKO,2018-09-15T08:30:00Z,42.18,42.48,26.0,18.0,270,9,,6.21,29.852362,,,TRUE,,,TRUE,,,,,CAVOK,,,,,,,,VFR,,,,,,,,,,,,METAR,68.0

        UGKO 150800Z 27010KT 240V310 9999 SCT032 26/18 Q1011 NOSIG,UGKO,2018-09-15T08:00:00Z,42.18,42.48,26.0,18.0,270,10,,6.21,29.852362,,,,,,TRUE,,,,,SCT,3200,,,,,,,VFR,,,,,,,,,,,,METAR,68.0

        UGKO 150730Z 25010KT 220V280 9999 BKN032 26/18 Q1011 NOSIG,UGKO,2018-09-15T07:30:00Z,42.18,42.48,26.0,18.0,250,10,,6.21,29.852362,,,,,,TRUE,,,,,BKN,3200,,,,,,,VFR,,,,,,,,,,,,METAR,68.0

        UGKO 150700Z 27005KT 240V310 9999 SCT034 25/18 Q1011 NOSIG,UGKO,2018-09-15T07:00:00Z,42.18,42.48,25.0,18.0,270,5,,6.21,29.852362,,,,,,TRUE,,,,,SCT,3400,,,,,,,VFR,,,,,,,,,,,,METAR,68.0

        UGKO 150630Z 26003KT 9999 SCT036 24/18 Q1011 NOSIG,UGKO,2018-09-15T06:30:00Z,42.18,42.48,24.0,18.0,260,3,,6.21,29.852362,,,,,,TRUE,,,,,SCT,3600,,,,,,,VFR,,,,,,,,,,,,METAR,68.0

        UGKO 150600Z 24003KT 210V270 9999 SCT036 24/17 Q1011 NOSIG,UGKO,2018-09-15T06:00:00Z,42.18,42.48,24.0,17.0,240,3,,6.21,29.852362,,,,,,TRUE,,,,,SCT,3600,,,,,,,VFR,,,,,,,,,,,,METAR,68.0

        UGKO 150530Z VRB03KT 9999 SCT035 22/18 Q1011 R07/0///70 NOSIG,UGKO,2018-09-15T05:30:00Z,42.18,42.48,22.0,18.0,0,3,,6.21,29.852362,,,,,,TRUE,,,,,SCT,3500,,,,,,,VFR,,,,,,,,,,,,METAR,68.0

        UGKO 150500Z VRB03KT 9999 SCT032 21/18 Q1011 NOSIG,UGKO,2018-09-15T05:00:00Z,42.18,42.48,21.0,18.0,0,3,,6.21,29.852362,,,,,,TRUE,,,,,SCT,3200,,,,,,,VFR,,,,,,,,,,,,METAR,68.0

        UGKO 150430Z AUTO 27003KT CAVOK 19/17 Q1010 NOSIG,UGKO,2018-09-15T04:30:00Z,42.18,42.48,19.0,17.0,270,3,,6.21,29.822834,,,TRUE,,,TRUE,,,,,CAVOK,,,,,,,,VFR,,,,,,,,,,,,METAR,68.0

        UGKO 150400Z VRB02KT 9999 SCT035 19/17 Q1010 NOSIG,UGKO,2018-09-15T04:00:00Z,42.18,42.48,19.0,17.0,0,2,,6.21,29.822834,,,,,,TRUE,,,,,SCT,3500,,,,,,,VFR,,,,,,,,,,,,METAR,68.0

        UGKO 150330Z VRB02KT 9999 SCT033 19/17 Q1010 NOSIG,UGKO,2018-09-15T03:30:00Z,42.18,42.48,19.0,17.0,0,2,,6.21,29.822834,,,,,,TRUE,,,,,SCT,3300,,,,,,,VFR,,,,,,,,,,,,METAR,68.0

        UGKO 150300Z 27003KT 190V350 9999 SCT034 19/16 Q1010 NOSIG,UGKO,2018-09-15T03:00:00Z,42.18,42.48,19.0,16.0,270,3,,6.21,29.822834,,,,,,TRUE,,,,,SCT,3400,,,,,,,VFR,,,,,,,,,,,,METAR,68.0

        UGKO 150230Z VRB02KT 9999 SCT035 19/17 Q1010 NOSIG,UGKO,2018-09-15T02:30:00Z,42.18,42.48,19.0,17.0,0,2,,6.21,29.822834,,,,,,TRUE,,,,,SCT,3500,,,,,,,VFR,,,,,,,,,,,,METAR,68.0

        UGKO 150200Z VRB03KT 9999 SCT035 19/17 Q1011 NOSIG,UGKO,2018-09-15T02:00:00Z,42.18,42.48,19.0,17.0,0,3,,6.21,29.852362,,,,,,TRUE,,,,,SCT,3500,,,,,,,VFR,,,,,,,,,,,,METAR,68.0

        UGKO 150130Z AUTO VRB01KT CAVOK 18/16 Q1011 NOSIG,UGKO,2018-09-15T01:30:00Z,42.18,42.48,18.0,16.0,0,1,,6.21,29.852362,,,TRUE,,,TRUE,,,,,CAVOK,,,,,,,,VFR,,,,,,,,,,,,METAR,68.0

        UGKO 150100Z VRB03KT 9999 SCT032CB BKN048 20/17 Q1011 NOSIG,UGKO,2018-09-15T01:00:00Z,42.18,42.48,20.0,17.0,0,3,,6.21,29.852362,,,,,,TRUE,,,,,SCT,3200,BKN,4800,,,,,VFR,,,,,,,,,,,,METAR,68.0

        UGKO 150030Z 07007KT 9999 SCT030CB BKN047 20/17 Q1011 R07/19//60 NOSIG,UGKO,2018-09-15T00:30:00Z,42.18,42.48,20.0,17.0,70,7,,6.21,29.852362,,,,,,TRUE,,,,,SCT,3000,BKN,4700,,,,,VFR,,,,,,,,,,,,METAR,68.0

        UGKO 150000Z 07012KT 9999 SCT033CB BKN049 20/17 Q1011 NOSIG,UGKO,2018-09-15T00:00:00Z,42.18,42.48,20.0,17.0,70,12,,6.21,29.852362,,,,,,TRUE,,,,,SCT,3300,BKN,4900,,,,,VFR,,,,,,,,,,,,METAR,68.0

        UGKO 142330Z AUTO 07011KT 9999 SCT100/// 20/18 Q1012 NOSIG,UGKO,2018-09-14T23:30:00Z,42.18,42.48,20.0,18.0,70,11,,6.21,29.88189,,,TRUE,,,TRUE,,,,,SCT,10000,,,,,,,VFR,,,,,,,,,,,,METAR,68.0

        UGKO 142300Z AUTO 07010KT 9999 SCT098/// 19/18 Q1012 NOSIG,UGKO,2018-09-14T23:00:00Z,42.18,42.48,19.0,18.0,70,10,,6.21,29.88189,,,TRUE,,,TRUE,,,,,SCT,9800,,,,,,,VFR,,,,,,,,,,,,METAR,68.0

        UGKO 142230Z AUTO 07010KT 9999 SCT095/// 19/18 Q1012 NOSIG,UGKO,2018-09-14T22:30:00Z,42.18,42.48,19.0,18.0,70,10,,6.21,29.88189,,,TRUE,,,TRUE,,,,,SCT,9500,,,,,,,VFR,,,,,,,,,,,,METAR,68.0

        UGKO 142200Z AUTO 16004KT 9999 SCT096/// 19/18 Q1013 NOSIG,UGKO,2018-09-14T22:00:00Z,42.18,42.48,19.0,18.0,160,4,,6.21,29.911417,,,TRUE,,,TRUE,,,,,SCT,9600,,,,,,,VFR,,,,,,,,,,,,METAR,68.0

        UGKO 142130Z 23006KT 080V250 9999 SCT033CB BKN047 20/18 Q1014 NOSIG,UGKO,2018-09-14T21:30:00Z,42.18,42.48,20.0,18.0,230,6,,6.21,29.940945,,,,,,TRUE,,,,,SCT,3300,BKN,4700,,,,,VFR,,,,,,,,,,,,METAR,68.0

        UGKO 142100Z 25008KT 190V260 9999 SCT033CB OVC044 20/19 Q1014 NOSIG,UGKO,2018-09-14T21:00:00Z,42.18,42.48,20.0,19.0,250,8,,6.21,29.940945,,,,,,TRUE,,,,,SCT,3300,OVC,4400,,,,,VFR,,,,,,,,,,,,METAR,68.0

        UGKO 142030Z 25009KT 220V290 9999 VCTSRA SCT025CB OVC042 20/18 Q1014 NOSIG,UGKO,2018-09-14T20:30:00Z,42.18,42.48,20.0,18.0,250,9,,6.21,29.940945,,,,,,TRUE,,,,VCTSRA,SCT,2500,OVC,4200,,,,,VFR,,,,,,,,,,,,METAR,68.0

        UGKO 142000Z 25019G29KT 9999 VCTSRA SCT025CB BKN044 21/18 Q1014 NOSIG,UGKO,2018-09-14T20:00:00Z,42.18,42.48,21.0,18.0,250,19,29,6.21,29.940945,,,,,,TRUE,,,,VCTSRA,SCT,2500,BKN,4400,,,,,VFR,,,,,,,,,,,,METAR,68.0

        UGKO 141930Z VRB05KT 9999 VCTS SCT025CB BKN045 23/19 Q1010 NOSIG,UGKO,2018-09-14T19:30:00Z,42.18,42.48,23.0,19.0,0,5,,6.21,29.822834,,,,,,TRUE,,,,VCTS,SCT,2500,BKN,4500,,,,,VFR,,,,,,,,,,,,METAR,68.0

        UGKO 141900Z VRB04KT 9999 TSRA SCT029CB BKN049 23/19 Q1011 NOSIG,UGKO,2018-09-14T19:00:00Z,42.18,42.48,23.0,19.0,0,4,,6.21,29.852362,,,,,,TRUE,,,,TSRA,SCT,2900,BKN,4900,,,,,VFR,,,,,,,,,,,,METAR,68.0

        UGKO 141830Z VRB03KT 9999 TSRA SCT026CB BKN046 24/19 Q1012 NOSIG,UGKO,2018-09-14T18:30:00Z,42.18,42.48,24.0,19.0,0,3,,6.21,29.88189,,,,,,TRUE,,,,TSRA,SCT,2600,BKN,4600,,,,,VFR,,,,,,,,,,,,METAR,68.0

'}
    headers:
      Connection: [keep-alive]
      Content-Length: ['9789']
      Content-Type: [application/x-csv]
      Date: ['Sat, 15 Sep 2018 18:09:46 GMT']
      Server: [Apache-Coyote/1.1]
      Strict-Transport-Security: [max-age=63072000; includeSubdomains;]
      X-Content-Type-Options: [nosniff]
      X-Frame-Options: [SAMEORIGIN]
      X-XSS-Protection: [1; mode=block]
    status: {code: 200, message: OK}
- request:
    body: null
    headers:
      Accept: ['*/*']
      Accept-Encoding: ['gzip, deflate']
      Connection: [keep-alive]
      User-Agent: [python-requests/2.19.1]
    method: GET
    uri: https://aviationweather.gov/adds/dataserver_current/httpparam?dataSource=metars&requestType=retrieve&format=csv&hoursBeforeNow=24&stationString=UGKO
  response:
    body: {string: 'No errors

        No warnings

        7 ms

        data source=metars

        48 results

        raw_text,station_id,observation_time,latitude,longitude,temp_c,dewpoint_c,wind_dir_degrees,wind_speed_kt,wind_gust_kt,visibility_statute_mi,altim_in_hg,sea_level_pressure_mb,corrected,auto,auto_station,maintenance_indicator_on,no_signal,lightning_sensor_off,freezing_rain_sensor_off,present_weather_sensor_off,wx_string,sky_cover,cloud_base_ft_agl,sky_cover,cloud_base_ft_agl,sky_cover,cloud_base_ft_agl,sky_cover,cloud_base_ft_agl,flight_category,three_hr_pressure_tendency_mb,maxT_c,minT_c,maxT24hr_c,minT24hr_c,precip_in,pcp3hr_in,pcp6hr_in,pcp24hr_in,snow_in,vert_vis_ft,metar_type,elevation_m

        UGKO 151800Z 10004KT 9999 SCT026 BKN045 21/20 Q1015 NOSIG,UGKO,2018-09-15T18:00:00Z,42.18,42.48,21.0,20.0,100,4,,6.21,29.970472,,,,,,TRUE,,,,,SCT,2600,BKN,4500,,,,,VFR,,,,,,,,,,,,METAR,68.0

        UGKO 151730Z 31004KT 9999 SCT026 BKN045 22/20 Q1014 NOSIG,UGKO,2018-09-15T17:30:00Z,42.18,42.48,22.0,20.0,310,4,,6.21,29.940945,,,,,,TRUE,,,,,SCT,2600,BKN,4500,,,,,VFR,,,,,,,,,,,,METAR,68.0

        UGKO 151700Z 26004KT 9999 SCT026 BKN047 21/20 Q1014 NOSIG,UGKO,2018-09-15T17:00:00Z,42.18,42.48,21.0,20.0,260,4,,6.21,29.940945,,,,,,TRUE,,,,,SCT,2600,BKN,4700,,,,,VFR,,,,,,,,,,,,METAR,68.0

        UGKO 151630Z 23003KT 190V270 9999 -RA SCT026 BKN047 21/20 Q1014 NOSIG,UGKO,2018-09-15T16:30:00Z,42.18,42.48,21.0,20.0,230,3,,6.21,29.940945,,,,,,TRUE,,,,-RA,SCT,2600,BKN,4700,,,,,VFR,,,,,,,,,,,,METAR,68.0

        UGKO 151600Z 24005KT 9999 -RA SCT026 BKN047 22/20 Q1013 NOSIG,UGKO,2018-09-15T16:00:00Z,42.18,42.48,22.0,20.0,240,5,,6.21,29.911417,,,,,,TRUE,,,,-RA,SCT,2600,BKN,4700,,,,,VFR,,,,,,,,,,,,METAR,68.0

        UGKO 151530Z 25007KT 9999 -RA SCT024 BKN045 22/20 Q1013 R25/1///60 NOSIG,UGKO,2018-09-15T15:30:00Z,42.18,42.48,22.0,20.0,250,7,,6.21,29.911417,,,,,,TRUE,,,,-RA,SCT,2400,BKN,4500,,,,,VFR,,,,,,,,,,,,METAR,68.0

        UGKO 151500Z 24004KT 9999 -RA SCT025 BKN046 23/20 Q1013 NOSIG,UGKO,2018-09-15T15:00:00Z,42.18,42.48,23.0,20.0,240,4,,6.21,29.911417,,,,,,TRUE,,,,-RA,SCT,2500,BKN,4600,,,,,VFR,,,,,,,,,,,,METAR,68.0

        UGKO 151430Z 25007KT 9999 SCT023CB BKN045 24/19 Q1013 NOSIG,UGKO,2018-09-15T14:30:00Z,42.18,42.48,24.0,19.0,250,7,,6.21,29.911417,,,,,,TRUE,,,,,SCT,2300,BKN,4500,,,,,VFR,,,,,,,,,,,,METAR,68.0

        UGKO 151400Z 27011KT 9999 SCT026CB BKN045 25/19 Q1013 NOSIG,UGKO,2018-09-15T14:00:00Z,42.18,42.48,25.0,19.0,270,11,,6.21,29.911417,,,,,,TRUE,,,,,SCT,2600,BKN,4500,,,,,VFR,,,,,,,,,,,,METAR,68.0

        UGKO 151330Z 26011KT 9999 SCT024CB BKN045 26/19 Q1013 NOSIG,UGKO,2018-09-15T13:30:00Z,42.18,42.48,26.0,19.0,260,11,,6.21,29.911417,,,,,,TRUE,,,,,SCT,2400,BKN,4500,,,,,VFR,,,,,,,,,,,,METAR,68.0

        UGKO 151300Z 28011KT 250V310 9999 SCT027CB BKN046 26/19 Q1012 NOSIG,UGKO,2018-09-15T13:00:00Z,42.18,42.48,26.0,19.0,280,11,,6.21,29.88189,,,,,,TRUE,,,,,SCT,2700,BKN,4600,,,,,VFR,,,,,,,,,,,,METAR,68.0

        UGKO 151230Z 28012KT 9999 SCT026CB BKN045 26/19 Q1012 NOSIG,UGKO,2018-09-15T12:30:00Z,42.18,42.48,26.0,19.0,280,12,,6.21,29.88189,,,,,,TRUE,,,,,SCT,2600,BKN,4500,,,,,VFR,,,,,,,,,,,,METAR,68.0

        UGKO 151200Z 26012KT 9999 SCT027CB BKN045 25/19 Q1012 NOSIG,UGKO,2018-09-15T12:00:00Z,42.18,42.48,25.0,19.0,260,12,,6.21,29.88189,,,,,,TRUE,,,,,SCT,2700,BKN,4500,,,,,VFR,,,,,,,,,,,,METAR,68.0

        UGKO 151130Z 27013KT 9999 SCT029CB BKN046 25/20 Q1012 NOSIG,UGKO,2018-09-15T11:30:00Z,42.18,42.48,25.0,20.0,270,13,,6.21,29.88189,,,,,,TRUE,,,,,SCT,2900,BKN,4600,,,,,VFR,,,,,,,,,,,,METAR,68.0

        UGKO 151100Z AUTO 28010KT 9999 FEW029/// SCT044/// BKN050/// 26/20 Q1012 NOSIG,UGKO,2018-09-15T11:00:00Z,42.18,42.48,26.0,20.0,280,10,,6.21,29.88189,,,TRUE,,,TRUE,,,,,FEW,2900,SCT,4400,BKN,5000,,,VFR,,,,,,,,,,,,METAR,68.0

        UGKO 151030Z 26011KT 9999 SCT030 BKN048 26/19 Q1011 NOSIG,UGKO,2018-09-15T10:30:00Z,42.18,42.48,26.0,19.0,260,11,,6.21,29.852362,,,,,,TRUE,,,,,SCT,3000,BKN,4800,,,,,VFR,,,,,,,,,,,,METAR,68.0

        UGKO 151000Z 26010KT 230V290 9999 SCT031 27/20 Q1011 NOSIG,UGKO,2018-09-15T10:00:00Z,42.18,42.48,27.0,20.0,260,10,,6.21,29.852362,,,,,,TRUE,,,,,SCT,3100,,,,,,,VFR,,,,,,,,,,,,METAR,68.0

        UGKO 150930Z 26010KT 210V280 9999 SCT032 27/19 Q1011 NOSIG,UGKO,2018-09-15T09:30:00Z,42.18,42.48,27.0,19.0,260,10,,6.21,29.852362,,,,,,TRUE,,,,,SCT,3200,,,,,,,VFR,,,,,,,,,,,,METAR,68.0

        UGKO 150900Z 26009KT 9999 SCT032 26/19 Q1011 NOSIG,UGKO,2018-09-15T09:00:00Z,42.18,42.48,26.0,19.0,260,9,,6.21,29.852362,,,,,,TRUE,,,,,SCT,3200,,,,,,,VFR,,,,,,,,,,,,METAR,68.0

        UGKO 150830Z AUTO 27009KT 240V300 CAVOK 26/18 Q1011 NOSIG,UGKO,2018-09-15T08:30:00Z,42.18,42.48,26.0,18.0,270,9,,6.21,29.852362,,,TRUE,,,TRUE,,,,,CAVOK,,,,,,,,VFR,,,,,,,,,,,,METAR,68.0

        UGKO 150800Z 27010KT 240V310 9999 SCT032 26/18 Q1011 NOSIG,UGKO,2018-09-15T08:00:00Z,42.18,42.48,26.0,18.0,270,10,,6.21,29.852362,,,,,,TRUE,,,,,SCT,3200,,,,,,,VFR,,,,,,,,,,,,METAR,68.0

        UGKO 150730Z 25010KT 220V280 9999 BKN032 26/18 Q1011 NOSIG,UGKO,2018-09-15T07:30:00Z,42.18,42.48,26.0,18.0,250,10,,6.21,29.852362,,,,,,TRUE,,,,,BKN,3200,,,,,,,VFR,,,,,,,,,,,,METAR,68.0

        UGKO 150700Z 27005KT 240V310 9999 SCT034 25/18 Q1011 NOSIG,UGKO,2018-09-15T07:00:00Z,42.18,42.48,25.0,18.0,270,5,,6.21,29.852362,,,,,,TRUE,,,,,SCT,3400,,,,,,,VFR,,,,,,,,,,,,METAR,68.0

        UGKO 150630Z 26003KT 9999 SCT036 24/18 Q1011 NOSIG,UGKO,2018-09-15T06:30:00Z,42.18,42.48,24.0,18.0,260,3,,6.21,29.852362,,,,,,TRUE,,,,,SCT,3600,,,,,,,VFR,,,,,,,,,,,,METAR,68.0

        UGKO 150600Z 24003KT 210V270 9999 SCT036 24/17 Q1011 NOSIG,UGKO,2018-09-15T06:00:00Z,42.18,42.48,24.0,17.0,240,3,,6.21,29.852362,,,,,,TRUE,,,,,SCT,3600,,,,,,,VFR,,,,,,,,,,,,METAR,68.0

        UGKO 150530Z VRB03KT 9999 SCT035 22/18 Q1011 R07/0///70 NOSIG,UGKO,2018-09-15T05:30:00Z,42.18,42.48,22.0,18.0,0,3,,6.21,29.852362,,,,,,TRUE,,,,,SCT,3500,,,,,,,VFR,,,,,,,,,,,,METAR,68.0

        UGKO 150500Z VRB03KT 9999 SCT032 21/18 Q1011 NOSIG,UGKO,2018-09-15T05:00:00Z,42.18,42.48,21.0,18.0,0,3,,6.21,29.852362,,,,,,TRUE,,,,,SCT,3200,,,,,,,VFR,,,,,,,,,,,,METAR,68.0

        UGKO 150430Z AUTO 27003KT CAVOK 19/17 Q1010 NOSIG,UGKO,2018-09-15T04:30:00Z,42.18,42.48,19.0,17.0,270,3,,6.21,29.822834,,,TRUE,,,TRUE,,,,,CAVOK,,,,,,,,VFR,,,,,,,,,,,,METAR,68.0

        UGKO 150400Z VRB02KT 9999 SCT035 19/17 Q1010 NOSIG,UGKO,2018-09-15T04:00:00Z,42.18,42.48,19.0,17.0,0,2,,6.21,29.822834,,,,,,TRUE,,,,,SCT,3500,,,,,,,VFR,,,,,,,,,,,,METAR,68.0

        UGKO 150330Z VRB02KT 9999 SCT033 19/17 Q1010 NOSIG,UGKO,2018-09-15T03:30:00Z,42.18,42.48,19.0,17.0,0,2,,6.21,29.822834,,,,,,TRUE,,,,,SCT,3300,,,,,,,VFR,,,,,,,,,,,,METAR,68.0

        UGKO 150300Z 27003KT 190V350 9999 SCT034 19/16 Q1010 NOSIG,UGKO,2018-09-15T03:00:00Z,42.18,42.48,19.0,16.0,270,3,,6.21,29.822834,,,,,,TRUE,,,,,SCT,3400,,,,,,,VFR,,,,,,,,,,,,METAR,68.0

        UGKO 150230Z VRB02KT 9999 SCT035 19/17 Q1010 NOSIG,UGKO,2018-09-15T02:30:00Z,42.18,42.48,19.0,17.0,0,2,,6.21,29.822834,,,,,,TRUE,,,,,SCT,3500,,,,,,,VFR,,,,,,,,,,,,METAR,68.0

        UGKO 150200Z VRB03KT 9999 SCT035 19/17 Q1011 NOSIG,UGKO,2018-09-15T02:00:00Z,42.18,42.48,19.0,17.0,0,3,,6.21,29.852362,,,,,,TRUE,,,,,SCT,3500,,,,,,,VFR,,,,,,,,,,,,METAR,68.0

        UGKO 150130Z AUTO VRB01KT CAVOK 18/16 Q1011 NOSIG,UGKO,2018-09-15T01:30:00Z,42.18,42.48,18.0,16.0,0,1,,6.21,29.852362,,,TRUE,,,TRUE,,,,,CAVOK,,,,,,,,VFR,,,,,,,,,,,,METAR,68.0

        UGKO 150100Z VRB03KT 9999 SCT032CB BKN048 20/17 Q1011 NOSIG,UGKO,2018-09-15T01:00:00Z,42.18,42.48,20.0,17.0,0,3,,6.21,29.852362,,,,,,TRUE,,,,,SCT,3200,BKN,4800,,,,,VFR,,,,,,,,,,,,METAR,68.0

        UGKO 150030Z 07007KT 9999 SCT030CB BKN047 20/17 Q1011 R07/19//60 NOSIG,UGKO,2018-09-15T00:30:00Z,42.18,42.48,20.0,17.0,70,7,,6.21,29.852362,,,,,,TRUE,,,,,SCT,3000,BKN,4700,,,,,VFR,,,,,,,,,,,,METAR,68.0

        UGKO 150000Z 07012KT 9999 SCT033CB BKN049 20/17 Q1011 NOSIG,UGKO,2018-09-15T00:00:00Z,42.18,42.48,20.0,17.0,70,12,,6.21,29.852362,,,,,,TRUE,,,,,SCT,3300,BKN,4900,,,,,VFR,,,,,,,,,,,,METAR,68.0

        UGKO 142330Z AUTO 07011KT 9999 SCT100/// 20/18 Q1012 NOSIG,UGKO,2018-09-14T23:30:00Z,42.18,42.48,20.0,18.0,70,11,,6.21,29.88189,,,TRUE,,,TRUE,,,,,SCT,10000,,,,,,,VFR,,,,,,,,,,,,METAR,68.0

        UGKO 142300Z AUTO 07010KT 9999 SCT098/// 19/18 Q1012 NOSIG,UGKO,2018-09-14T23:00:00Z,42.18,42.48,19.0,18.0,70,10,,6.21,29.88189,,,TRUE,,,TRUE,,,,,SCT,9800,,,,,,,VFR,,,,,,,,,,,,METAR,68.0

        UGKO 142230Z AUTO 07010KT 9999 SCT095/// 19/18 Q1012 NOSIG,UGKO,2018-09-14T22:30:00Z,42.18,42.48,19.0,18.0,70,10,,6.21,29.88189,,,TRUE,,,TRUE,,,,,SCT,9500,,,,,,,VFR,,,,,,,,,,,,METAR,68.0

        UGKO 142200Z AUTO 16004KT 9999 SCT096/// 19/18 Q1013 NOSIG,UGKO,2018-09-14T22:00:00Z,42.18,42.48,19.0,18.0,160,4,,6.21,29.911417,,,TRUE,,,TRUE,,,,,SCT,9600,,,,,,,VFR,,,,,,,,,,,,METAR,68.0

        UGKO 142130Z 23006KT 080V250 9999 SCT033CB BKN047 20/18 Q1014 NOSIG,UGKO,2018-09-14T21:30:00Z,42.18,42.48,20.0,18.0,230,6,,6.21,29.940945,,,,,,TRUE,,,,,SCT,3300,BKN,4700,,,,,VFR,,,,,,,,,,,,METAR,68.0

        UGKO 142100Z 25008KT 190V260 9999 SCT033CB OVC044 20/19 Q1014 NOSIG,UGKO,2018-09-14T21:00:00Z,42.18,42.48,20.0,19.0,250,8,,6.21,29.940945,,,,,,TRUE,,,,,SCT,3300,OVC,4400,,,,,VFR,,,,,,,,,,,,METAR,68.0

        UGKO 142030Z 25009KT 220V290 9999 VCTSRA SCT025CB OVC042 20/18 Q1014 NOSIG,UGKO,2018-09-14T20:30:00Z,42.18,42.48,20.0,18.0,250,9,,6.21,29.940945,,,,,,TRUE,,,,VCTSRA,SCT,2500,OVC,4200,,,,,VFR,,,,,,,,,,,,METAR,68.0

        UGKO 142000Z 25019G29KT 9999 VCTSRA SCT025CB BKN044 21/18 Q1014 NOSIG,UGKO,2018-09-14T20:00:00Z,42.18,42.48,21.0,18.0,250,19,29,6.21,29.940945,,,,,,TRUE,,,,VCTSRA,SCT,2500,BKN,4400,,,,,VFR,,,,,,,,,,,,METAR,68.0

        UGKO 141930Z VRB05KT 9999 VCTS SCT025CB BKN045 23/19 Q1010 NOSIG,UGKO,2018-09-14T19:30:00Z,42.18,42.48,23.0,19.0,0,5,,6.21,29.822834,,,,,,TRUE,,,,VCTS,SCT,2500,BKN,4500,,,,,VFR,,,,,,,,,,,,METAR,68.0

        UGKO 141900Z VRB04KT 9999 TSRA SCT029CB BKN049 23/19 Q1011 NOSIG,UGKO,2018-09-14T19:00:00Z,42.18,42.48,23.0,19.0,0,4,,6.21,29.852362,,,,,,TRUE,,,,TSRA,SCT,2900,BKN,4900,,,,,VFR,,,,,,,,,,,,METAR,68.0

        UGKO 141830Z VRB03KT 9999 TSRA SCT026CB BKN046 24/19 Q1012 NOSIG,UGKO,2018-09-14T18:30:00Z,42.18,42.48,24.0,19.0,0,3,,6.21,29.88189,,,,,,TRUE,,,,TSRA,SCT,2600,BKN,4600,,,,,VFR,,,,,,,,,,,,METAR,68.0

'}
    headers:
      Connection: [keep-alive]
      Content-Length: ['9789']
      Content-Type: [application/x-csv]
      Date: ['Sat, 15 Sep 2018 18:18:15 GMT']
      Server: [Apache-Coyote/1.1]
      Strict-Transport-Security: [max-age=63072000; includeSubdomains;]
      X-Content-Type-Options: [nosniff]
      X-Frame-Options: [SAMEORIGIN]
      X-XSS-Protection: [1; mode=block]
    status: {code: 200, message: OK}
version: 1
