interactions:
- request:
    body: null
    headers:
      Accept: ['*/*']
      Accept-Encoding: ['gzip, deflate']
      Connection: [keep-alive]
      User-Agent: [python-requests/2.19.1]
    method: GET
    uri: https://aviationweather.gov/adds/dataserver_current/httpparam?dataSource=metars&requestType=retrieve&format=csv&hoursBeforeNow=24&stationString=URSS
  response:
    body: {string: 'No errors

        No warnings

        4 ms

        data source=metars

        48 results

        raw_text,station_id,observation_time,latitude,longitude,temp_c,dewpoint_c,wind_dir_degrees,wind_speed_kt,wind_gust_kt,visibility_statute_mi,altim_in_hg,sea_level_pressure_mb,corrected,auto,auto_station,maintenance_indicator_on,no_signal,lightning_sensor_off,freezing_rain_sensor_off,present_weather_sensor_off,wx_string,sky_cover,cloud_base_ft_agl,sky_cover,cloud_base_ft_agl,sky_cover,cloud_base_ft_agl,sky_cover,cloud_base_ft_agl,flight_category,three_hr_pressure_tendency_mb,maxT_c,minT_c,maxT24hr_c,minT24hr_c,precip_in,pcp3hr_in,pcp6hr_in,pcp24hr_in,snow_in,vert_vis_ft,metar_type,elevation_m

        URSS 151800Z 03002MPS 9999 FEW026 BKN070 21/19 Q1015 WS ALL RWY R02/090070
        R06/090070 NOSIG RMK R06/07003MPS MT OBSC QFE759,URSS,2018-09-15T18:00:00Z,43.45,39.95,21.0,19.0,30,4,,6.21,29.970472,,,,,,TRUE,,,,,FEW,2600,BKN,7000,,,,,VFR,,,,,,,,,,,,METAR,16.0

        URSS 151730Z 05002MPS 9999 FEW026 BKN072 21/19 Q1014 WS ALL RWY R02/090070
        R06/090070 NOSIG RMK R06/09003MPS MT OBSC QFE759,URSS,2018-09-15T17:30:00Z,43.45,39.95,21.0,19.0,50,4,,6.21,29.940945,,,,,,TRUE,,,,,FEW,2600,BKN,7200,,,,,VFR,,,,,,,,,,,,SPECI,16.0

        URSS 151700Z 05002MPS 9999 FEW026 BKN075 21/19 Q1014 WS ALL RWY R02/090070
        R06/090070 NOSIG RMK R06/07002MPS MT OBSC QFE759,URSS,2018-09-15T17:00:00Z,43.45,39.95,21.0,19.0,50,4,,6.21,29.940945,,,,,,TRUE,,,,,FEW,2600,BKN,7500,,,,,VFR,,,,,,,,,,,,METAR,16.0

        URSS 151630Z 00000MPS 9999 FEW026 BKN075 23/19 Q1014 WS ALL RWY R02/090070
        R06/090070 NOSIG RMK R06/28002MPS MT OBSC QFE759,URSS,2018-09-15T16:30:00Z,43.45,39.95,23.0,19.0,0,0,,6.21,29.940945,,,,,,TRUE,,,,,FEW,2600,BKN,7500,,,,,VFR,,,,,,,,,,,,METAR,16.0

        URSS 151600Z 26001MPS 9999 SCT024CB BKN080 23/19 Q1014 WS ALL RWY R02/090070
        R06/090070 NOSIG RMK R06/26002MPS MT OBSC QFE759,URSS,2018-09-15T16:00:00Z,43.45,39.95,23.0,19.0,260,2,,6.21,29.940945,,,,,,TRUE,,,,,SCT,2400,BKN,8000,,,,,VFR,,,,,,,,,,,,METAR,16.0

        URSS 151530Z 25001MPS 9999 FEW023CB BKN078 24/19 Q1014 WS ALL RWY R02/090070
        R06/090070 NOSIG RMK R06/28003MPS MT OBSC QFE759,URSS,2018-09-15T15:30:00Z,43.45,39.95,24.0,19.0,250,2,,6.21,29.940945,,,,,,TRUE,,,,,FEW,2300,BKN,7800,,,,,VFR,,,,,,,,,,,,METAR,16.0

        URSS 151500Z 26002MPS 230V310 9999 FEW024TCU SCT076 24/18 Q1013 WS ALL RWY
        R02/090070 R06/090070 NOSIG RMK R06/28003MPS MT OBSC QFE759,URSS,2018-09-15T15:00:00Z,43.45,39.95,24.0,18.0,260,4,,6.21,29.911417,,,,,,TRUE,,,,,FEW,2400,SCT,7600,,,,,VFR,,,,,,,,,,,,METAR,16.0

        URSS 151430Z 29003MPS 9999 FEW028TCU 24/19 Q1013 WS ALL RWY R02/090070 R06/090070
        NOSIG RMK R06/29003MPS MT OBSC QFE758,URSS,2018-09-15T14:30:00Z,43.45,39.95,24.0,19.0,290,6,,6.21,29.911417,,,,,,TRUE,,,,,FEW,2800,,,,,,,VFR,,,,,,,,,,,,METAR,16.0

        URSS 151400Z 26003MPS 9999 FEW030TCU SCT120 25/19 Q1013 WS ALL RWY R02/090070
        R06/090070 NOSIG RMK R06/29004G08MPS MT OBSC QFE758,URSS,2018-09-15T14:00:00Z,43.45,39.95,25.0,19.0,260,6,,6.21,29.911417,,,,,,TRUE,,,,,FEW,3000,SCT,12000,,,,,VFR,,,,,,,,,,,,METAR,16.0

        URSS 151330Z 26003MPS 9999 FEW030TCU SCT120 25/19 Q1013 WS ALL RWY R02/090070
        R06/090070 NOSIG RMK R06/27004MPS MT OBSC QFE758,URSS,2018-09-15T13:30:00Z,43.45,39.95,25.0,19.0,260,6,,6.21,29.911417,,,,,,TRUE,,,,,FEW,3000,SCT,12000,,,,,VFR,,,,,,,,,,,,METAR,16.0

        URSS 151300Z 26004MPS 9999 SCT030TCU 25/20 Q1013 WS ALL RWY R02/090070 R06/090070
        NOSIG RMK R06/28004MPS MT OBSC QFE758,URSS,2018-09-15T13:00:00Z,43.45,39.95,25.0,20.0,260,8,,6.21,29.911417,,,,,,TRUE,,,,,SCT,3000,,,,,,,VFR,,,,,,,,,,,,METAR,16.0

        URSS 151230Z 27003MPS 9999 FEW030TCU BKN120 26/20 Q1013 WS ALL RWY R02/090070
        R06/090070 NOSIG RMK R06/29005MPS MT OBSC QFE758,URSS,2018-09-15T12:30:00Z,43.45,39.95,26.0,20.0,270,6,,6.21,29.911417,,,,,,TRUE,,,,,FEW,3000,BKN,12000,,,,,VFR,,,,,,,,,,,,METAR,16.0

        URSS 151200Z 26004MPS 9999 FEW026TCU BKN110 25/19 Q1012 WS ALL RWY R02/090070
        R06/090070 NOSIG RMK R06/27005MPS MT OBSC QFE758,URSS,2018-09-15T12:00:00Z,43.45,39.95,25.0,19.0,260,8,,6.21,29.88189,,,,,,TRUE,,,,,FEW,2600,BKN,11000,,,,,VFR,,,,,,,,,,,,METAR,16.0

        URSS 151130Z 27004MPS 9999 FEW033TCU BKN110 25/19 Q1012 WS ALL RWY R02/090070
        R06/090070 NOSIG RMK R06/27005MPS MT OBSC QFE758,URSS,2018-09-15T11:30:00Z,43.45,39.95,25.0,19.0,270,8,,6.21,29.88189,,,,,,TRUE,,,,,FEW,3300,BKN,11000,,,,,VFR,,,,,,,,,,,,METAR,16.0

        URSS 151100Z 29005MPS 9999 FEW033TCU BKN120 25/19 Q1012 WS ALL RWY R02/090070
        R06/090070 NOSIG RMK R06/29005MPS MT OBSC QFE758,URSS,2018-09-15T11:00:00Z,43.45,39.95,25.0,19.0,290,10,,6.21,29.88189,,,,,,TRUE,,,,,FEW,3300,BKN,12000,,,,,VFR,,,,,,,,,,,,METAR,16.0

        URSS 151030Z 27004MPS 9999 FEW030TCU BKN130 26/19 Q1012 WS ALL RWY R02/090070
        R06/090070 NOSIG RMK R06/28005MPS MT OBSC QFE758,URSS,2018-09-15T10:30:00Z,43.45,39.95,26.0,19.0,270,8,,6.21,29.88189,,,,,,TRUE,,,,,FEW,3000,BKN,13000,,,,,VFR,,,,,,,,,,,,SPECI,16.0

        URSS 151000Z 31003MPS 270V340 9999 FEW030TCU 26/18 Q1012 WS ALL RWY R02/090070
        R06/090070 NOSIG RMK R06/28004MPS MT OBSC QFE757,URSS,2018-09-15T10:00:00Z,43.45,39.95,26.0,18.0,310,6,,6.21,29.88189,,,,,,TRUE,,,,,FEW,3000,,,,,,,VFR,,,,,,,,,,,,METAR,16.0

        URSS 150930Z 28004MPS 9999 FEW030 26/18 Q1012 WS ALL RWY R02/090070 R06/090070
        NOSIG RMK R06/29004MPS MT OBSC QFE757,URSS,2018-09-15T09:30:00Z,43.45,39.95,26.0,18.0,280,8,,6.21,29.88189,,,,,,TRUE,,,,,FEW,3000,,,,,,,VFR,,,,,,,,,,,,METAR,16.0

        URSS 150900Z 26003MPS 9999 FEW026 26/19 Q1011 WS ALL RWY R02/090070 R06/090070
        NOSIG RMK R06/27004G07MPS MT OBSC QFE757,URSS,2018-09-15T09:00:00Z,43.45,39.95,26.0,19.0,260,6,,6.21,29.852362,,,,,,TRUE,,,,,FEW,2600,,,,,,,VFR,,,,,,,,,,,,METAR,16.0

        URSS 150830Z 25003MPS 9999 FEW026 26/20 Q1011 WS ALL RWY R02/090070 R06/090070
        NOSIG RMK R06/26003MPS MT OBSC QFE757,URSS,2018-09-15T08:30:00Z,43.45,39.95,26.0,20.0,250,6,,6.21,29.852362,,,,,,TRUE,,,,,FEW,2600,,,,,,,VFR,,,,,,,,,,,,METAR,16.0

        URSS 150800Z 23003MPS 9999 FEW023 26/19 Q1012 WS ALL RWY R02/090070 R06/090070
        NOSIG RMK R06/26004MPS MT OBSC QFE757,URSS,2018-09-15T08:00:00Z,43.45,39.95,26.0,19.0,230,6,,6.21,29.88189,,,,,,TRUE,,,,,FEW,2300,,,,,,,VFR,,,,,,,,,,,,METAR,16.0

        URSS 150730Z 12001MPS 9999 FEW023 25/18 Q1012 WS ALL RWY R02/090070 R06/090070
        NOSIG RMK R06/25003MPS MT OBSC QFE757,URSS,2018-09-15T07:30:00Z,43.45,39.95,25.0,18.0,120,2,,6.21,29.88189,,,,,,TRUE,,,,,FEW,2300,,,,,,,VFR,,,,,,,,,,,,METAR,16.0

        URSS 150700Z 04002MPS 9999 FEW023 25/18 Q1012 WS ALL RWY R02/090070 R06/090070
        NOSIG RMK R06/10002MPS MT OBSC QFE757,URSS,2018-09-15T07:00:00Z,43.45,39.95,25.0,18.0,40,4,,6.21,29.88189,,,,,,TRUE,,,,,FEW,2300,,,,,,,VFR,,,,,,,,,,,,METAR,16.0

        URSS 150630Z 03004MPS 9999 FEW023 24/17 Q1012 WS ALL RWY R02/090070 R06/090070
        NOSIG RMK R06/09003MPS MT OBSC QFE758,URSS,2018-09-15T06:30:00Z,43.45,39.95,24.0,17.0,30,8,,6.21,29.88189,,,,,,TRUE,,,,,FEW,2300,,,,,,,VFR,,,,,,,,,,,,METAR,16.0

        URSS 150600Z 03005MPS 9999 FEW023 23/17 Q1012 WS ALL RWY R02/090070 R06/090070
        NOSIG RMK R06/07003MPS MT OBSC QFE758,URSS,2018-09-15T06:00:00Z,43.45,39.95,23.0,17.0,30,10,,6.21,29.88189,,,,,,TRUE,,,,,FEW,2300,,,,,,,VFR,,,,,,,,,,,,METAR,16.0

        URSS 150530Z 04004MPS 9999 FEW040 22/16 Q1012 WS ALL RWY R02/090070 R06/090070
        NOSIG RMK R06/07004MPS MT OBSC QFE757,URSS,2018-09-15T05:30:00Z,43.45,39.95,22.0,16.0,40,8,,6.21,29.88189,,,,,,TRUE,,,,,FEW,4000,,,,,,,VFR,,,,,,,,,,,,METAR,16.0

        URSS 150500Z 05004MPS 9999 FEW040CB 21/16 Q1012 WS ALL RWY R02/090070 R06/090070
        NOSIG RMK R06/09004MPS MT OBSC QFE757,URSS,2018-09-15T05:00:00Z,43.45,39.95,21.0,16.0,50,8,,6.21,29.88189,,,,,,TRUE,,,,,FEW,4000,,,,,,,VFR,,,,,,,,,,,,METAR,16.0

        URSS 150430Z 04004MPS 9999 FEW040CB SCT100 21/16 Q1012 WS ALL RWY R02/090070
        R06/090070 NOSIG RMK R06/07005MPS MT OBSC QFE757,URSS,2018-09-15T04:30:00Z,43.45,39.95,21.0,16.0,40,8,,6.21,29.88189,,,,,,TRUE,,,,,FEW,4000,SCT,10000,,,,,VFR,,,,,,,,,,,,SPECI,16.0

        URSS 150400Z 06004MPS 9999 SCT040CB SCT100 20/16 Q1011 WS ALL RWY R02/090070
        R06/090070 NOSIG RMK R06/09005MPS MT OBSC QFE757,URSS,2018-09-15T04:00:00Z,43.45,39.95,20.0,16.0,60,8,,6.21,29.852362,,,,,,TRUE,,,,,SCT,4000,SCT,10000,,,,,VFR,,,,,,,,,,,,METAR,16.0

        URSS 150330Z 05003MPS 9999 SCT040CB BKN100 19/16 Q1011 WS ALL RWY R02/090070
        R06/090070 NOSIG RMK R06/08005MPS MT OBSC QFE757,URSS,2018-09-15T03:30:00Z,43.45,39.95,19.0,16.0,50,6,,6.21,29.852362,,,,,,TRUE,,,,,SCT,4000,BKN,10000,,,,,VFR,,,,,,,,,,,,SPECI,16.0

        URSS 150300Z 05003MPS 9999 BKN040CB BKN100 19/16 Q1011 WS ALL RWY R02/090070
        R06/090070 NOSIG RMK R06/07005MPS MT OBSC QFE757,URSS,2018-09-15T03:00:00Z,43.45,39.95,19.0,16.0,50,6,,6.21,29.852362,,,,,,TRUE,,,,,BKN,4000,BKN,10000,,,,,VFR,,,,,,,,,,,,METAR,16.0

        URSS 150230Z 04005MPS 9999 BKN020CB 19/16 Q1011 WS ALL RWY R02/090070 R06/090070
        NOSIG RMK R06/07005MPS MT OBSC QFE757,URSS,2018-09-15T02:30:00Z,43.45,39.95,19.0,16.0,40,10,,6.21,29.852362,,,,,,TRUE,,,,,BKN,2000,,,,,,,MVFR,,,,,,,,,,,,METAR,16.0

        URSS 150200Z 04003MPS 9999 SCT030CB BKN100 19/16 Q1011 WS ALL RWY R02/090070
        R06/090070 NOSIG RMK R06/07005MPS MT OBSC QFE757,URSS,2018-09-15T02:00:00Z,43.45,39.95,19.0,16.0,40,6,,6.21,29.852362,,,,,,TRUE,,,,,SCT,3000,BKN,10000,,,,,VFR,,,,,,,,,,,,METAR,16.0

        URSS 150130Z 04004MPS 9999 FEW030CB BKN100 19/16 Q1012 WS ALL RWY R02/090070
        R06/090070 NOSIG RMK R06/07006MPS MT OBSC QFE757,URSS,2018-09-15T01:30:00Z,43.45,39.95,19.0,16.0,40,8,,6.21,29.88189,,,,,,TRUE,,,,,FEW,3000,BKN,10000,,,,,VFR,,,,,,,,,,,,METAR,16.0

        URSS 150100Z 05005MPS 9999 FEW040CB SCT100 19/17 Q1011 WS ALL RWY R02/090070
        R06/090070 NOSIG RMK R06/08005MPS MT OBSC QFE757,URSS,2018-09-15T01:00:00Z,43.45,39.95,19.0,17.0,50,10,,6.21,29.852362,,,,,,TRUE,,,,,FEW,4000,SCT,10000,,,,,VFR,,,,,,,,,,,,METAR,16.0

        URSS 150030Z 05004MPS 9999 FEW040CB SCT100 19/17 Q1011 WS ALL RWY R02/090070
        R06/090070 NOSIG RMK R06/08005MPS MT OBSC QFE757,URSS,2018-09-15T00:30:00Z,43.45,39.95,19.0,17.0,50,8,,6.21,29.852362,,,,,,TRUE,,,,,FEW,4000,SCT,10000,,,,,VFR,,,,,,,,,,,,METAR,16.0

        URSS 150000Z 05004MPS 9999 FEW040CB BKN100 19/17 Q1011 WS ALL RWY R02/210350
        R06/190060 NOSIG RMK R06/07004MPS MT OBSC QFE757,URSS,2018-09-15T00:00:00Z,43.45,39.95,19.0,17.0,50,8,,6.21,29.852362,,,,,,TRUE,,,,,FEW,4000,BKN,10000,,,,,VFR,,,,,,,,,,,,METAR,16.0

        URSS 142330Z 05004MPS 9999 BKN040CB 19/17 Q1012 WS ALL RWY R02/210350 R06/190060
        NOSIG RMK R06/08005MPS MT OBSC QFE757,URSS,2018-09-14T23:30:00Z,43.45,39.95,19.0,17.0,50,8,,6.21,29.88189,,,,,,TRUE,,,,,BKN,4000,,,,,,,VFR,,,,,,,,,,,,METAR,16.0

        URSS 142300Z 05004MPS 9999 BKN040CB 20/17 Q1012 WS ALL RWY R02/210350 R06/190060
        NOSIG RMK R06/08004MPS MT OBSC QFE757,URSS,2018-09-14T23:00:00Z,43.45,39.95,20.0,17.0,50,8,,6.21,29.88189,,,,,,TRUE,,,,,BKN,4000,,,,,,,VFR,,,,,,,,,,,,METAR,16.0

        URSS 142230Z 05003MPS 9999 BKN040CB 20/17 Q1012 WS ALL RWY R02/210350 R06/190060
        NOSIG RMK R06/07005MPS MT OBSC QFE758,URSS,2018-09-14T22:30:00Z,43.45,39.95,20.0,17.0,50,6,,6.21,29.88189,,,,,,TRUE,,,,,BKN,4000,,,,,,,VFR,,,,,,,,,,,,SPECI,16.0

        URSS 142200Z 04003MPS 9999 BKN033CB 20/16 Q1012 WS ALL RWY R02/210350 R06/190060
        NOSIG RMK R06/07005MPS MT OBSC QFE758,URSS,2018-09-14T22:00:00Z,43.45,39.95,20.0,16.0,40,6,,6.21,29.88189,,,,,,TRUE,,,,,BKN,3300,,,,,,,VFR,,,,,,,,,,,,METAR,16.0

        URSS 142130Z 06004MPS 9999 SCT032CB 20/16 Q1012 WS ALL RWY R02/210350 R06/190060
        NOSIG RMK R06/08005MPS MT OBSC QFE757,URSS,2018-09-14T21:30:00Z,43.45,39.95,20.0,16.0,60,8,,6.21,29.88189,,,,,,TRUE,,,,,SCT,3200,,,,,,,VFR,,,,,,,,,,,,METAR,16.0

        URSS 142100Z 04003MPS 010V090 9999 BKN050CB 20/16 Q1011 WS ALL RWY R02/210350
        R06/190060 NOSIG RMK R06/08004MPS QFE757,URSS,2018-09-14T21:00:00Z,43.45,39.95,20.0,16.0,40,6,,6.21,29.852362,,,,,,TRUE,,,,,BKN,5000,,,,,,,VFR,,,,,,,,,,,,METAR,16.0

        URSS 142030Z 04003MPS 010V090 9999 BKN050CB 20/17 Q1010 WS ALL RWY R02/210350
        R06/190060 NOSIG RMK R06/33002G05MPS QFE756,URSS,2018-09-14T20:30:00Z,43.45,39.95,20.0,17.0,40,6,,6.21,29.822834,,,,,,TRUE,,,,,BKN,5000,,,,,,,VFR,,,,,,,,,,,,METAR,16.0

        URSS 142000Z 25003MPS 200V320 9999 BKN050CB OVC100 22/16 Q1011 WS ALL RWY
        R02/210350 R06/190060 NOSIG RMK R06/25002G05MPS QFE757,URSS,2018-09-14T20:00:00Z,43.45,39.95,22.0,16.0,250,6,,6.21,29.852362,,,,,,TRUE,,,,,BKN,5000,OVC,10000,,,,,VFR,,,,,,,,,,,,METAR,16.0

        URSS 141930Z 06006MPS 9999 BKN050CB OVC100 22/15 Q1009 WS ALL RWY R02/190060
        R06/190060 NOSIG RMK R06/06010G13MPS QFE755,URSS,2018-09-14T19:30:00Z,43.45,39.95,22.0,15.0,60,12,,6.21,29.793306,,,,,,TRUE,,,,,BKN,5000,OVC,10000,,,,,VFR,,,,,,,,,,,,METAR,16.0

        URSS 141900Z 05004MPS 030V110 9999 -SHRA BKN050CB OVC100 20/17 Q1011 WS ALL
        RWY R02/190060 R06/190060 NOSIG RMK R06/09006MPS QFE756,URSS,2018-09-14T19:00:00Z,43.45,39.95,20.0,17.0,50,8,,6.21,29.852362,,,,,,TRUE,,,,-SHRA,BKN,5000,OVC,10000,,,,,VFR,,,,,,,,,,,,METAR,16.0

        URSS 141830Z 03006MPS 9999 BKN050CB OVC100 21/17 Q1009 WS ALL RWY R02/190060
        R06/190060 NOSIG RMK R06/06007G10MPS QFE755,URSS,2018-09-14T18:30:00Z,43.45,39.95,21.0,17.0,30,12,,6.21,29.793306,,,,,,TRUE,,,,,BKN,5000,OVC,10000,,,,,VFR,,,,,,,,,,,,METAR,16.0

'}
    headers:
      Connection: [keep-alive]
      Content-Length: ['12736']
      Content-Type: [application/x-csv]
      Date: ['Sat, 15 Sep 2018 18:09:47 GMT']
      Server: [Apache-Coyote/1.1]
      Strict-Transport-Security: [max-age=63072000; includeSubdomains;]
      X-Content-Type-Options: [nosniff]
      X-Frame-Options: [SAMEORIGIN]
      X-XSS-Protection: [1; mode=block]
    status: {code: 200, message: OK}
- request:
    body: null
    headers:
      Accept: ['*/*']
      Accept-Encoding: ['gzip, deflate']
      Connection: [keep-alive]
      User-Agent: [python-requests/2.19.1]
    method: GET
    uri: https://aviationweather.gov/adds/dataserver_current/httpparam?dataSource=metars&requestType=retrieve&format=csv&hoursBeforeNow=24&stationString=URSS
  response:
    body: {string: 'No errors

        No warnings

        4 ms

        data source=metars

        48 results

        raw_text,station_id,observation_time,latitude,longitude,temp_c,dewpoint_c,wind_dir_degrees,wind_speed_kt,wind_gust_kt,visibility_statute_mi,altim_in_hg,sea_level_pressure_mb,corrected,auto,auto_station,maintenance_indicator_on,no_signal,lightning_sensor_off,freezing_rain_sensor_off,present_weather_sensor_off,wx_string,sky_cover,cloud_base_ft_agl,sky_cover,cloud_base_ft_agl,sky_cover,cloud_base_ft_agl,sky_cover,cloud_base_ft_agl,flight_category,three_hr_pressure_tendency_mb,maxT_c,minT_c,maxT24hr_c,minT24hr_c,precip_in,pcp3hr_in,pcp6hr_in,pcp24hr_in,snow_in,vert_vis_ft,metar_type,elevation_m

        URSS 151800Z 03002MPS 9999 FEW026 BKN070 21/19 Q1015 WS ALL RWY R02/090070
        R06/090070 NOSIG RMK R06/07003MPS MT OBSC QFE759,URSS,2018-09-15T18:00:00Z,43.45,39.95,21.0,19.0,30,4,,6.21,29.970472,,,,,,TRUE,,,,,FEW,2600,BKN,7000,,,,,VFR,,,,,,,,,,,,METAR,16.0

        URSS 151730Z 05002MPS 9999 FEW026 BKN072 21/19 Q1014 WS ALL RWY R02/090070
        R06/090070 NOSIG RMK R06/09003MPS MT OBSC QFE759,URSS,2018-09-15T17:30:00Z,43.45,39.95,21.0,19.0,50,4,,6.21,29.940945,,,,,,TRUE,,,,,FEW,2600,BKN,7200,,,,,VFR,,,,,,,,,,,,SPECI,16.0

        URSS 151700Z 05002MPS 9999 FEW026 BKN075 21/19 Q1014 WS ALL RWY R02/090070
        R06/090070 NOSIG RMK R06/07002MPS MT OBSC QFE759,URSS,2018-09-15T17:00:00Z,43.45,39.95,21.0,19.0,50,4,,6.21,29.940945,,,,,,TRUE,,,,,FEW,2600,BKN,7500,,,,,VFR,,,,,,,,,,,,METAR,16.0

        URSS 151630Z 00000MPS 9999 FEW026 BKN075 23/19 Q1014 WS ALL RWY R02/090070
        R06/090070 NOSIG RMK R06/28002MPS MT OBSC QFE759,URSS,2018-09-15T16:30:00Z,43.45,39.95,23.0,19.0,0,0,,6.21,29.940945,,,,,,TRUE,,,,,FEW,2600,BKN,7500,,,,,VFR,,,,,,,,,,,,METAR,16.0

        URSS 151600Z 26001MPS 9999 SCT024CB BKN080 23/19 Q1014 WS ALL RWY R02/090070
        R06/090070 NOSIG RMK R06/26002MPS MT OBSC QFE759,URSS,2018-09-15T16:00:00Z,43.45,39.95,23.0,19.0,260,2,,6.21,29.940945,,,,,,TRUE,,,,,SCT,2400,BKN,8000,,,,,VFR,,,,,,,,,,,,METAR,16.0

        URSS 151530Z 25001MPS 9999 FEW023CB BKN078 24/19 Q1014 WS ALL RWY R02/090070
        R06/090070 NOSIG RMK R06/28003MPS MT OBSC QFE759,URSS,2018-09-15T15:30:00Z,43.45,39.95,24.0,19.0,250,2,,6.21,29.940945,,,,,,TRUE,,,,,FEW,2300,BKN,7800,,,,,VFR,,,,,,,,,,,,METAR,16.0

        URSS 151500Z 26002MPS 230V310 9999 FEW024TCU SCT076 24/18 Q1013 WS ALL RWY
        R02/090070 R06/090070 NOSIG RMK R06/28003MPS MT OBSC QFE759,URSS,2018-09-15T15:00:00Z,43.45,39.95,24.0,18.0,260,4,,6.21,29.911417,,,,,,TRUE,,,,,FEW,2400,SCT,7600,,,,,VFR,,,,,,,,,,,,METAR,16.0

        URSS 151430Z 29003MPS 9999 FEW028TCU 24/19 Q1013 WS ALL RWY R02/090070 R06/090070
        NOSIG RMK R06/29003MPS MT OBSC QFE758,URSS,2018-09-15T14:30:00Z,43.45,39.95,24.0,19.0,290,6,,6.21,29.911417,,,,,,TRUE,,,,,FEW,2800,,,,,,,VFR,,,,,,,,,,,,METAR,16.0

        URSS 151400Z 26003MPS 9999 FEW030TCU SCT120 25/19 Q1013 WS ALL RWY R02/090070
        R06/090070 NOSIG RMK R06/29004G08MPS MT OBSC QFE758,URSS,2018-09-15T14:00:00Z,43.45,39.95,25.0,19.0,260,6,,6.21,29.911417,,,,,,TRUE,,,,,FEW,3000,SCT,12000,,,,,VFR,,,,,,,,,,,,METAR,16.0

        URSS 151330Z 26003MPS 9999 FEW030TCU SCT120 25/19 Q1013 WS ALL RWY R02/090070
        R06/090070 NOSIG RMK R06/27004MPS MT OBSC QFE758,URSS,2018-09-15T13:30:00Z,43.45,39.95,25.0,19.0,260,6,,6.21,29.911417,,,,,,TRUE,,,,,FEW,3000,SCT,12000,,,,,VFR,,,,,,,,,,,,METAR,16.0

        URSS 151300Z 26004MPS 9999 SCT030TCU 25/20 Q1013 WS ALL RWY R02/090070 R06/090070
        NOSIG RMK R06/28004MPS MT OBSC QFE758,URSS,2018-09-15T13:00:00Z,43.45,39.95,25.0,20.0,260,8,,6.21,29.911417,,,,,,TRUE,,,,,SCT,3000,,,,,,,VFR,,,,,,,,,,,,METAR,16.0

        URSS 151230Z 27003MPS 9999 FEW030TCU BKN120 26/20 Q1013 WS ALL RWY R02/090070
        R06/090070 NOSIG RMK R06/29005MPS MT OBSC QFE758,URSS,2018-09-15T12:30:00Z,43.45,39.95,26.0,20.0,270,6,,6.21,29.911417,,,,,,TRUE,,,,,FEW,3000,BKN,12000,,,,,VFR,,,,,,,,,,,,METAR,16.0

        URSS 151200Z 26004MPS 9999 FEW026TCU BKN110 25/19 Q1012 WS ALL RWY R02/090070
        R06/090070 NOSIG RMK R06/27005MPS MT OBSC QFE758,URSS,2018-09-15T12:00:00Z,43.45,39.95,25.0,19.0,260,8,,6.21,29.88189,,,,,,TRUE,,,,,FEW,2600,BKN,11000,,,,,VFR,,,,,,,,,,,,METAR,16.0

        URSS 151130Z 27004MPS 9999 FEW033TCU BKN110 25/19 Q1012 WS ALL RWY R02/090070
        R06/090070 NOSIG RMK R06/27005MPS MT OBSC QFE758,URSS,2018-09-15T11:30:00Z,43.45,39.95,25.0,19.0,270,8,,6.21,29.88189,,,,,,TRUE,,,,,FEW,3300,BKN,11000,,,,,VFR,,,,,,,,,,,,METAR,16.0

        URSS 151100Z 29005MPS 9999 FEW033TCU BKN120 25/19 Q1012 WS ALL RWY R02/090070
        R06/090070 NOSIG RMK R06/29005MPS MT OBSC QFE758,URSS,2018-09-15T11:00:00Z,43.45,39.95,25.0,19.0,290,10,,6.21,29.88189,,,,,,TRUE,,,,,FEW,3300,BKN,12000,,,,,VFR,,,,,,,,,,,,METAR,16.0

        URSS 151030Z 27004MPS 9999 FEW030TCU BKN130 26/19 Q1012 WS ALL RWY R02/090070
        R06/090070 NOSIG RMK R06/28005MPS MT OBSC QFE758,URSS,2018-09-15T10:30:00Z,43.45,39.95,26.0,19.0,270,8,,6.21,29.88189,,,,,,TRUE,,,,,FEW,3000,BKN,13000,,,,,VFR,,,,,,,,,,,,SPECI,16.0

        URSS 151000Z 31003MPS 270V340 9999 FEW030TCU 26/18 Q1012 WS ALL RWY R02/090070
        R06/090070 NOSIG RMK R06/28004MPS MT OBSC QFE757,URSS,2018-09-15T10:00:00Z,43.45,39.95,26.0,18.0,310,6,,6.21,29.88189,,,,,,TRUE,,,,,FEW,3000,,,,,,,VFR,,,,,,,,,,,,METAR,16.0

        URSS 150930Z 28004MPS 9999 FEW030 26/18 Q1012 WS ALL RWY R02/090070 R06/090070
        NOSIG RMK R06/29004MPS MT OBSC QFE757,URSS,2018-09-15T09:30:00Z,43.45,39.95,26.0,18.0,280,8,,6.21,29.88189,,,,,,TRUE,,,,,FEW,3000,,,,,,,VFR,,,,,,,,,,,,METAR,16.0

        URSS 150900Z 26003MPS 9999 FEW026 26/19 Q1011 WS ALL RWY R02/090070 R06/090070
        NOSIG RMK R06/27004G07MPS MT OBSC QFE757,URSS,2018-09-15T09:00:00Z,43.45,39.95,26.0,19.0,260,6,,6.21,29.852362,,,,,,TRUE,,,,,FEW,2600,,,,,,,VFR,,,,,,,,,,,,METAR,16.0

        URSS 150830Z 25003MPS 9999 FEW026 26/20 Q1011 WS ALL RWY R02/090070 R06/090070
        NOSIG RMK R06/26003MPS MT OBSC QFE757,URSS,2018-09-15T08:30:00Z,43.45,39.95,26.0,20.0,250,6,,6.21,29.852362,,,,,,TRUE,,,,,FEW,2600,,,,,,,VFR,,,,,,,,,,,,METAR,16.0

        URSS 150800Z 23003MPS 9999 FEW023 26/19 Q1012 WS ALL RWY R02/090070 R06/090070
        NOSIG RMK R06/26004MPS MT OBSC QFE757,URSS,2018-09-15T08:00:00Z,43.45,39.95,26.0,19.0,230,6,,6.21,29.88189,,,,,,TRUE,,,,,FEW,2300,,,,,,,VFR,,,,,,,,,,,,METAR,16.0

        URSS 150730Z 12001MPS 9999 FEW023 25/18 Q1012 WS ALL RWY R02/090070 R06/090070
        NOSIG RMK R06/25003MPS MT OBSC QFE757,URSS,2018-09-15T07:30:00Z,43.45,39.95,25.0,18.0,120,2,,6.21,29.88189,,,,,,TRUE,,,,,FEW,2300,,,,,,,VFR,,,,,,,,,,,,METAR,16.0

        URSS 150700Z 04002MPS 9999 FEW023 25/18 Q1012 WS ALL RWY R02/090070 R06/090070
        NOSIG RMK R06/10002MPS MT OBSC QFE757,URSS,2018-09-15T07:00:00Z,43.45,39.95,25.0,18.0,40,4,,6.21,29.88189,,,,,,TRUE,,,,,FEW,2300,,,,,,,VFR,,,,,,,,,,,,METAR,16.0

        URSS 150630Z 03004MPS 9999 FEW023 24/17 Q1012 WS ALL RWY R02/090070 R06/090070
        NOSIG RMK R06/09003MPS MT OBSC QFE758,URSS,2018-09-15T06:30:00Z,43.45,39.95,24.0,17.0,30,8,,6.21,29.88189,,,,,,TRUE,,,,,FEW,2300,,,,,,,VFR,,,,,,,,,,,,METAR,16.0

        URSS 150600Z 03005MPS 9999 FEW023 23/17 Q1012 WS ALL RWY R02/090070 R06/090070
        NOSIG RMK R06/07003MPS MT OBSC QFE758,URSS,2018-09-15T06:00:00Z,43.45,39.95,23.0,17.0,30,10,,6.21,29.88189,,,,,,TRUE,,,,,FEW,2300,,,,,,,VFR,,,,,,,,,,,,METAR,16.0

        URSS 150530Z 04004MPS 9999 FEW040 22/16 Q1012 WS ALL RWY R02/090070 R06/090070
        NOSIG RMK R06/07004MPS MT OBSC QFE757,URSS,2018-09-15T05:30:00Z,43.45,39.95,22.0,16.0,40,8,,6.21,29.88189,,,,,,TRUE,,,,,FEW,4000,,,,,,,VFR,,,,,,,,,,,,METAR,16.0

        URSS 150500Z 05004MPS 9999 FEW040CB 21/16 Q1012 WS ALL RWY R02/090070 R06/090070
        NOSIG RMK R06/09004MPS MT OBSC QFE757,URSS,2018-09-15T05:00:00Z,43.45,39.95,21.0,16.0,50,8,,6.21,29.88189,,,,,,TRUE,,,,,FEW,4000,,,,,,,VFR,,,,,,,,,,,,METAR,16.0

        URSS 150430Z 04004MPS 9999 FEW040CB SCT100 21/16 Q1012 WS ALL RWY R02/090070
        R06/090070 NOSIG RMK R06/07005MPS MT OBSC QFE757,URSS,2018-09-15T04:30:00Z,43.45,39.95,21.0,16.0,40,8,,6.21,29.88189,,,,,,TRUE,,,,,FEW,4000,SCT,10000,,,,,VFR,,,,,,,,,,,,SPECI,16.0

        URSS 150400Z 06004MPS 9999 SCT040CB SCT100 20/16 Q1011 WS ALL RWY R02/090070
        R06/090070 NOSIG RMK R06/09005MPS MT OBSC QFE757,URSS,2018-09-15T04:00:00Z,43.45,39.95,20.0,16.0,60,8,,6.21,29.852362,,,,,,TRUE,,,,,SCT,4000,SCT,10000,,,,,VFR,,,,,,,,,,,,METAR,16.0

        URSS 150330Z 05003MPS 9999 SCT040CB BKN100 19/16 Q1011 WS ALL RWY R02/090070
        R06/090070 NOSIG RMK R06/08005MPS MT OBSC QFE757,URSS,2018-09-15T03:30:00Z,43.45,39.95,19.0,16.0,50,6,,6.21,29.852362,,,,,,TRUE,,,,,SCT,4000,BKN,10000,,,,,VFR,,,,,,,,,,,,SPECI,16.0

        URSS 150300Z 05003MPS 9999 BKN040CB BKN100 19/16 Q1011 WS ALL RWY R02/090070
        R06/090070 NOSIG RMK R06/07005MPS MT OBSC QFE757,URSS,2018-09-15T03:00:00Z,43.45,39.95,19.0,16.0,50,6,,6.21,29.852362,,,,,,TRUE,,,,,BKN,4000,BKN,10000,,,,,VFR,,,,,,,,,,,,METAR,16.0

        URSS 150230Z 04005MPS 9999 BKN020CB 19/16 Q1011 WS ALL RWY R02/090070 R06/090070
        NOSIG RMK R06/07005MPS MT OBSC QFE757,URSS,2018-09-15T02:30:00Z,43.45,39.95,19.0,16.0,40,10,,6.21,29.852362,,,,,,TRUE,,,,,BKN,2000,,,,,,,MVFR,,,,,,,,,,,,METAR,16.0

        URSS 150200Z 04003MPS 9999 SCT030CB BKN100 19/16 Q1011 WS ALL RWY R02/090070
        R06/090070 NOSIG RMK R06/07005MPS MT OBSC QFE757,URSS,2018-09-15T02:00:00Z,43.45,39.95,19.0,16.0,40,6,,6.21,29.852362,,,,,,TRUE,,,,,SCT,3000,BKN,10000,,,,,VFR,,,,,,,,,,,,METAR,16.0

        URSS 150130Z 04004MPS 9999 FEW030CB BKN100 19/16 Q1012 WS ALL RWY R02/090070
        R06/090070 NOSIG RMK R06/07006MPS MT OBSC QFE757,URSS,2018-09-15T01:30:00Z,43.45,39.95,19.0,16.0,40,8,,6.21,29.88189,,,,,,TRUE,,,,,FEW,3000,BKN,10000,,,,,VFR,,,,,,,,,,,,METAR,16.0

        URSS 150100Z 05005MPS 9999 FEW040CB SCT100 19/17 Q1011 WS ALL RWY R02/090070
        R06/090070 NOSIG RMK R06/08005MPS MT OBSC QFE757,URSS,2018-09-15T01:00:00Z,43.45,39.95,19.0,17.0,50,10,,6.21,29.852362,,,,,,TRUE,,,,,FEW,4000,SCT,10000,,,,,VFR,,,,,,,,,,,,METAR,16.0

        URSS 150030Z 05004MPS 9999 FEW040CB SCT100 19/17 Q1011 WS ALL RWY R02/090070
        R06/090070 NOSIG RMK R06/08005MPS MT OBSC QFE757,URSS,2018-09-15T00:30:00Z,43.45,39.95,19.0,17.0,50,8,,6.21,29.852362,,,,,,TRUE,,,,,FEW,4000,SCT,10000,,,,,VFR,,,,,,,,,,,,METAR,16.0

        URSS 150000Z 05004MPS 9999 FEW040CB BKN100 19/17 Q1011 WS ALL RWY R02/210350
        R06/190060 NOSIG RMK R06/07004MPS MT OBSC QFE757,URSS,2018-09-15T00:00:00Z,43.45,39.95,19.0,17.0,50,8,,6.21,29.852362,,,,,,TRUE,,,,,FEW,4000,BKN,10000,,,,,VFR,,,,,,,,,,,,METAR,16.0

        URSS 142330Z 05004MPS 9999 BKN040CB 19/17 Q1012 WS ALL RWY R02/210350 R06/190060
        NOSIG RMK R06/08005MPS MT OBSC QFE757,URSS,2018-09-14T23:30:00Z,43.45,39.95,19.0,17.0,50,8,,6.21,29.88189,,,,,,TRUE,,,,,BKN,4000,,,,,,,VFR,,,,,,,,,,,,METAR,16.0

        URSS 142300Z 05004MPS 9999 BKN040CB 20/17 Q1012 WS ALL RWY R02/210350 R06/190060
        NOSIG RMK R06/08004MPS MT OBSC QFE757,URSS,2018-09-14T23:00:00Z,43.45,39.95,20.0,17.0,50,8,,6.21,29.88189,,,,,,TRUE,,,,,BKN,4000,,,,,,,VFR,,,,,,,,,,,,METAR,16.0

        URSS 142230Z 05003MPS 9999 BKN040CB 20/17 Q1012 WS ALL RWY R02/210350 R06/190060
        NOSIG RMK R06/07005MPS MT OBSC QFE758,URSS,2018-09-14T22:30:00Z,43.45,39.95,20.0,17.0,50,6,,6.21,29.88189,,,,,,TRUE,,,,,BKN,4000,,,,,,,VFR,,,,,,,,,,,,SPECI,16.0

        URSS 142200Z 04003MPS 9999 BKN033CB 20/16 Q1012 WS ALL RWY R02/210350 R06/190060
        NOSIG RMK R06/07005MPS MT OBSC QFE758,URSS,2018-09-14T22:00:00Z,43.45,39.95,20.0,16.0,40,6,,6.21,29.88189,,,,,,TRUE,,,,,BKN,3300,,,,,,,VFR,,,,,,,,,,,,METAR,16.0

        URSS 142130Z 06004MPS 9999 SCT032CB 20/16 Q1012 WS ALL RWY R02/210350 R06/190060
        NOSIG RMK R06/08005MPS MT OBSC QFE757,URSS,2018-09-14T21:30:00Z,43.45,39.95,20.0,16.0,60,8,,6.21,29.88189,,,,,,TRUE,,,,,SCT,3200,,,,,,,VFR,,,,,,,,,,,,METAR,16.0

        URSS 142100Z 04003MPS 010V090 9999 BKN050CB 20/16 Q1011 WS ALL RWY R02/210350
        R06/190060 NOSIG RMK R06/08004MPS QFE757,URSS,2018-09-14T21:00:00Z,43.45,39.95,20.0,16.0,40,6,,6.21,29.852362,,,,,,TRUE,,,,,BKN,5000,,,,,,,VFR,,,,,,,,,,,,METAR,16.0

        URSS 142030Z 04003MPS 010V090 9999 BKN050CB 20/17 Q1010 WS ALL RWY R02/210350
        R06/190060 NOSIG RMK R06/33002G05MPS QFE756,URSS,2018-09-14T20:30:00Z,43.45,39.95,20.0,17.0,40,6,,6.21,29.822834,,,,,,TRUE,,,,,BKN,5000,,,,,,,VFR,,,,,,,,,,,,METAR,16.0

        URSS 142000Z 25003MPS 200V320 9999 BKN050CB OVC100 22/16 Q1011 WS ALL RWY
        R02/210350 R06/190060 NOSIG RMK R06/25002G05MPS QFE757,URSS,2018-09-14T20:00:00Z,43.45,39.95,22.0,16.0,250,6,,6.21,29.852362,,,,,,TRUE,,,,,BKN,5000,OVC,10000,,,,,VFR,,,,,,,,,,,,METAR,16.0

        URSS 141930Z 06006MPS 9999 BKN050CB OVC100 22/15 Q1009 WS ALL RWY R02/190060
        R06/190060 NOSIG RMK R06/06010G13MPS QFE755,URSS,2018-09-14T19:30:00Z,43.45,39.95,22.0,15.0,60,12,,6.21,29.793306,,,,,,TRUE,,,,,BKN,5000,OVC,10000,,,,,VFR,,,,,,,,,,,,METAR,16.0

        URSS 141900Z 05004MPS 030V110 9999 -SHRA BKN050CB OVC100 20/17 Q1011 WS ALL
        RWY R02/190060 R06/190060 NOSIG RMK R06/09006MPS QFE756,URSS,2018-09-14T19:00:00Z,43.45,39.95,20.0,17.0,50,8,,6.21,29.852362,,,,,,TRUE,,,,-SHRA,BKN,5000,OVC,10000,,,,,VFR,,,,,,,,,,,,METAR,16.0

        URSS 141830Z 03006MPS 9999 BKN050CB OVC100 21/17 Q1009 WS ALL RWY R02/190060
        R06/190060 NOSIG RMK R06/06007G10MPS QFE755,URSS,2018-09-14T18:30:00Z,43.45,39.95,21.0,17.0,30,12,,6.21,29.793306,,,,,,TRUE,,,,,BKN,5000,OVC,10000,,,,,VFR,,,,,,,,,,,,METAR,16.0

'}
    headers:
      Connection: [keep-alive]
      Content-Length: ['12736']
      Content-Type: [application/x-csv]
      Date: ['Sat, 15 Sep 2018 18:18:15 GMT']
      Server: [Apache-Coyote/1.1]
      Strict-Transport-Security: [max-age=63072000; includeSubdomains;]
      X-Content-Type-Options: [nosniff]
      X-Frame-Options: [SAMEORIGIN]
      X-XSS-Protection: [1; mode=block]
    status: {code: 200, message: OK}
version: 1
