interactions:
- request:
    body: null
    headers:
      Accept: ['*/*']
      Accept-Encoding: ['gzip, deflate']
      Connection: [keep-alive]
      User-Agent: [python-requests/2.19.1]
    method: GET
    uri: https://aviationweather.gov/adds/dataserver_current/httpparam?dataSource=metars&requestType=retrieve&format=csv&hoursBeforeNow=24&stationString=URSS
  response:
    body: {string: 'No errors

        No warnings

        10 ms

        data source=metars

        48 results

        raw_text,station_id,observation_time,latitude,longitude,temp_c,dewpoint_c,wind_dir_degrees,wind_speed_kt,wind_gust_kt,visibility_statute_mi,altim_in_hg,sea_level_pressure_mb,corrected,auto,auto_station,maintenance_indicator_on,no_signal,lightning_sensor_off,freezing_rain_sensor_off,present_weather_sensor_off,wx_string,sky_cover,cloud_base_ft_agl,sky_cover,cloud_base_ft_agl,sky_cover,cloud_base_ft_agl,sky_cover,cloud_base_ft_agl,flight_category,three_hr_pressure_tendency_mb,maxT_c,minT_c,maxT24hr_c,minT24hr_c,precip_in,pcp3hr_in,pcp6hr_in,pcp24hr_in,snow_in,vert_vis_ft,metar_type,elevation_m

        URSS 210500Z 05003MPS 9999 FEW110 25/18 Q1011 R02/090070 R06/090070 NOSIG
        RMK R06/07004MPS QFE757,URSS,2018-08-21T05:00:00Z,43.45,39.95,25.0,18.0,50,6,,6.21,29.852362,,,,,,TRUE,,,,,FEW,11000,,,,,,,VFR,,,,,,,,,,,,METAR,16.0

        URSS 210430Z 05004MPS 9999 FEW110 24/18 Q1011 R02/090070 R06/090070 NOSIG
        RMK R06/07004MPS QFE757,URSS,2018-08-21T04:30:00Z,43.45,39.95,24.0,18.0,50,8,,6.21,29.852362,,,,,,TRUE,,,,,FEW,11000,,,,,,,VFR,,,,,,,,,,,,METAR,16.0

        URSS 210400Z 07005MPS 9999 FEW110 23/18 Q1011 R06/090070 R02/090070 NOSIG
        RMK R02/05004MPS QFE757,URSS,2018-08-21T04:00:00Z,43.45,39.95,23.0,18.0,70,10,,6.21,29.852362,,,,,,TRUE,,,,,FEW,11000,,,,,,,VFR,,,,,,,,,,,,METAR,16.0

        URSS 210330Z 07004MPS 9999 FEW110 23/18 Q1011 R06/090070 R02/090070 NOSIG
        RMK R02/05004MPS QFE757,URSS,2018-08-21T03:30:00Z,43.45,39.95,23.0,18.0,70,8,,6.21,29.852362,,,,,,TRUE,,,,,FEW,11000,,,,,,,VFR,,,,,,,,,,,,METAR,16.0

        URSS 210300Z 07004MPS 9999 FEW110 22/18 Q1011 R06/090070 R02/090070 NOSIG
        RMK R02/05005MPS QFE757,URSS,2018-08-21T03:00:00Z,43.45,39.95,22.0,18.0,70,8,,6.21,29.852362,,,,,,TRUE,,,,,FEW,11000,,,,,,,VFR,,,,,,,,,,,,METAR,16.0

        URSS 210230Z 09005MPS 9999 FEW110 22/18 Q1011 R06/090070 R02/090070 NOSIG
        RMK R02/05003MPS QFE757,URSS,2018-08-21T02:30:00Z,43.45,39.95,22.0,18.0,90,10,,6.21,29.852362,,,,,,TRUE,,,,,FEW,11000,,,,,,,VFR,,,,,,,,,,,,SPECI,16.0

        URSS 210200Z 08006MPS 9999 FEW110 22/18 Q1011 R06/090070 R02/090070 NOSIG
        RMK R02/05003MPS QFE757,URSS,2018-08-21T02:00:00Z,43.45,39.95,22.0,18.0,80,12,,6.21,29.852362,,,,,,TRUE,,,,,FEW,11000,,,,,,,VFR,,,,,,,,,,,,METAR,16.0

        URSS 210130Z 08004MPS 9999 FEW110 22/18 Q1011 R06/090070 R02/090070 NOSIG
        RMK R02/05004MPS QFE757,URSS,2018-08-21T01:30:00Z,43.45,39.95,22.0,18.0,80,8,,6.21,29.852362,,,,,,TRUE,,,,,FEW,11000,,,,,,,VFR,,,,,,,,,,,,METAR,16.0

        URSS 210100Z 08003MPS 9999 FEW110 22/18 Q1011 R06/090070 R02/090070 NOSIG
        RMK R02/05004MPS QFE757,URSS,2018-08-21T01:00:00Z,43.45,39.95,22.0,18.0,80,6,,6.21,29.852362,,,,,,TRUE,,,,,FEW,11000,,,,,,,VFR,,,,,,,,,,,,METAR,16.0

        URSS 210030Z 09002MPS 9999 23/18 Q1011 R06/090070 R02/090070 NOSIG RMK R02/05003G06MPS
        QFE757,URSS,2018-08-21T00:30:00Z,43.45,39.95,23.0,18.0,90,4,,6.21,29.852362,,,,,,TRUE,,,,,,,,,,,,,,,,,,,,,,,,,METAR,16.0

        URSS 210000Z 09003MPS 060V130 9999 NSC 23/18 Q1011 R06/090070 R02/090070 NOSIG
        RMK R02/05004MPS QFE757,URSS,2018-08-21T00:00:00Z,43.45,39.95,23.0,18.0,90,6,,6.21,29.852362,,,,,,TRUE,,,,,CLR,,,,,,,,VFR,,,,,,,,,,,,METAR,16.0

        URSS 202330Z 05001MPS 9999 NSC 23/18 Q1011 R06/090070 R02/090070 NOSIG RMK
        R02/05004MPS QFE757,URSS,2018-08-20T23:30:00Z,43.45,39.95,23.0,18.0,50,2,,6.21,29.852362,,,,,,TRUE,,,,,CLR,,,,,,,,VFR,,,,,,,,,,,,METAR,16.0

        URSS 202300Z 08004MPS 9999 NSC 24/18 Q1011 R06/090070 R02/090070 NOSIG RMK
        R02/05004MPS QFE757,URSS,2018-08-20T23:00:00Z,43.45,39.95,24.0,18.0,80,8,,6.21,29.852362,,,,,,TRUE,,,,,CLR,,,,,,,,VFR,,,,,,,,,,,,METAR,16.0

        URSS 202230Z 08005MPS 9999 NSC 24/19 Q1011 R06/090070 R02/090070 NOSIG RMK
        R02/05004MPS QFE757,URSS,2018-08-20T22:30:00Z,43.45,39.95,24.0,19.0,80,10,,6.21,29.852362,,,,,,TRUE,,,,,CLR,,,,,,,,VFR,,,,,,,,,,,,METAR,16.0

        URSS 202200Z 08004MPS 9999 NSC 24/18 Q1011 R06/090070 R02/090070 NOSIG RMK
        R02/06003MPS QFE757,URSS,2018-08-20T22:00:00Z,43.45,39.95,24.0,18.0,80,8,,6.21,29.852362,,,,,,TRUE,,,,,CLR,,,,,,,,VFR,,,,,,,,,,,,METAR,16.0

        URSS 202130Z 05004MPS 9999 NSC 23/19 Q1011 R02/090070 R06/090070 NOSIG RMK
        R06/08005MPS QFE757,URSS,2018-08-20T21:30:00Z,43.45,39.95,23.0,19.0,50,8,,6.21,29.852362,,,,,,TRUE,,,,,CLR,,,,,,,,VFR,,,,,,,,,,,,METAR,16.0

        URSS 202100Z 05004MPS 9999 NSC 24/19 Q1011 R02/090070 R06/090070 NOSIG RMK
        R06/08005MPS QFE756,URSS,2018-08-20T21:00:00Z,43.45,39.95,24.0,19.0,50,8,,6.21,29.852362,,,,,,TRUE,,,,,CLR,,,,,,,,VFR,,,,,,,,,,,,METAR,16.0

        URSS 202030Z 05004MPS 9999 NSC 24/19 Q1010 R02/090070 R06/090070 NOSIG RMK
        R06/06004MPS QFE756,URSS,2018-08-20T20:30:00Z,43.45,39.95,24.0,19.0,50,8,,6.21,29.822834,,,,,,TRUE,,,,,CLR,,,,,,,,VFR,,,,,,,,,,,,METAR,16.0

        URSS 202000Z 05003MPS 9999 NSC 24/19 Q1010 R02/090070 R06/090070 NOSIG RMK
        R06/06004MPS QFE756,URSS,2018-08-20T20:00:00Z,43.45,39.95,24.0,19.0,50,6,,6.21,29.822834,,,,,,TRUE,,,,,CLR,,,,,,,,VFR,,,,,,,,,,,,METAR,16.0

        URSS 201930Z 04004MPS 9999 NSC 24/19 Q1010 R02/090070 R06/090070 NOSIG RMK
        R06/07003MPS QFE756,URSS,2018-08-20T19:30:00Z,43.45,39.95,24.0,19.0,40,8,,6.21,29.822834,,,,,,TRUE,,,,,CLR,,,,,,,,VFR,,,,,,,,,,,,METAR,16.0

        URSS 201900Z 04003MPS 9999 NSC 24/20 Q1010 R02/090070 R06/090070 NOSIG RMK
        R06/00000MPS QFE756,URSS,2018-08-20T19:00:00Z,43.45,39.95,24.0,20.0,40,6,,6.21,29.822834,,,,,,TRUE,,,,,CLR,,,,,,,,VFR,,,,,,,,,,,,METAR,16.0

        URSS 201830Z 05003MPS 9999 NSC 24/20 Q1010 R02/090070 R06/090070 NOSIG RMK
        R06/04002MPS QFE756,URSS,2018-08-20T18:30:00Z,43.45,39.95,24.0,20.0,50,6,,6.21,29.822834,,,,,,TRUE,,,,,CLR,,,,,,,,VFR,,,,,,,,,,,,METAR,16.0

        URSS 201800Z 06002MPS 9999 NSC 24/20 Q1010 R02/090070 R06/090070 NOSIG RMK
        R06/05002MPS QFE756,URSS,2018-08-20T18:00:00Z,43.45,39.95,24.0,20.0,60,4,,6.21,29.822834,,,,,,TRUE,,,,,CLR,,,,,,,,VFR,,,,,,,,,,,,METAR,16.0

        URSS 201730Z 05002MPS 9999 NSC 25/20 Q1010 R02/090070 R06/090070 NOSIG RMK
        R06/00000MPS QFE756,URSS,2018-08-20T17:30:00Z,43.45,39.95,25.0,20.0,50,4,,6.21,29.822834,,,,,,TRUE,,,,,CLR,,,,,,,,VFR,,,,,,,,,,,,METAR,16.0

        URSS 201700Z 00000MPS 9999 NSC 25/21 Q1010 WS ALL RWY R02/090070 R06/090070
        NOSIG RMK R06/32001G04MPS QFE756,URSS,2018-08-20T17:00:00Z,43.45,39.95,25.0,21.0,0,0,,6.21,29.822834,,,,,,TRUE,,,,,CLR,,,,,,,,VFR,,,,,,,,,,,,METAR,16.0

        URSS 201630Z 29001MPS 9999 NSC 27/20 Q1009 WS ALL RWY R02/090070 R06/090070
        NOSIG RMK R06/31002MPS QFE756,URSS,2018-08-20T16:30:00Z,43.45,39.95,27.0,20.0,290,2,,6.21,29.793306,,,,,,TRUE,,,,,CLR,,,,,,,,VFR,,,,,,,,,,,,METAR,16.0

        URSS 201600Z 29003MPS 9999 FEW050 28/20 Q1009 WS ALL RWY R02/090070 R06/090070
        NOSIG RMK R06/31003G10MPS QFE756,URSS,2018-08-20T16:00:00Z,43.45,39.95,28.0,20.0,290,6,,6.21,29.793306,,,,,,TRUE,,,,,FEW,5000,,,,,,,VFR,,,,,,,,,,,,METAR,16.0

        URSS 201530Z 30003MPS 9999 FEW050 28/20 Q1009 WS ALL RWY R02/090070 R06/090070
        NOSIG RMK R06/31004G08MPS QFE756,URSS,2018-08-20T15:30:00Z,43.45,39.95,28.0,20.0,300,6,,6.21,29.793306,,,,,,TRUE,,,,,FEW,5000,,,,,,,VFR,,,,,,,,,,,,SPECI,16.0

        URSS 201500Z 30004MPS 9999 FEW050 29/20 Q1009 WS ALL RWY R02/090070 R06/090070
        NOSIG RMK R06/30004MPS QFE756,URSS,2018-08-20T15:00:00Z,43.45,39.95,29.0,20.0,300,8,,6.21,29.793306,,,,,,TRUE,,,,,FEW,5000,,,,,,,VFR,,,,,,,,,,,,METAR,16.0

        URSS 201430Z 29004MPS 9999 FEW050 29/20 Q1010 WS ALL RWY R02/090070 R06/090070
        NOSIG RMK R06/30005MPS QFE756,URSS,2018-08-20T14:30:00Z,43.45,39.95,29.0,20.0,290,8,,6.21,29.822834,,,,,,TRUE,,,,,FEW,5000,,,,,,,VFR,,,,,,,,,,,,METAR,16.0

        URSS 201400Z 29004MPS 9999 FEW050 29/20 Q1010 WS ALL RWY R02/090070 R06/090070
        NOSIG RMK R06/31005G08MPS QFE756,URSS,2018-08-20T14:00:00Z,43.45,39.95,29.0,20.0,290,8,,6.21,29.822834,,,,,,TRUE,,,,,FEW,5000,,,,,,,VFR,,,,,,,,,,,,METAR,16.0

        URSS 201330Z 29004MPS 9999 FEW050 29/19 Q1010 WS ALL RWY R02/090070 R06/090070
        NOSIG RMK R06/30005MPS QFE756,URSS,2018-08-20T13:30:00Z,43.45,39.95,29.0,19.0,290,8,,6.21,29.822834,,,,,,TRUE,,,,,FEW,5000,,,,,,,VFR,,,,,,,,,,,,METAR,16.0

        URSS 201300Z 29004MPS 9999 FEW050 29/19 Q1010 WS ALL RWY R02/090070 R06/090070
        NOSIG RMK R06/28006MPS QFE756,URSS,2018-08-20T13:00:00Z,43.45,39.95,29.0,19.0,290,8,,6.21,29.822834,,,,,,TRUE,,,,,FEW,5000,,,,,,,VFR,,,,,,,,,,,,METAR,16.0

        URSS 201230Z 29005MPS 9999 FEW050 29/19 Q1010 WS ALL RWY R02/090070 R06/090070
        NOSIG RMK R06/28006MPS QFE756,URSS,2018-08-20T12:30:00Z,43.45,39.95,29.0,19.0,290,10,,6.21,29.822834,,,,,,TRUE,,,,,FEW,5000,,,,,,,VFR,,,,,,,,,,,,METAR,16.0

        URSS 201200Z 27004MPS 9999 FEW050 30/19 Q1010 WS ALL RWY R02/090070 R06/090070
        NOSIG RMK R06/29005G12MPS QFE756,URSS,2018-08-20T12:00:00Z,43.45,39.95,30.0,19.0,270,8,,6.21,29.822834,,,,,,TRUE,,,,,FEW,5000,,,,,,,VFR,,,,,,,,,,,,METAR,16.0

        URSS 201130Z 27004MPS 9999 FEW050 29/19 Q1010 WS ALL RWY R02/090070 R06/090070
        NOSIG RMK R06/29005MPS QFE756,URSS,2018-08-20T11:30:00Z,43.45,39.95,29.0,19.0,270,8,,6.21,29.822834,,,,,,TRUE,,,,,FEW,5000,,,,,,,VFR,,,,,,,,,,,,METAR,16.0

        URSS 201100Z 29004MPS 9999 FEW050 29/21 Q1010 R02/090070 R06/090070 NOSIG
        RMK R06/29004MPS QFE756,URSS,2018-08-20T11:00:00Z,43.45,39.95,29.0,21.0,290,8,,6.21,29.822834,,,,,,TRUE,,,,,FEW,5000,,,,,,,VFR,,,,,,,,,,,,SPECI,16.0

        URSS 201030Z 27004MPS 9999 FEW050 29/22 Q1011 R02/090070 R06/090070 NOSIG
        RMK R06/29005MPS QFE756,URSS,2018-08-20T10:30:00Z,43.45,39.95,29.0,22.0,270,8,,6.21,29.852362,,,,,,TRUE,,,,,FEW,5000,,,,,,,VFR,,,,,,,,,,,,METAR,16.0

        URSS 201000Z 27004MPS 9999 FEW050 28/22 Q1011 R02/090070 R06/090070 NOSIG
        RMK R06/29004MPS QFE757,URSS,2018-08-20T10:00:00Z,43.45,39.95,28.0,22.0,270,8,,6.21,29.852362,,,,,,TRUE,,,,,FEW,5000,,,,,,,VFR,,,,,,,,,,,,METAR,16.0

        URSS 200930Z 26004MPS 9999 FEW050 29/22 Q1011 R02/090070 R06/090070 NOSIG
        RMK R06/28005MPS QFE757,URSS,2018-08-20T09:30:00Z,43.45,39.95,29.0,22.0,260,8,,6.21,29.852362,,,,,,TRUE,,,,,FEW,5000,,,,,,,VFR,,,,,,,,,,,,METAR,16.0

        URSS 200900Z 26004MPS 9999 FEW050 28/22 Q1011 R02/090070 R06/090070 NOSIG
        RMK R06/27004MPS QFE757,URSS,2018-08-20T09:00:00Z,43.45,39.95,28.0,22.0,260,8,,6.21,29.852362,,,,,,TRUE,,,,,FEW,5000,,,,,,,VFR,,,,,,,,,,,,METAR,16.0

        URSS 200830Z 27004MPS 9999 FEW050 28/21 Q1011 R02/090070 R06/090070 NOSIG
        RMK R06/26004MPS QFE757,URSS,2018-08-20T08:30:00Z,43.45,39.95,28.0,21.0,270,8,,6.21,29.852362,,,,,,TRUE,,,,,FEW,5000,,,,,,,VFR,,,,,,,,,,,,METAR,16.0

        URSS 200800Z 27004MPS 9999 FEW050 28/21 Q1011 R02/090070 R06/090070 NOSIG
        RMK R06/26003MPS QFE757,URSS,2018-08-20T08:00:00Z,43.45,39.95,28.0,21.0,270,8,,6.21,29.852362,,,,,,TRUE,,,,,FEW,5000,,,,,,,VFR,,,,,,,,,,,,METAR,16.0

        URSS 200730Z 25002MPS 220V290 9999 NSC 28/21 Q1011 R02/090070 R06/090070 NOSIG
        RMK R06/26003MPS QFE757,URSS,2018-08-20T07:30:00Z,43.45,39.95,28.0,21.0,250,4,,6.21,29.852362,,,,,,TRUE,,,,,CLR,,,,,,,,VFR,,,,,,,,,,,,METAR,16.0

        URSS 200700Z 21001MPS 9999 NSC 28/19 Q1011 R02/090070 R06/090070 NOSIG RMK
        R06/23004MPS QFE757,URSS,2018-08-20T07:00:00Z,43.45,39.95,28.0,19.0,210,2,,6.21,29.852362,,,,,,TRUE,,,,,CLR,,,,,,,,VFR,,,,,,,,,,,,METAR,16.0

        URSS 200630Z 06002MPS 9999 NSC 27/18 Q1010 R02/090070 R06/090070 NOSIG RMK
        R06/11001MPS QFE756,URSS,2018-08-20T06:30:00Z,43.45,39.95,27.0,18.0,60,4,,6.21,29.822834,,,,,,TRUE,,,,,CLR,,,,,,,,VFR,,,,,,,,,,,,METAR,16.0

        URSS 200600Z 04004MPS 9999 NSC 26/16 Q1010 R02/090070 R06/090070 NOSIG RMK
        R06/08003MPS QFE756,URSS,2018-08-20T06:00:00Z,43.45,39.95,26.0,16.0,40,8,,6.21,29.822834,,,,,,TRUE,,,,,CLR,,,,,,,,VFR,,,,,,,,,,,,SPECI,16.0

        URSS 200530Z 04005MPS 9999 FEW026 24/15 Q1010 R02/090070 R06/090070 NOSIG
        RMK R06/07003MPS MT OBSC QFE756,URSS,2018-08-20T05:30:00Z,43.45,39.95,24.0,15.0,40,10,,6.21,29.822834,,,,,,TRUE,,,,,FEW,2600,,,,,,,VFR,,,,,,,,,,,,METAR,16.0

'}
    headers:
      Connection: [keep-alive]
      Content-Length: ['11363']
      Content-Type: [application/x-csv]
      Date: ['Tue, 21 Aug 2018 06:34:52 GMT']
      Server: [Apache-Coyote/1.1]
      Strict-Transport-Security: [max-age=63072000; includeSubdomains;]
      X-Content-Type-Options: [nosniff]
      X-Frame-Options: [SAMEORIGIN]
      X-XSS-Protection: [1; mode=block]
    status: {code: 200, message: OK}
version: 1
