interactions:
- request:
    body: null
    headers:
      Accept: ['*/*']
      Accept-Encoding: ['gzip, deflate']
      Connection: [keep-alive]
      User-Agent: [python-requests/2.19.1]
    method: GET
    uri: https://aviationweather.gov/adds/dataserver_current/httpparam?dataSource=metars&requestType=retrieve&format=csv&hoursBeforeNow=24&stationString=EBBR
  response:
    body: {string: 'No errors

        No warnings

        7 ms

        data source=metars

        48 results

        raw_text,station_id,observation_time,latitude,longitude,temp_c,dewpoint_c,wind_dir_degrees,wind_speed_kt,wind_gust_kt,visibility_statute_mi,altim_in_hg,sea_level_pressure_mb,corrected,auto,auto_station,maintenance_indicator_on,no_signal,lightning_sensor_off,freezing_rain_sensor_off,present_weather_sensor_off,wx_string,sky_cover,cloud_base_ft_agl,sky_cover,cloud_base_ft_agl,sky_cover,cloud_base_ft_agl,sky_cover,cloud_base_ft_agl,flight_category,three_hr_pressure_tendency_mb,maxT_c,minT_c,maxT24hr_c,minT24hr_c,precip_in,pcp3hr_in,pcp6hr_in,pcp24hr_in,snow_in,vert_vis_ft,metar_type,elevation_m

        EBBR 151750Z 03001KT CAVOK 17/09 Q1024 NOSIG,EBBR,2018-09-15T17:50:00Z,50.9,4.5,17.0,9.0,30,1,,6.21,30.236221,,,,,,TRUE,,,,,CAVOK,,,,,,,,VFR,,,,,,,,,,,,METAR,58.0

        EBBR 151720Z 01003KT 330V030 CAVOK 18/10 Q1024 NOSIG,EBBR,2018-09-15T17:20:00Z,50.9,4.5,18.0,10.0,10,3,,6.21,30.236221,,,,,,TRUE,,,,,CAVOK,,,,,,,,VFR,,,,,,,,,,,,METAR,58.0

        EBBR 151650Z 34005KT 9999 FEW044 18/10 Q1024 NOSIG,EBBR,2018-09-15T16:50:00Z,50.9,4.5,18.0,10.0,340,5,,6.21,30.236221,,,,,,TRUE,,,,,FEW,4400,,,,,,,VFR,,,,,,,,,,,,METAR,58.0

        EBBR 151620Z 25005KT 9999 FEW044 20/07 Q1024 NOSIG,EBBR,2018-09-15T16:20:00Z,50.9,4.5,20.0,7.0,250,5,,6.21,30.236221,,,,,,TRUE,,,,,FEW,4400,,,,,,,VFR,,,,,,,,,,,,METAR,58.0

        EBBR 151550Z 27005KT 220V300 9999 FEW044 20/08 Q1024 NOSIG,EBBR,2018-09-15T15:50:00Z,50.9,4.5,20.0,8.0,270,5,,6.21,30.236221,,,,,,TRUE,,,,,FEW,4400,,,,,,,VFR,,,,,,,,,,,,METAR,58.0

        EBBR 151520Z 31007KT 280V340 9999 FEW044 20/08 Q1024 NOSIG,EBBR,2018-09-15T15:20:00Z,50.9,4.5,20.0,8.0,310,7,,6.21,30.236221,,,,,,TRUE,,,,,FEW,4400,,,,,,,VFR,,,,,,,,,,,,METAR,58.0

        EBBR 151450Z 29005KT 230V360 9999 FEW044 20/09 Q1024 NOSIG,EBBR,2018-09-15T14:50:00Z,50.9,4.5,20.0,9.0,290,5,,6.21,30.236221,,,,,,TRUE,,,,,FEW,4400,,,,,,,VFR,,,,,,,,,,,,METAR,58.0

        EBBR 151420Z 26006KT 230V290 9999 FEW043 20/08 Q1025 NOSIG,EBBR,2018-09-15T14:20:00Z,50.9,4.5,20.0,8.0,260,6,,6.21,30.265747,,,,,,TRUE,,,,,FEW,4300,,,,,,,VFR,,,,,,,,,,,,METAR,58.0

        EBBR 151350Z 25007KT 220V280 9999 SCT041 20/09 Q1025 NOSIG,EBBR,2018-09-15T13:50:00Z,50.9,4.5,20.0,9.0,250,7,,6.21,30.265747,,,,,,TRUE,,,,,SCT,4100,,,,,,,VFR,,,,,,,,,,,,METAR,58.0

        EBBR 151320Z 27008KT 240V310 9999 SCT041 20/08 Q1025 NOSIG,EBBR,2018-09-15T13:20:00Z,50.9,4.5,20.0,8.0,270,8,,6.21,30.265747,,,,,,TRUE,,,,,SCT,4100,,,,,,,VFR,,,,,,,,,,,,METAR,58.0

        EBBR 151250Z 26008KT 200V290 9999 SCT041 20/08 Q1025 NOSIG,EBBR,2018-09-15T12:50:00Z,50.9,4.5,20.0,8.0,260,8,,6.21,30.265747,,,,,,TRUE,,,,,SCT,4100,,,,,,,VFR,,,,,,,,,,,,METAR,58.0

        EBBR 151220Z 26008KT 220V320 9999 SCT041 20/09 Q1025 NOSIG,EBBR,2018-09-15T12:20:00Z,50.9,4.5,20.0,9.0,260,8,,6.21,30.265747,,,,,,TRUE,,,,,SCT,4100,,,,,,,VFR,,,,,,,,,,,,METAR,58.0

        EBBR 151150Z 24008KT 210V300 9999 SCT036 19/09 Q1025 NOSIG,EBBR,2018-09-15T11:50:00Z,50.9,4.5,19.0,9.0,240,8,,6.21,30.265747,,,,,,TRUE,,,,,SCT,3600,,,,,,,VFR,,,,,,,,,,,,METAR,58.0

        EBBR 151120Z 25008KT 220V300 9999 SCT033 19/09 Q1025 NOSIG,EBBR,2018-09-15T11:20:00Z,50.9,4.5,19.0,9.0,250,8,,6.21,30.265747,,,,,,TRUE,,,,,SCT,3300,,,,,,,VFR,,,,,,,,,,,,METAR,58.0

        EBBR 151050Z 26007KT 230V320 9999 SCT029 19/09 Q1025 NOSIG,EBBR,2018-09-15T10:50:00Z,50.9,4.5,19.0,9.0,260,7,,6.21,30.265747,,,,,,TRUE,,,,,SCT,2900,,,,,,,VFR,,,,,,,,,,,,METAR,58.0

        EBBR 151020Z 25008KT 220V280 9999 FEW023 18/09 Q1025 NOSIG,EBBR,2018-09-15T10:20:00Z,50.9,4.5,18.0,9.0,250,8,,6.21,30.265747,,,,,,TRUE,,,,,FEW,2300,,,,,,,VFR,,,,,,,,,,,,METAR,58.0

        EBBR 150950Z 25007KT 9999 FEW023 17/10 Q1025 NOSIG,EBBR,2018-09-15T09:50:00Z,50.9,4.5,17.0,10.0,250,7,,6.21,30.265747,,,,,,TRUE,,,,,FEW,2300,,,,,,,VFR,,,,,,,,,,,,METAR,58.0

        EBBR 150920Z 28008KT 9999 FEW023 17/11 Q1025 NOSIG,EBBR,2018-09-15T09:20:00Z,50.9,4.5,17.0,11.0,280,8,,6.21,30.265747,,,,,,TRUE,,,,,FEW,2300,,,,,,,VFR,,,,,,,,,,,,METAR,58.0

        EBBR 150850Z 26008KT 230V290 9999 FEW021 16/11 Q1025 NOSIG,EBBR,2018-09-15T08:50:00Z,50.9,4.5,16.0,11.0,260,8,,6.21,30.265747,,,,,,TRUE,,,,,FEW,2100,,,,,,,VFR,,,,,,,,,,,,METAR,58.0

        EBBR 150820Z 25007KT 210V280 9999 FEW021 16/11 Q1025 NOSIG,EBBR,2018-09-15T08:20:00Z,50.9,4.5,16.0,11.0,250,7,,6.21,30.265747,,,,,,TRUE,,,,,FEW,2100,,,,,,,VFR,,,,,,,,,,,,METAR,58.0

        EBBR 150750Z 25007KT 9999 FEW018 15/11 Q1024 NOSIG,EBBR,2018-09-15T07:50:00Z,50.9,4.5,15.0,11.0,250,7,,6.21,30.236221,,,,,,TRUE,,,,,FEW,1800,,,,,,,VFR,,,,,,,,,,,,METAR,58.0

        EBBR 150720Z 24007KT 9999 FEW016 14/11 Q1024 NOSIG,EBBR,2018-09-15T07:20:00Z,50.9,4.5,14.0,11.0,240,7,,6.21,30.236221,,,,,,TRUE,,,,,FEW,1600,,,,,,,VFR,,,,,,,,,,,,METAR,58.0

        EBBR 150650Z 23008KT CAVOK 13/11 Q1024 NOSIG,EBBR,2018-09-15T06:50:00Z,50.9,4.5,13.0,11.0,230,8,,6.21,30.236221,,,,,,TRUE,,,,,CAVOK,,,,,,,,VFR,,,,,,,,,,,,METAR,58.0

        EBBR 150620Z 23008KT CAVOK 12/11 Q1023 NOSIG,EBBR,2018-09-15T06:20:00Z,50.9,4.5,12.0,11.0,230,8,,6.21,30.206694,,,,,,TRUE,,,,,CAVOK,,,,,,,,VFR,,,,,,,,,,,,METAR,58.0

        EBBR 150550Z 22008KT CAVOK 11/10 Q1023 NOSIG,EBBR,2018-09-15T05:50:00Z,50.9,4.5,11.0,10.0,220,8,,6.21,30.206694,,,,,,TRUE,,,,,CAVOK,,,,,,,,VFR,,,,,,,,,,,,METAR,58.0

        EBBR 150520Z 22007KT CAVOK 11/10 Q1023 NOSIG,EBBR,2018-09-15T05:20:00Z,50.9,4.5,11.0,10.0,220,7,,6.21,30.206694,,,,,,TRUE,,,,,CAVOK,,,,,,,,VFR,,,,,,,,,,,,METAR,58.0

        EBBR 150450Z 22007KT CAVOK 11/10 Q1023 NOSIG,EBBR,2018-09-15T04:50:00Z,50.9,4.5,11.0,10.0,220,7,,6.21,30.206694,,,,,,TRUE,,,,,CAVOK,,,,,,,,VFR,,,,,,,,,,,,METAR,58.0

        EBBR 150420Z 21007KT CAVOK 11/10 Q1022 NOSIG,EBBR,2018-09-15T04:20:00Z,50.9,4.5,11.0,10.0,210,7,,6.21,30.177166,,,,,,TRUE,,,,,CAVOK,,,,,,,,VFR,,,,,,,,,,,,METAR,58.0

        EBBR 150350Z 21007KT CAVOK 11/10 Q1022 NOSIG,EBBR,2018-09-15T03:50:00Z,50.9,4.5,11.0,10.0,210,7,,6.21,30.177166,,,,,,TRUE,,,,,CAVOK,,,,,,,,VFR,,,,,,,,,,,,METAR,58.0

        EBBR 150320Z 22006KT 9999 SCT025 12/10 Q1022 NOSIG,EBBR,2018-09-15T03:20:00Z,50.9,4.5,12.0,10.0,220,6,,6.21,30.177166,,,,,,TRUE,,,,,SCT,2500,,,,,,,VFR,,,,,,,,,,,,METAR,58.0

        EBBR 150250Z 22006KT CAVOK 12/10 Q1022 NOSIG,EBBR,2018-09-15T02:50:00Z,50.9,4.5,12.0,10.0,220,6,,6.21,30.177166,,,,,,TRUE,,,,,CAVOK,,,,,,,,VFR,,,,,,,,,,,,METAR,58.0

        EBBR 150220Z 23007KT CAVOK 12/10 Q1022 NOSIG,EBBR,2018-09-15T02:20:00Z,50.9,4.5,12.0,10.0,230,7,,6.21,30.177166,,,,,,TRUE,,,,,CAVOK,,,,,,,,VFR,,,,,,,,,,,,METAR,58.0

        EBBR 150150Z 23008KT CAVOK 12/10 Q1022 NOSIG,EBBR,2018-09-15T01:50:00Z,50.9,4.5,12.0,10.0,230,8,,6.21,30.177166,,,,,,TRUE,,,,,CAVOK,,,,,,,,VFR,,,,,,,,,,,,METAR,58.0

        EBBR 150120Z 24008KT CAVOK 13/10 Q1022 NOSIG,EBBR,2018-09-15T01:20:00Z,50.9,4.5,13.0,10.0,240,8,,6.21,30.177166,,,,,,TRUE,,,,,CAVOK,,,,,,,,VFR,,,,,,,,,,,,METAR,58.0

        EBBR 150050Z 24008KT CAVOK 14/10 Q1022 NOSIG,EBBR,2018-09-15T00:50:00Z,50.9,4.5,14.0,10.0,240,8,,6.21,30.177166,,,,,,TRUE,,,,,CAVOK,,,,,,,,VFR,,,,,,,,,,,,METAR,58.0

        EBBR 150020Z 24008KT CAVOK 14/10 Q1022 NOSIG,EBBR,2018-09-15T00:20:00Z,50.9,4.5,14.0,10.0,240,8,,6.21,30.177166,,,,,,TRUE,,,,,CAVOK,,,,,,,,VFR,,,,,,,,,,,,METAR,58.0

        EBBR 142350Z 24008KT CAVOK 14/10 Q1022 NOSIG,EBBR,2018-09-14T23:50:00Z,50.9,4.5,14.0,10.0,240,8,,6.21,30.177166,,,,,,TRUE,,,,,CAVOK,,,,,,,,VFR,,,,,,,,,,,,METAR,58.0

        EBBR 142320Z 23008KT CAVOK 14/09 Q1022 NOSIG,EBBR,2018-09-14T23:20:00Z,50.9,4.5,14.0,9.0,230,8,,6.21,30.177166,,,,,,TRUE,,,,,CAVOK,,,,,,,,VFR,,,,,,,,,,,,METAR,58.0

        EBBR 142250Z 22006KT CAVOK 13/09 Q1022 NOSIG,EBBR,2018-09-14T22:50:00Z,50.9,4.5,13.0,9.0,220,6,,6.21,30.177166,,,,,,TRUE,,,,,CAVOK,,,,,,,,VFR,,,,,,,,,,,,METAR,58.0

        EBBR 142220Z 23006KT CAVOK 13/09 Q1022 NOSIG,EBBR,2018-09-14T22:20:00Z,50.9,4.5,13.0,9.0,230,6,,6.21,30.177166,,,,,,TRUE,,,,,CAVOK,,,,,,,,VFR,,,,,,,,,,,,METAR,58.0

        EBBR 142150Z 24007KT CAVOK 13/09 Q1022 NOSIG,EBBR,2018-09-14T21:50:00Z,50.9,4.5,13.0,9.0,240,7,,6.21,30.177166,,,,,,TRUE,,,,,CAVOK,,,,,,,,VFR,,,,,,,,,,,,METAR,58.0

        EBBR 142120Z 25007KT CAVOK 14/08 Q1022 NOSIG,EBBR,2018-09-14T21:20:00Z,50.9,4.5,14.0,8.0,250,7,,6.21,30.177166,,,,,,TRUE,,,,,CAVOK,,,,,,,,VFR,,,,,,,,,,,,METAR,58.0

        EBBR 142050Z 25008KT CAVOK 15/08 Q1022 NOSIG,EBBR,2018-09-14T20:50:00Z,50.9,4.5,15.0,8.0,250,8,,6.21,30.177166,,,,,,TRUE,,,,,CAVOK,,,,,,,,VFR,,,,,,,,,,,,METAR,58.0

        EBBR 142020Z 27011KT CAVOK 15/08 Q1022 NOSIG,EBBR,2018-09-14T20:20:00Z,50.9,4.5,15.0,8.0,270,11,,6.21,30.177166,,,,,,TRUE,,,,,CAVOK,,,,,,,,VFR,,,,,,,,,,,,METAR,58.0

        EBBR 141950Z 26009KT CAVOK 16/08 Q1021 NOSIG,EBBR,2018-09-14T19:50:00Z,50.9,4.5,16.0,8.0,260,9,,6.21,30.147638,,,,,,TRUE,,,,,CAVOK,,,,,,,,VFR,,,,,,,,,,,,METAR,58.0

        EBBR 141920Z 26007KT CAVOK 16/08 Q1021 NOSIG,EBBR,2018-09-14T19:20:00Z,50.9,4.5,16.0,8.0,260,7,,6.21,30.147638,,,,,,TRUE,,,,,CAVOK,,,,,,,,VFR,,,,,,,,,,,,METAR,58.0

        EBBR 141850Z 26008KT CAVOK 16/07 Q1021 NOSIG,EBBR,2018-09-14T18:50:00Z,50.9,4.5,16.0,7.0,260,8,,6.21,30.147638,,,,,,TRUE,,,,,CAVOK,,,,,,,,VFR,,,,,,,,,,,,METAR,58.0

        EBBR 141820Z 27007KT 240V300 CAVOK 16/07 Q1021 NOSIG,EBBR,2018-09-14T18:20:00Z,50.9,4.5,16.0,7.0,270,7,,6.21,30.147638,,,,,,TRUE,,,,,CAVOK,,,,,,,,VFR,,,,,,,,,,,,METAR,58.0

'}
    headers:
      Connection: [keep-alive]
      Content-Length: ['8845']
      Content-Type: [application/x-csv]
      Date: ['Sat, 15 Sep 2018 18:09:47 GMT']
      Server: [Apache-Coyote/1.1]
      Strict-Transport-Security: [max-age=63072000; includeSubdomains;]
      X-Content-Type-Options: [nosniff]
      X-Frame-Options: [SAMEORIGIN]
      X-XSS-Protection: [1; mode=block]
    status: {code: 200, message: OK}
- request:
    body: null
    headers:
      Accept: ['*/*']
      Accept-Encoding: ['gzip, deflate']
      Connection: [keep-alive]
      User-Agent: [python-requests/2.19.1]
    method: GET
    uri: https://aviationweather.gov/adds/dataserver_current/httpparam?dataSource=metars&requestType=retrieve&format=csv&hoursBeforeNow=24&stationString=EBBR
  response:
    body: {string: 'No errors

        No warnings

        7 ms

        data source=metars

        48 results

        raw_text,station_id,observation_time,latitude,longitude,temp_c,dewpoint_c,wind_dir_degrees,wind_speed_kt,wind_gust_kt,visibility_statute_mi,altim_in_hg,sea_level_pressure_mb,corrected,auto,auto_station,maintenance_indicator_on,no_signal,lightning_sensor_off,freezing_rain_sensor_off,present_weather_sensor_off,wx_string,sky_cover,cloud_base_ft_agl,sky_cover,cloud_base_ft_agl,sky_cover,cloud_base_ft_agl,sky_cover,cloud_base_ft_agl,flight_category,three_hr_pressure_tendency_mb,maxT_c,minT_c,maxT24hr_c,minT24hr_c,precip_in,pcp3hr_in,pcp6hr_in,pcp24hr_in,snow_in,vert_vis_ft,metar_type,elevation_m

        EBBR 151750Z 03001KT CAVOK 17/09 Q1024 NOSIG,EBBR,2018-09-15T17:50:00Z,50.9,4.5,17.0,9.0,30,1,,6.21,30.236221,,,,,,TRUE,,,,,CAVOK,,,,,,,,VFR,,,,,,,,,,,,METAR,58.0

        EBBR 151720Z 01003KT 330V030 CAVOK 18/10 Q1024 NOSIG,EBBR,2018-09-15T17:20:00Z,50.9,4.5,18.0,10.0,10,3,,6.21,30.236221,,,,,,TRUE,,,,,CAVOK,,,,,,,,VFR,,,,,,,,,,,,METAR,58.0

        EBBR 151650Z 34005KT 9999 FEW044 18/10 Q1024 NOSIG,EBBR,2018-09-15T16:50:00Z,50.9,4.5,18.0,10.0,340,5,,6.21,30.236221,,,,,,TRUE,,,,,FEW,4400,,,,,,,VFR,,,,,,,,,,,,METAR,58.0

        EBBR 151620Z 25005KT 9999 FEW044 20/07 Q1024 NOSIG,EBBR,2018-09-15T16:20:00Z,50.9,4.5,20.0,7.0,250,5,,6.21,30.236221,,,,,,TRUE,,,,,FEW,4400,,,,,,,VFR,,,,,,,,,,,,METAR,58.0

        EBBR 151550Z 27005KT 220V300 9999 FEW044 20/08 Q1024 NOSIG,EBBR,2018-09-15T15:50:00Z,50.9,4.5,20.0,8.0,270,5,,6.21,30.236221,,,,,,TRUE,,,,,FEW,4400,,,,,,,VFR,,,,,,,,,,,,METAR,58.0

        EBBR 151520Z 31007KT 280V340 9999 FEW044 20/08 Q1024 NOSIG,EBBR,2018-09-15T15:20:00Z,50.9,4.5,20.0,8.0,310,7,,6.21,30.236221,,,,,,TRUE,,,,,FEW,4400,,,,,,,VFR,,,,,,,,,,,,METAR,58.0

        EBBR 151450Z 29005KT 230V360 9999 FEW044 20/09 Q1024 NOSIG,EBBR,2018-09-15T14:50:00Z,50.9,4.5,20.0,9.0,290,5,,6.21,30.236221,,,,,,TRUE,,,,,FEW,4400,,,,,,,VFR,,,,,,,,,,,,METAR,58.0

        EBBR 151420Z 26006KT 230V290 9999 FEW043 20/08 Q1025 NOSIG,EBBR,2018-09-15T14:20:00Z,50.9,4.5,20.0,8.0,260,6,,6.21,30.265747,,,,,,TRUE,,,,,FEW,4300,,,,,,,VFR,,,,,,,,,,,,METAR,58.0

        EBBR 151350Z 25007KT 220V280 9999 SCT041 20/09 Q1025 NOSIG,EBBR,2018-09-15T13:50:00Z,50.9,4.5,20.0,9.0,250,7,,6.21,30.265747,,,,,,TRUE,,,,,SCT,4100,,,,,,,VFR,,,,,,,,,,,,METAR,58.0

        EBBR 151320Z 27008KT 240V310 9999 SCT041 20/08 Q1025 NOSIG,EBBR,2018-09-15T13:20:00Z,50.9,4.5,20.0,8.0,270,8,,6.21,30.265747,,,,,,TRUE,,,,,SCT,4100,,,,,,,VFR,,,,,,,,,,,,METAR,58.0

        EBBR 151250Z 26008KT 200V290 9999 SCT041 20/08 Q1025 NOSIG,EBBR,2018-09-15T12:50:00Z,50.9,4.5,20.0,8.0,260,8,,6.21,30.265747,,,,,,TRUE,,,,,SCT,4100,,,,,,,VFR,,,,,,,,,,,,METAR,58.0

        EBBR 151220Z 26008KT 220V320 9999 SCT041 20/09 Q1025 NOSIG,EBBR,2018-09-15T12:20:00Z,50.9,4.5,20.0,9.0,260,8,,6.21,30.265747,,,,,,TRUE,,,,,SCT,4100,,,,,,,VFR,,,,,,,,,,,,METAR,58.0

        EBBR 151150Z 24008KT 210V300 9999 SCT036 19/09 Q1025 NOSIG,EBBR,2018-09-15T11:50:00Z,50.9,4.5,19.0,9.0,240,8,,6.21,30.265747,,,,,,TRUE,,,,,SCT,3600,,,,,,,VFR,,,,,,,,,,,,METAR,58.0

        EBBR 151120Z 25008KT 220V300 9999 SCT033 19/09 Q1025 NOSIG,EBBR,2018-09-15T11:20:00Z,50.9,4.5,19.0,9.0,250,8,,6.21,30.265747,,,,,,TRUE,,,,,SCT,3300,,,,,,,VFR,,,,,,,,,,,,METAR,58.0

        EBBR 151050Z 26007KT 230V320 9999 SCT029 19/09 Q1025 NOSIG,EBBR,2018-09-15T10:50:00Z,50.9,4.5,19.0,9.0,260,7,,6.21,30.265747,,,,,,TRUE,,,,,SCT,2900,,,,,,,VFR,,,,,,,,,,,,METAR,58.0

        EBBR 151020Z 25008KT 220V280 9999 FEW023 18/09 Q1025 NOSIG,EBBR,2018-09-15T10:20:00Z,50.9,4.5,18.0,9.0,250,8,,6.21,30.265747,,,,,,TRUE,,,,,FEW,2300,,,,,,,VFR,,,,,,,,,,,,METAR,58.0

        EBBR 150950Z 25007KT 9999 FEW023 17/10 Q1025 NOSIG,EBBR,2018-09-15T09:50:00Z,50.9,4.5,17.0,10.0,250,7,,6.21,30.265747,,,,,,TRUE,,,,,FEW,2300,,,,,,,VFR,,,,,,,,,,,,METAR,58.0

        EBBR 150920Z 28008KT 9999 FEW023 17/11 Q1025 NOSIG,EBBR,2018-09-15T09:20:00Z,50.9,4.5,17.0,11.0,280,8,,6.21,30.265747,,,,,,TRUE,,,,,FEW,2300,,,,,,,VFR,,,,,,,,,,,,METAR,58.0

        EBBR 150850Z 26008KT 230V290 9999 FEW021 16/11 Q1025 NOSIG,EBBR,2018-09-15T08:50:00Z,50.9,4.5,16.0,11.0,260,8,,6.21,30.265747,,,,,,TRUE,,,,,FEW,2100,,,,,,,VFR,,,,,,,,,,,,METAR,58.0

        EBBR 150820Z 25007KT 210V280 9999 FEW021 16/11 Q1025 NOSIG,EBBR,2018-09-15T08:20:00Z,50.9,4.5,16.0,11.0,250,7,,6.21,30.265747,,,,,,TRUE,,,,,FEW,2100,,,,,,,VFR,,,,,,,,,,,,METAR,58.0

        EBBR 150750Z 25007KT 9999 FEW018 15/11 Q1024 NOSIG,EBBR,2018-09-15T07:50:00Z,50.9,4.5,15.0,11.0,250,7,,6.21,30.236221,,,,,,TRUE,,,,,FEW,1800,,,,,,,VFR,,,,,,,,,,,,METAR,58.0

        EBBR 150720Z 24007KT 9999 FEW016 14/11 Q1024 NOSIG,EBBR,2018-09-15T07:20:00Z,50.9,4.5,14.0,11.0,240,7,,6.21,30.236221,,,,,,TRUE,,,,,FEW,1600,,,,,,,VFR,,,,,,,,,,,,METAR,58.0

        EBBR 150650Z 23008KT CAVOK 13/11 Q1024 NOSIG,EBBR,2018-09-15T06:50:00Z,50.9,4.5,13.0,11.0,230,8,,6.21,30.236221,,,,,,TRUE,,,,,CAVOK,,,,,,,,VFR,,,,,,,,,,,,METAR,58.0

        EBBR 150620Z 23008KT CAVOK 12/11 Q1023 NOSIG,EBBR,2018-09-15T06:20:00Z,50.9,4.5,12.0,11.0,230,8,,6.21,30.206694,,,,,,TRUE,,,,,CAVOK,,,,,,,,VFR,,,,,,,,,,,,METAR,58.0

        EBBR 150550Z 22008KT CAVOK 11/10 Q1023 NOSIG,EBBR,2018-09-15T05:50:00Z,50.9,4.5,11.0,10.0,220,8,,6.21,30.206694,,,,,,TRUE,,,,,CAVOK,,,,,,,,VFR,,,,,,,,,,,,METAR,58.0

        EBBR 150520Z 22007KT CAVOK 11/10 Q1023 NOSIG,EBBR,2018-09-15T05:20:00Z,50.9,4.5,11.0,10.0,220,7,,6.21,30.206694,,,,,,TRUE,,,,,CAVOK,,,,,,,,VFR,,,,,,,,,,,,METAR,58.0

        EBBR 150450Z 22007KT CAVOK 11/10 Q1023 NOSIG,EBBR,2018-09-15T04:50:00Z,50.9,4.5,11.0,10.0,220,7,,6.21,30.206694,,,,,,TRUE,,,,,CAVOK,,,,,,,,VFR,,,,,,,,,,,,METAR,58.0

        EBBR 150420Z 21007KT CAVOK 11/10 Q1022 NOSIG,EBBR,2018-09-15T04:20:00Z,50.9,4.5,11.0,10.0,210,7,,6.21,30.177166,,,,,,TRUE,,,,,CAVOK,,,,,,,,VFR,,,,,,,,,,,,METAR,58.0

        EBBR 150350Z 21007KT CAVOK 11/10 Q1022 NOSIG,EBBR,2018-09-15T03:50:00Z,50.9,4.5,11.0,10.0,210,7,,6.21,30.177166,,,,,,TRUE,,,,,CAVOK,,,,,,,,VFR,,,,,,,,,,,,METAR,58.0

        EBBR 150320Z 22006KT 9999 SCT025 12/10 Q1022 NOSIG,EBBR,2018-09-15T03:20:00Z,50.9,4.5,12.0,10.0,220,6,,6.21,30.177166,,,,,,TRUE,,,,,SCT,2500,,,,,,,VFR,,,,,,,,,,,,METAR,58.0

        EBBR 150250Z 22006KT CAVOK 12/10 Q1022 NOSIG,EBBR,2018-09-15T02:50:00Z,50.9,4.5,12.0,10.0,220,6,,6.21,30.177166,,,,,,TRUE,,,,,CAVOK,,,,,,,,VFR,,,,,,,,,,,,METAR,58.0

        EBBR 150220Z 23007KT CAVOK 12/10 Q1022 NOSIG,EBBR,2018-09-15T02:20:00Z,50.9,4.5,12.0,10.0,230,7,,6.21,30.177166,,,,,,TRUE,,,,,CAVOK,,,,,,,,VFR,,,,,,,,,,,,METAR,58.0

        EBBR 150150Z 23008KT CAVOK 12/10 Q1022 NOSIG,EBBR,2018-09-15T01:50:00Z,50.9,4.5,12.0,10.0,230,8,,6.21,30.177166,,,,,,TRUE,,,,,CAVOK,,,,,,,,VFR,,,,,,,,,,,,METAR,58.0

        EBBR 150120Z 24008KT CAVOK 13/10 Q1022 NOSIG,EBBR,2018-09-15T01:20:00Z,50.9,4.5,13.0,10.0,240,8,,6.21,30.177166,,,,,,TRUE,,,,,CAVOK,,,,,,,,VFR,,,,,,,,,,,,METAR,58.0

        EBBR 150050Z 24008KT CAVOK 14/10 Q1022 NOSIG,EBBR,2018-09-15T00:50:00Z,50.9,4.5,14.0,10.0,240,8,,6.21,30.177166,,,,,,TRUE,,,,,CAVOK,,,,,,,,VFR,,,,,,,,,,,,METAR,58.0

        EBBR 150020Z 24008KT CAVOK 14/10 Q1022 NOSIG,EBBR,2018-09-15T00:20:00Z,50.9,4.5,14.0,10.0,240,8,,6.21,30.177166,,,,,,TRUE,,,,,CAVOK,,,,,,,,VFR,,,,,,,,,,,,METAR,58.0

        EBBR 142350Z 24008KT CAVOK 14/10 Q1022 NOSIG,EBBR,2018-09-14T23:50:00Z,50.9,4.5,14.0,10.0,240,8,,6.21,30.177166,,,,,,TRUE,,,,,CAVOK,,,,,,,,VFR,,,,,,,,,,,,METAR,58.0

        EBBR 142320Z 23008KT CAVOK 14/09 Q1022 NOSIG,EBBR,2018-09-14T23:20:00Z,50.9,4.5,14.0,9.0,230,8,,6.21,30.177166,,,,,,TRUE,,,,,CAVOK,,,,,,,,VFR,,,,,,,,,,,,METAR,58.0

        EBBR 142250Z 22006KT CAVOK 13/09 Q1022 NOSIG,EBBR,2018-09-14T22:50:00Z,50.9,4.5,13.0,9.0,220,6,,6.21,30.177166,,,,,,TRUE,,,,,CAVOK,,,,,,,,VFR,,,,,,,,,,,,METAR,58.0

        EBBR 142220Z 23006KT CAVOK 13/09 Q1022 NOSIG,EBBR,2018-09-14T22:20:00Z,50.9,4.5,13.0,9.0,230,6,,6.21,30.177166,,,,,,TRUE,,,,,CAVOK,,,,,,,,VFR,,,,,,,,,,,,METAR,58.0

        EBBR 142150Z 24007KT CAVOK 13/09 Q1022 NOSIG,EBBR,2018-09-14T21:50:00Z,50.9,4.5,13.0,9.0,240,7,,6.21,30.177166,,,,,,TRUE,,,,,CAVOK,,,,,,,,VFR,,,,,,,,,,,,METAR,58.0

        EBBR 142120Z 25007KT CAVOK 14/08 Q1022 NOSIG,EBBR,2018-09-14T21:20:00Z,50.9,4.5,14.0,8.0,250,7,,6.21,30.177166,,,,,,TRUE,,,,,CAVOK,,,,,,,,VFR,,,,,,,,,,,,METAR,58.0

        EBBR 142050Z 25008KT CAVOK 15/08 Q1022 NOSIG,EBBR,2018-09-14T20:50:00Z,50.9,4.5,15.0,8.0,250,8,,6.21,30.177166,,,,,,TRUE,,,,,CAVOK,,,,,,,,VFR,,,,,,,,,,,,METAR,58.0

        EBBR 142020Z 27011KT CAVOK 15/08 Q1022 NOSIG,EBBR,2018-09-14T20:20:00Z,50.9,4.5,15.0,8.0,270,11,,6.21,30.177166,,,,,,TRUE,,,,,CAVOK,,,,,,,,VFR,,,,,,,,,,,,METAR,58.0

        EBBR 141950Z 26009KT CAVOK 16/08 Q1021 NOSIG,EBBR,2018-09-14T19:50:00Z,50.9,4.5,16.0,8.0,260,9,,6.21,30.147638,,,,,,TRUE,,,,,CAVOK,,,,,,,,VFR,,,,,,,,,,,,METAR,58.0

        EBBR 141920Z 26007KT CAVOK 16/08 Q1021 NOSIG,EBBR,2018-09-14T19:20:00Z,50.9,4.5,16.0,8.0,260,7,,6.21,30.147638,,,,,,TRUE,,,,,CAVOK,,,,,,,,VFR,,,,,,,,,,,,METAR,58.0

        EBBR 141850Z 26008KT CAVOK 16/07 Q1021 NOSIG,EBBR,2018-09-14T18:50:00Z,50.9,4.5,16.0,7.0,260,8,,6.21,30.147638,,,,,,TRUE,,,,,CAVOK,,,,,,,,VFR,,,,,,,,,,,,METAR,58.0

        EBBR 141820Z 27007KT 240V300 CAVOK 16/07 Q1021 NOSIG,EBBR,2018-09-14T18:20:00Z,50.9,4.5,16.0,7.0,270,7,,6.21,30.147638,,,,,,TRUE,,,,,CAVOK,,,,,,,,VFR,,,,,,,,,,,,METAR,58.0

'}
    headers:
      Connection: [keep-alive]
      Content-Length: ['8845']
      Content-Type: [application/x-csv]
      Date: ['Sat, 15 Sep 2018 18:18:15 GMT']
      Server: [Apache-Coyote/1.1]
      Strict-Transport-Security: [max-age=63072000; includeSubdomains;]
      X-Content-Type-Options: [nosniff]
      X-Frame-Options: [SAMEORIGIN]
      X-XSS-Protection: [1; mode=block]
    status: {code: 200, message: OK}
version: 1
