interactions:
- request:
    body: null
    headers:
      Accept: ['*/*']
      Accept-Encoding: ['gzip, deflate']
      Connection: [keep-alive]
      User-Agent: [python-requests/2.19.1]
    method: GET
    uri: https://aviationweather.gov/adds/dataserver_current/httpparam?dataSource=metars&requestType=retrieve&format=csv&hoursBeforeNow=24&stationString=UGTB
  response:
    body: {string: 'No errors

        No warnings

        15 ms

        data source=metars

        48 results

        raw_text,station_id,observation_time,latitude,longitude,temp_c,dewpoint_c,wind_dir_degrees,wind_speed_kt,wind_gust_kt,visibility_statute_mi,altim_in_hg,sea_level_pressure_mb,corrected,auto,auto_station,maintenance_indicator_on,no_signal,lightning_sensor_off,freezing_rain_sensor_off,present_weather_sensor_off,wx_string,sky_cover,cloud_base_ft_agl,sky_cover,cloud_base_ft_agl,sky_cover,cloud_base_ft_agl,sky_cover,cloud_base_ft_agl,flight_category,three_hr_pressure_tendency_mb,maxT_c,minT_c,maxT24hr_c,minT24hr_c,precip_in,pcp3hr_in,pcp6hr_in,pcp24hr_in,snow_in,vert_vis_ft,metar_type,elevation_m

        UGTB 210500Z VRB02KT 9999 FEW041 21/15 Q1020 NOSIG,UGTB,2018-08-21T05:00:00Z,41.67,44.95,21.0,15.0,0,2,,6.21,30.11811,,,,,,TRUE,,,,,FEW,4100,,,,,,,VFR,,,,,,,,,,,,METAR,495.0

        UGTB 210430Z VRB02KT 9999 SCT043 BKN049 21/16 Q1020 NOSIG,UGTB,2018-08-21T04:30:00Z,41.67,44.95,21.0,16.0,0,2,,6.21,30.11811,,,,,,TRUE,,,,,SCT,4300,BKN,4900,,,,,VFR,,,,,,,,,,,,METAR,495.0

        UGTB 210400Z VRB01KT 9999 SCT043 BKN053 20/16 Q1020 NOSIG,UGTB,2018-08-21T04:00:00Z,41.67,44.95,20.0,16.0,0,1,,6.21,30.11811,,,,,,TRUE,,,,,SCT,4300,BKN,5300,,,,,VFR,,,,,,,,,,,,METAR,495.0

        UGTB 210330Z 09004KT 9999 FEW045 BKN051 20/15 Q1020 NOSIG,UGTB,2018-08-21T03:30:00Z,41.67,44.95,20.0,15.0,90,4,,6.21,30.11811,,,,,,TRUE,,,,,FEW,4500,BKN,5100,,,,,VFR,,,,,,,,,,,,METAR,495.0

        UGTB 210300Z VRB02KT 9999 BKN045 OVC054 19/16 Q1020 NOSIG,UGTB,2018-08-21T03:00:00Z,41.67,44.95,19.0,16.0,0,2,,6.21,30.11811,,,,,,TRUE,,,,,BKN,4500,OVC,5400,,,,,VFR,,,,,,,,,,,,METAR,495.0

        UGTB 210230Z 08004KT 9999 BKN044 OVC051 19/16 Q1020 NOSIG,UGTB,2018-08-21T02:30:00Z,41.67,44.95,19.0,16.0,80,4,,6.21,30.11811,,,,,,TRUE,,,,,BKN,4400,OVC,5100,,,,,VFR,,,,,,,,,,,,METAR,495.0

        UGTB 210200Z 06005KT 030V090 9999 FEW041 BKN047 20/15 Q1020 NOSIG,UGTB,2018-08-21T02:00:00Z,41.67,44.95,20.0,15.0,60,5,,6.21,30.11811,,,,,,TRUE,,,,,FEW,4100,BKN,4700,,,,,VFR,,,,,,,,,,,,METAR,495.0

        UGTB 210130Z 06004KT 9999 BKN041 OVC051 20/15 Q1020 NOSIG,UGTB,2018-08-21T01:30:00Z,41.67,44.95,20.0,15.0,60,4,,6.21,30.11811,,,,,,TRUE,,,,,BKN,4100,OVC,5100,,,,,VFR,,,,,,,,,,,,METAR,495.0

        UGTB 210100Z 05004KT 9999 SCT041 BKN050 20/15 Q1020 NOSIG,UGTB,2018-08-21T01:00:00Z,41.67,44.95,20.0,15.0,50,4,,6.21,30.11811,,,,,,TRUE,,,,,SCT,4100,BKN,5000,,,,,VFR,,,,,,,,,,,,METAR,495.0

        UGTB 210030Z 05006KT 9999 SCT055 20/15 Q1020 NOSIG,UGTB,2018-08-21T00:30:00Z,41.67,44.95,20.0,15.0,50,6,,6.21,30.11811,,,,,,TRUE,,,,,SCT,5500,,,,,,,VFR,,,,,,,,,,,,METAR,495.0

        UGTB 210000Z 06005KT 040V110 9999 SCT041 BKN055 20/15 Q1020 NOSIG,UGTB,2018-08-21T00:00:00Z,41.67,44.95,20.0,15.0,60,5,,6.21,30.11811,,,,,,TRUE,,,,,SCT,4100,BKN,5500,,,,,VFR,,,,,,,,,,,,METAR,495.0

        UGTB 202330Z 07004KT 030V100 9999 FEW042 BKN055 20/16 Q1020 NOSIG,UGTB,2018-08-20T23:30:00Z,41.67,44.95,20.0,16.0,70,4,,6.21,30.11811,,,,,,TRUE,,,,,FEW,4200,BKN,5500,,,,,VFR,,,,,,,,,,,,METAR,495.0

        UGTB 202300Z 00000KT 9999 FEW042 OVC053 20/16 Q1020 NOSIG,UGTB,2018-08-20T23:00:00Z,41.67,44.95,20.0,16.0,0,0,,6.21,30.11811,,,,,,TRUE,,,,,FEW,4200,OVC,5300,,,,,VFR,,,,,,,,,,,,METAR,495.0

        UGTB 202230Z 05005KT 9999 BKN044 OVC053 20/15 Q1020 NOSIG,UGTB,2018-08-20T22:30:00Z,41.67,44.95,20.0,15.0,50,5,,6.21,30.11811,,,,,,TRUE,,,,,BKN,4400,OVC,5300,,,,,VFR,,,,,,,,,,,,METAR,495.0

        UGTB 202200Z 06006KT 9999 BKN040 OVC057 20/15 Q1020 NOSIG,UGTB,2018-08-20T22:00:00Z,41.67,44.95,20.0,15.0,60,6,,6.21,30.11811,,,,,,TRUE,,,,,BKN,4000,OVC,5700,,,,,VFR,,,,,,,,,,,,METAR,495.0

        UGTB 202130Z 06005KT 9999 BKN041CB OVC051 20/16 Q1020 NOSIG,UGTB,2018-08-20T21:30:00Z,41.67,44.95,20.0,16.0,60,5,,6.21,30.11811,,,,,,TRUE,,,,,BKN,4100,OVC,5100,,,,,VFR,,,,,,,,,,,,METAR,495.0

        UGTB 202100Z 06005KT 9999 BKN041CB OVC049 20/16 Q1021 NOSIG,UGTB,2018-08-20T21:00:00Z,41.67,44.95,20.0,16.0,60,5,,6.21,30.147638,,,,,,TRUE,,,,,BKN,4100,OVC,4900,,,,,VFR,,,,,,,,,,,,METAR,495.0

        UGTB 202030Z 07005KT 9999 SCT045 BKN051CB 20/16 Q1021 NOSIG,UGTB,2018-08-20T20:30:00Z,41.67,44.95,20.0,16.0,70,5,,6.21,30.147638,,,,,,TRUE,,,,,SCT,4500,BKN,5100,,,,,VFR,,,,,,,,,,,,METAR,495.0

        UGTB 202000Z 08005KT 040V110 9999 SCT043CB 21/15 Q1021 NOSIG,UGTB,2018-08-20T20:00:00Z,41.67,44.95,21.0,15.0,80,5,,6.21,30.147638,,,,,,TRUE,,,,,SCT,4300,,,,,,,VFR,,,,,,,,,,,,METAR,495.0

        UGTB 201930Z 08005KT 9999 BKN045CB 20/16 Q1021 NOSIG,UGTB,2018-08-20T19:30:00Z,41.67,44.95,20.0,16.0,80,5,,6.21,30.147638,,,,,,TRUE,,,,,BKN,4500,,,,,,,VFR,,,,,,,,,,,,METAR,495.0

        UGTB 201900Z 09005KT 9999 SCT041 BKN051CB 20/16 Q1021 NOSIG,UGTB,2018-08-20T19:00:00Z,41.67,44.95,20.0,16.0,90,5,,6.21,30.147638,,,,,,TRUE,,,,,SCT,4100,BKN,5100,,,,,VFR,,,,,,,,,,,,METAR,495.0

        UGTB 201830Z 08005KT 9999 BKN045CB 20/15 Q1021 NOSIG,UGTB,2018-08-20T18:30:00Z,41.67,44.95,20.0,15.0,80,5,,6.21,30.147638,,,,,,TRUE,,,,,BKN,4500,,,,,,,VFR,,,,,,,,,,,,METAR,495.0

        UGTB 201800Z 07007KT 9999 SCT044 BKN070CB 20/15 Q1021 NOSIG,UGTB,2018-08-20T18:00:00Z,41.67,44.95,20.0,15.0,70,7,,6.21,30.147638,,,,,,TRUE,,,,,SCT,4400,BKN,7000,,,,,VFR,,,,,,,,,,,,METAR,495.0

        UGTB 201730Z 07008KT 9999 SCT046 BKN053CB 21/16 Q1021 NOSIG,UGTB,2018-08-20T17:30:00Z,41.67,44.95,21.0,16.0,70,8,,6.21,30.147638,,,,,,TRUE,,,,,SCT,4600,BKN,5300,,,,,VFR,,,,,,,,,,,,METAR,495.0

        UGTB 201700Z 09003KT 9999 SCT045CB 21/19 Q1021 NOSIG,UGTB,2018-08-20T17:00:00Z,41.67,44.95,21.0,19.0,90,3,,6.21,30.147638,,,,,,TRUE,,,,,SCT,4500,,,,,,,VFR,,,,,,,,,,,,METAR,495.0

        UGTB 201630Z 11001KT 9999 SCT050CB BKN070 21/18 Q1020 NOSIG,UGTB,2018-08-20T16:30:00Z,41.67,44.95,21.0,18.0,110,1,,6.21,30.11811,,,,,,TRUE,,,,,SCT,5000,BKN,7000,,,,,VFR,,,,,,,,,,,,METAR,495.0

        UGTB 201600Z 00000KT 9999 FEW044 SCT050CB 21/17 Q1020 NOSIG,UGTB,2018-08-20T16:00:00Z,41.67,44.95,21.0,17.0,0,0,,6.21,30.11811,,,,,,TRUE,,,,,FEW,4400,SCT,5000,,,,,VFR,,,,,,,,,,,,METAR,495.0

        UGTB 201530Z 00000KT 9999 SCT044CB 21/18 Q1020 NOSIG,UGTB,2018-08-20T15:30:00Z,41.67,44.95,21.0,18.0,0,0,,6.21,30.11811,,,,,,TRUE,,,,,SCT,4400,,,,,,,VFR,,,,,,,,,,,,METAR,495.0

        UGTB 201500Z 21002KT 9999 SCT040CB BKN046 22/18 Q1020 NOSIG,UGTB,2018-08-20T15:00:00Z,41.67,44.95,22.0,18.0,210,2,,6.21,30.11811,,,,,,TRUE,,,,,SCT,4000,BKN,4600,,,,,VFR,,,,,,,,,,,,METAR,495.0

        UGTB 201430Z VRB02KT 9999 SCT042CB BKN048 22/17 Q1020 NOSIG,UGTB,2018-08-20T14:30:00Z,41.67,44.95,22.0,17.0,0,2,,6.21,30.11811,,,,,,TRUE,,,,,SCT,4200,BKN,4800,,,,,VFR,,,,,,,,,,,,METAR,495.0

        UGTB 201400Z 24003KT 9999 FEW032 SCT044CB BKN051 22/17 Q1020 NOSIG,UGTB,2018-08-20T14:00:00Z,41.67,44.95,22.0,17.0,240,3,,6.21,30.11811,,,,,,TRUE,,,,,FEW,3200,SCT,4400,BKN,5100,,,VFR,,,,,,,,,,,,METAR,495.0

        UGTB 201330Z 21006KT 9999 FEW034 SCT050CB BKN058 22/17 Q1020 NOSIG,UGTB,2018-08-20T13:30:00Z,41.67,44.95,22.0,17.0,210,6,,6.21,30.11811,,,,,,TRUE,,,,,FEW,3400,SCT,5000,BKN,5800,,,VFR,,,,,,,,,,,,METAR,495.0

        UGTB 201300Z VRB04KT 9999 SCT037CB BKN052 23/17 Q1020 NOSIG,UGTB,2018-08-20T13:00:00Z,41.67,44.95,23.0,17.0,0,4,,6.21,30.11811,,,,,,TRUE,,,,,SCT,3700,BKN,5200,,,,,VFR,,,,,,,,,,,,METAR,495.0

        UGTB 201230Z 11007KT 9999 FEW040 SCT053CB BKN063 23/16 Q1020 NOSIG,UGTB,2018-08-20T12:30:00Z,41.67,44.95,23.0,16.0,110,7,,6.21,30.11811,,,,,,TRUE,,,,,FEW,4000,SCT,5300,BKN,6300,,,VFR,,,,,,,,,,,,METAR,495.0

        UGTB 201200Z 11006KT 9999 SCT045CB BKN057 23/16 Q1020 NOSIG,UGTB,2018-08-20T12:00:00Z,41.67,44.95,23.0,16.0,110,6,,6.21,30.11811,,,,,,TRUE,,,,,SCT,4500,BKN,5700,,,,,VFR,,,,,,,,,,,,METAR,495.0

        UGTB 201130Z 11006KT 9999 FEW040 SCT047CB BKN069 23/16 Q1020 NOSIG,UGTB,2018-08-20T11:30:00Z,41.67,44.95,23.0,16.0,110,6,,6.21,30.11811,,,,,,TRUE,,,,,FEW,4000,SCT,4700,BKN,6900,,,VFR,,,,,,,,,,,,METAR,495.0

        UGTB 201100Z 10008KT 9999 SCT047CB BKN065 23/16 Q1020 NOSIG,UGTB,2018-08-20T11:00:00Z,41.67,44.95,23.0,16.0,100,8,,6.21,30.11811,,,,,,TRUE,,,,,SCT,4700,BKN,6500,,,,,VFR,,,,,,,,,,,,METAR,495.0

        UGTB 201030Z 10009KT 9999 SCT044CB BKN054 OVC063 23/16 Q1020 NOSIG,UGTB,2018-08-20T10:30:00Z,41.67,44.95,23.0,16.0,100,9,,6.21,30.11811,,,,,,TRUE,,,,,SCT,4400,BKN,5400,OVC,6300,,,VFR,,,,,,,,,,,,METAR,495.0

        UGTB 201000Z 11008KT 9999 SCT044CB BKN052 23/16 Q1020 NOSIG,UGTB,2018-08-20T10:00:00Z,41.67,44.95,23.0,16.0,110,8,,6.21,30.11811,,,,,,TRUE,,,,,SCT,4400,BKN,5200,,,,,VFR,,,,,,,,,,,,METAR,495.0

        UGTB 200930Z 11010KT 9999 FEW036 SCT046CB BKN059 23/16 Q1020 NOSIG,UGTB,2018-08-20T09:30:00Z,41.67,44.95,23.0,16.0,110,10,,6.21,30.11811,,,,,,TRUE,,,,,FEW,3600,SCT,4600,BKN,5900,,,VFR,,,,,,,,,,,,METAR,495.0

        UGTB 200900Z 10011KT 9999 FEW034 SCT050CB BKN058 23/16 Q1020 NOSIG,UGTB,2018-08-20T09:00:00Z,41.67,44.95,23.0,16.0,100,11,,6.21,30.11811,,,,,,TRUE,,,,,FEW,3400,SCT,5000,BKN,5800,,,VFR,,,,,,,,,,,,METAR,495.0

        UGTB 200830Z 09009KT 9999 SCT050CB BKN059 23/16 Q1020 NOSIG,UGTB,2018-08-20T08:30:00Z,41.67,44.95,23.0,16.0,90,9,,6.21,30.11811,,,,,,TRUE,,,,,SCT,5000,BKN,5900,,,,,VFR,,,,,,,,,,,,METAR,495.0

        UGTB 200800Z 08009KT 9999 SCT050CB BKN059 23/16 Q1020 NOSIG,UGTB,2018-08-20T08:00:00Z,41.67,44.95,23.0,16.0,80,9,,6.21,30.11811,,,,,,TRUE,,,,,SCT,5000,BKN,5900,,,,,VFR,,,,,,,,,,,,METAR,495.0

        UGTB 200730Z 09010KT 9999 SCT039CB BKN062 23/15 Q1020 NOSIG,UGTB,2018-08-20T07:30:00Z,41.67,44.95,23.0,15.0,90,10,,6.21,30.11811,,,,,,TRUE,,,,,SCT,3900,BKN,6200,,,,,VFR,,,,,,,,,,,,METAR,495.0

        UGTB 200700Z 10009KT 9999 SCT037CB BKN069 23/15 Q1020 NOSIG,UGTB,2018-08-20T07:00:00Z,41.67,44.95,23.0,15.0,100,9,,6.21,30.11811,,,,,,TRUE,,,,,SCT,3700,BKN,6900,,,,,VFR,,,,,,,,,,,,METAR,495.0

        UGTB 200630Z 10009KT 9999 BKN056CB OVC063 23/16 Q1020 NOSIG,UGTB,2018-08-20T06:30:00Z,41.67,44.95,23.0,16.0,100,9,,6.21,30.11811,,,,,,TRUE,,,,,BKN,5600,OVC,6300,,,,,VFR,,,,,,,,,,,,METAR,495.0

        UGTB 200600Z 11008KT 9999 BKN050CB 22/16 Q1020 NOSIG,UGTB,2018-08-20T06:00:00Z,41.67,44.95,22.0,16.0,110,8,,6.21,30.11811,,,,,,TRUE,,,,,BKN,5000,,,,,,,VFR,,,,,,,,,,,,METAR,495.0

        UGTB 200530Z 11005KT 070V140 9999 BKN049CB OVC059 22/16 Q1019 NOSIG,UGTB,2018-08-20T05:30:00Z,41.67,44.95,22.0,16.0,110,5,,6.21,30.088583,,,,,,TRUE,,,,,BKN,4900,OVC,5900,,,,,VFR,,,,,,,,,,,,METAR,495.0

'}
    headers:
      Connection: [keep-alive]
      Content-Length: ['9840']
      Content-Type: [application/x-csv]
      Date: ['Tue, 21 Aug 2018 06:31:39 GMT']
      Server: [Apache-Coyote/1.1]
      Strict-Transport-Security: [max-age=63072000; includeSubdomains;]
      X-Content-Type-Options: [nosniff]
      X-Frame-Options: [SAMEORIGIN]
      X-XSS-Protection: [1; mode=block]
    status: {code: 200, message: OK}
version: 1
