interactions:
- request:
    body: null
    headers:
      Accept: ['*/*']
      Accept-Encoding: ['gzip, deflate']
      Connection: [keep-alive]
      User-Agent: [python-requests/2.19.1]
    method: GET
    uri: https://aviationweather.gov/adds/dataserver_current/httpparam?dataSource=metars&requestType=retrieve&format=csv&hoursBeforeNow=24&stationString=EBBR
  response:
    body: {string: 'No errors

        No warnings

        19 ms

        data source=metars

        48 results

        raw_text,station_id,observation_time,latitude,longitude,temp_c,dewpoint_c,wind_dir_degrees,wind_speed_kt,wind_gust_kt,visibility_statute_mi,altim_in_hg,sea_level_pressure_mb,corrected,auto,auto_station,maintenance_indicator_on,no_signal,lightning_sensor_off,freezing_rain_sensor_off,present_weather_sensor_off,wx_string,sky_cover,cloud_base_ft_agl,sky_cover,cloud_base_ft_agl,sky_cover,cloud_base_ft_agl,sky_cover,cloud_base_ft_agl,flight_category,three_hr_pressure_tendency_mb,maxT_c,minT_c,maxT24hr_c,minT24hr_c,precip_in,pcp3hr_in,pcp6hr_in,pcp24hr_in,snow_in,vert_vis_ft,metar_type,elevation_m

        EBBR 210450Z 17001KT CAVOK 16/13 Q1021 NOSIG,EBBR,2018-08-21T04:50:00Z,50.9,4.5,16.0,13.0,170,1,,6.21,30.147638,,,,,,TRUE,,,,,CAVOK,,,,,,,,VFR,,,,,,,,,,,,METAR,58.0

        EBBR 210420Z 00000KT CAVOK 17/14 Q1021 NOSIG,EBBR,2018-08-21T04:20:00Z,50.9,4.5,17.0,14.0,0,0,,6.21,30.147638,,,,,,TRUE,,,,,CAVOK,,,,,,,,VFR,,,,,,,,,,,,METAR,58.0

        EBBR 210350Z 15001KT CAVOK 17/14 Q1020 NOSIG,EBBR,2018-08-21T03:50:00Z,50.9,4.5,17.0,14.0,150,1,,6.21,30.11811,,,,,,TRUE,,,,,CAVOK,,,,,,,,VFR,,,,,,,,,,,,METAR,58.0

        EBBR 210320Z 00000KT CAVOK 17/14 Q1020 NOSIG,EBBR,2018-08-21T03:20:00Z,50.9,4.5,17.0,14.0,0,0,,6.21,30.11811,,,,,,TRUE,,,,,CAVOK,,,,,,,,VFR,,,,,,,,,,,,METAR,58.0

        EBBR 210250Z 00000KT 9999 FEW035 18/14 Q1021 NOSIG,EBBR,2018-08-21T02:50:00Z,50.9,4.5,18.0,14.0,0,0,,6.21,30.147638,,,,,,TRUE,,,,,FEW,3500,,,,,,,VFR,,,,,,,,,,,,METAR,58.0

        EBBR 210220Z 17001KT 9999 FEW035 18/15 Q1021 NOSIG,EBBR,2018-08-21T02:20:00Z,50.9,4.5,18.0,15.0,170,1,,6.21,30.147638,,,,,,TRUE,,,,,FEW,3500,,,,,,,VFR,,,,,,,,,,,,METAR,58.0

        EBBR 210150Z 18002KT 9999 BKN049 18/15 Q1021 NOSIG,EBBR,2018-08-21T01:50:00Z,50.9,4.5,18.0,15.0,180,2,,6.21,30.147638,,,,,,TRUE,,,,,BKN,4900,,,,,,,VFR,,,,,,,,,,,,METAR,58.0

        EBBR 210120Z 00000KT 9999 SCT047 18/15 Q1021 NOSIG,EBBR,2018-08-21T01:20:00Z,50.9,4.5,18.0,15.0,0,0,,6.21,30.147638,,,,,,TRUE,,,,,SCT,4700,,,,,,,VFR,,,,,,,,,,,,METAR,58.0

        EBBR 210050Z 00000KT 9999 BKN045 18/15 Q1021 NOSIG,EBBR,2018-08-21T00:50:00Z,50.9,4.5,18.0,15.0,0,0,,6.21,30.147638,,,,,,TRUE,,,,,BKN,4500,,,,,,,VFR,,,,,,,,,,,,METAR,58.0

        EBBR 210020Z 00000KT 9999 SCT040 19/15 Q1021 NOSIG,EBBR,2018-08-21T00:20:00Z,50.9,4.5,19.0,15.0,0,0,,6.21,30.147638,,,,,,TRUE,,,,,SCT,4000,,,,,,,VFR,,,,,,,,,,,,METAR,58.0

        EBBR 202350Z 34001KT 9999 SCT040 19/14 Q1021 NOSIG,EBBR,2018-08-20T23:50:00Z,50.9,4.5,19.0,14.0,340,1,,6.21,30.147638,,,,,,TRUE,,,,,SCT,4000,,,,,,,VFR,,,,,,,,,,,,METAR,58.0

        EBBR 202320Z 31001KT 9999 FEW039 19/16 Q1021 NOSIG,EBBR,2018-08-20T23:20:00Z,50.9,4.5,19.0,16.0,310,1,,6.21,30.147638,,,,,,TRUE,,,,,FEW,3900,,,,,,,VFR,,,,,,,,,,,,METAR,58.0

        EBBR 202250Z 00000KT 9999 FEW037 19/17 Q1021 NOSIG,EBBR,2018-08-20T22:50:00Z,50.9,4.5,19.0,17.0,0,0,,6.21,30.147638,,,,,,TRUE,,,,,FEW,3700,,,,,,,VFR,,,,,,,,,,,,METAR,58.0

        EBBR 202220Z 00000KT 9999 SCT035 19/17 Q1021 NOSIG,EBBR,2018-08-20T22:20:00Z,50.9,4.5,19.0,17.0,0,0,,6.21,30.147638,,,,,,TRUE,,,,,SCT,3500,,,,,,,VFR,,,,,,,,,,,,METAR,58.0

        EBBR 202150Z VRB02KT 9999 SCT035 19/16 Q1021 NOSIG,EBBR,2018-08-20T21:50:00Z,50.9,4.5,19.0,16.0,0,2,,6.21,30.147638,,,,,,TRUE,,,,,SCT,3500,,,,,,,VFR,,,,,,,,,,,,METAR,58.0

        EBBR 202120Z VRB01KT 9999 BKN035 19/16 Q1021 NOSIG,EBBR,2018-08-20T21:20:00Z,50.9,4.5,19.0,16.0,0,1,,6.21,30.147638,,,,,,TRUE,,,,,BKN,3500,,,,,,,VFR,,,,,,,,,,,,METAR,58.0

        EBBR 202050Z 32003KT 9999 BKN035 20/16 Q1021 NOSIG,EBBR,2018-08-20T20:50:00Z,50.9,4.5,20.0,16.0,320,3,,6.21,30.147638,,,,,,TRUE,,,,,BKN,3500,,,,,,,VFR,,,,,,,,,,,,METAR,58.0

        EBBR 202020Z 33004KT 300V360 9999 BKN035 20/16 Q1021 NOSIG,EBBR,2018-08-20T20:20:00Z,50.9,4.5,20.0,16.0,330,4,,6.21,30.147638,,,,,,TRUE,,,,,BKN,3500,,,,,,,VFR,,,,,,,,,,,,METAR,58.0

        EBBR 201950Z 33003KT 9999 BKN035 20/17 Q1021 NOSIG,EBBR,2018-08-20T19:50:00Z,50.9,4.5,20.0,17.0,330,3,,6.21,30.147638,,,,,,TRUE,,,,,BKN,3500,,,,,,,VFR,,,,,,,,,,,,METAR,58.0

        EBBR 201920Z 32003KT 9999 BKN035 20/17 Q1021 NOSIG,EBBR,2018-08-20T19:20:00Z,50.9,4.5,20.0,17.0,320,3,,6.21,30.147638,,,,,,TRUE,,,,,BKN,3500,,,,,,,VFR,,,,,,,,,,,,METAR,58.0

        EBBR 201850Z 35003KT 320V020 9999 FEW023 SCT035 20/16 Q1020 NOSIG,EBBR,2018-08-20T18:50:00Z,50.9,4.5,20.0,16.0,350,3,,6.21,30.11811,,,,,,TRUE,,,,,FEW,2300,SCT,3500,,,,,VFR,,,,,,,,,,,,METAR,58.0

        EBBR 201820Z 36003KT 9999 FEW023 BKN035 21/16 Q1020 NOSIG,EBBR,2018-08-20T18:20:00Z,50.9,4.5,21.0,16.0,360,3,,6.21,30.11811,,,,,,TRUE,,,,,FEW,2300,BKN,3500,,,,,VFR,,,,,,,,,,,,METAR,58.0

        EBBR 201750Z 36004KT 9999 SCT023 21/17 Q1020 NOSIG,EBBR,2018-08-20T17:50:00Z,50.9,4.5,21.0,17.0,360,4,,6.21,30.11811,,,,,,TRUE,,,,,SCT,2300,,,,,,,VFR,,,,,,,,,,,,METAR,58.0

        EBBR 201720Z 34005KT 310V010 9999 SCT022 21/16 Q1020 NOSIG,EBBR,2018-08-20T17:20:00Z,50.9,4.5,21.0,16.0,340,5,,6.21,30.11811,,,,,,TRUE,,,,,SCT,2200,,,,,,,VFR,,,,,,,,,,,,METAR,58.0

        EBBR 201650Z 35005KT 310V010 9999 SCT022 22/17 Q1020 NOSIG,EBBR,2018-08-20T16:50:00Z,50.9,4.5,22.0,17.0,350,5,,6.21,30.11811,,,,,,TRUE,,,,,SCT,2200,,,,,,,VFR,,,,,,,,,,,,METAR,58.0

        EBBR 201620Z 34005KT 310V030 9999 SCT023 22/17 Q1020 NOSIG,EBBR,2018-08-20T16:20:00Z,50.9,4.5,22.0,17.0,340,5,,6.21,30.11811,,,,,,TRUE,,,,,SCT,2300,,,,,,,VFR,,,,,,,,,,,,METAR,58.0

        EBBR 201550Z 33004KT 300V010 9999 FEW043 22/17 Q1020 NOSIG,EBBR,2018-08-20T15:50:00Z,50.9,4.5,22.0,17.0,330,4,,6.21,30.11811,,,,,,TRUE,,,,,FEW,4300,,,,,,,VFR,,,,,,,,,,,,METAR,58.0

        EBBR 201520Z 33005KT 300V360 9999 SCT040 22/17 Q1020 NOSIG,EBBR,2018-08-20T15:20:00Z,50.9,4.5,22.0,17.0,330,5,,6.21,30.11811,,,,,,TRUE,,,,,SCT,4000,,,,,,,VFR,,,,,,,,,,,,METAR,58.0

        EBBR 201450Z 33005KT 9999 SCT027 22/16 Q1020 NOSIG,EBBR,2018-08-20T14:50:00Z,50.9,4.5,22.0,16.0,330,5,,6.21,30.11811,,,,,,TRUE,,,,,SCT,2700,,,,,,,VFR,,,,,,,,,,,,METAR,58.0

        EBBR 201420Z 35003KT 280V020 9999 FEW024 22/17 Q1021 NOSIG,EBBR,2018-08-20T14:20:00Z,50.9,4.5,22.0,17.0,350,3,,6.21,30.147638,,,,,,TRUE,,,,,FEW,2400,,,,,,,VFR,,,,,,,,,,,,METAR,58.0

        EBBR 201350Z 34004KT 9999 SCT023 22/17 Q1021 NOSIG,EBBR,2018-08-20T13:50:00Z,50.9,4.5,22.0,17.0,340,4,,6.21,30.147638,,,,,,TRUE,,,,,SCT,2300,,,,,,,VFR,,,,,,,,,,,,METAR,58.0

        EBBR 201320Z 35004KT 320V040 9999 BKN026 22/17 Q1021 NOSIG,EBBR,2018-08-20T13:20:00Z,50.9,4.5,22.0,17.0,350,4,,6.21,30.147638,,,,,,TRUE,,,,,BKN,2600,,,,,,,MVFR,,,,,,,,,,,,METAR,58.0

        EBBR 201250Z 31003KT 260V010 9999 BKN025 22/17 Q1021 NOSIG,EBBR,2018-08-20T12:50:00Z,50.9,4.5,22.0,17.0,310,3,,6.21,30.147638,,,,,,TRUE,,,,,BKN,2500,,,,,,,MVFR,,,,,,,,,,,,METAR,58.0

        EBBR 201220Z 29004KT 250V340 9999 BKN025 22/16 Q1021 NOSIG,EBBR,2018-08-20T12:20:00Z,50.9,4.5,22.0,16.0,290,4,,6.21,30.147638,,,,,,TRUE,,,,,BKN,2500,,,,,,,MVFR,,,,,,,,,,,,METAR,58.0

        EBBR 201150Z 30003KT 250V350 9999 SCT022 22/17 Q1021 NOSIG,EBBR,2018-08-20T11:50:00Z,50.9,4.5,22.0,17.0,300,3,,6.21,30.147638,,,,,,TRUE,,,,,SCT,2200,,,,,,,VFR,,,,,,,,,,,,METAR,58.0

        EBBR 201120Z 32003KT 290V350 9999 FEW018 BKN048 21/17 Q1021 NOSIG,EBBR,2018-08-20T11:20:00Z,50.9,4.5,21.0,17.0,320,3,,6.21,30.147638,,,,,,TRUE,,,,,FEW,1800,BKN,4800,,,,,VFR,,,,,,,,,,,,METAR,58.0

        EBBR 201050Z 30004KT 9999 FEW018 BKN034 21/17 Q1021 NOSIG,EBBR,2018-08-20T10:50:00Z,50.9,4.5,21.0,17.0,300,4,,6.21,30.147638,,,,,,TRUE,,,,,FEW,1800,BKN,3400,,,,,VFR,,,,,,,,,,,,METAR,58.0

        EBBR 201020Z 30004KT 9999 BKN017 BKN040 21/17 Q1021 NOSIG,EBBR,2018-08-20T10:20:00Z,50.9,4.5,21.0,17.0,300,4,,6.21,30.147638,,,,,,TRUE,,,,,BKN,1700,BKN,4000,,,,,MVFR,,,,,,,,,,,,METAR,58.0

        EBBR 200950Z 27004KT 230V310 9999 BKN015 BKN040 21/16 Q1021 NOSIG,EBBR,2018-08-20T09:50:00Z,50.9,4.5,21.0,16.0,270,4,,6.21,30.147638,,,,,,TRUE,,,,,BKN,1500,BKN,4000,,,,,MVFR,,,,,,,,,,,,METAR,58.0

        EBBR 200920Z 28004KT 240V310 9999 BKN015 BKN049 20/17 Q1021 NOSIG,EBBR,2018-08-20T09:20:00Z,50.9,4.5,20.0,17.0,280,4,,6.21,30.147638,,,,,,TRUE,,,,,BKN,1500,BKN,4900,,,,,MVFR,,,,,,,,,,,,METAR,58.0

        EBBR 200850Z 26005KT 9999 SCT014 BKN049 20/17 Q1021 NOSIG,EBBR,2018-08-20T08:50:00Z,50.9,4.5,20.0,17.0,260,5,,6.21,30.147638,,,,,,TRUE,,,,,SCT,1400,BKN,4900,,,,,VFR,,,,,,,,,,,,METAR,58.0

        EBBR 200820Z 26005KT 220V290 8000 FEW010 BKN015 20/17 Q1021 NOSIG,EBBR,2018-08-20T08:20:00Z,50.9,4.5,20.0,17.0,260,5,,4.97,30.147638,,,,,,TRUE,,,,,FEW,1000,BKN,1500,,,,,MVFR,,,,,,,,,,,,METAR,58.0

        EBBR 200750Z 25005KT 9000 BKN010 BKN048 20/17 Q1020 NOSIG,EBBR,2018-08-20T07:50:00Z,50.9,4.5,20.0,17.0,250,5,,5.59,30.11811,,,,,,TRUE,,,,,BKN,1000,BKN,4800,,,,,MVFR,,,,,,,,,,,,METAR,58.0

        EBBR 200720Z 28007KT 9000 SCT009 BKN017 19/17 Q1020 NOSIG,EBBR,2018-08-20T07:20:00Z,50.9,4.5,19.0,17.0,280,7,,5.59,30.11811,,,,,,TRUE,,,,,SCT,900,BKN,1700,,,,,MVFR,,,,,,,,,,,,METAR,58.0

        EBBR 200650Z 26005KT 9000 SCT009 SCT011 19/17 Q1020 BECMG BKN011,EBBR,2018-08-20T06:50:00Z,50.9,4.5,19.0,17.0,260,5,,5.59,30.11811,,,,,,,,,,,SCT,900,SCT,1100,,,,,VFR,,,,,,,,,,,,METAR,58.0

        EBBR 200620Z 28007KT 9000 BKN007 19/17 Q1020 TEMPO 4500 BR,EBBR,2018-08-20T06:20:00Z,50.9,4.5,19.0,17.0,280,7,,5.59,30.11811,,,,,,,,,,,BKN,700,,,,,,,IFR,,,,,,,,,,,,METAR,58.0

        EBBR 200550Z 29008KT 9999 BKN007 19/17 Q1019 TEMPO 4500 BR,EBBR,2018-08-20T05:50:00Z,50.9,4.5,19.0,17.0,290,8,,6.21,30.088583,,,,,,,,,,,BKN,700,,,,,,,IFR,,,,,,,,,,,,METAR,58.0

        EBBR 200520Z 27007KT 240V300 9999 BKN007 19/17 Q1019 NOSIG,EBBR,2018-08-20T05:20:00Z,50.9,4.5,19.0,17.0,270,7,,6.21,30.088583,,,,,,TRUE,,,,,BKN,700,,,,,,,IFR,,,,,,,,,,,,METAR,58.0

'}
    headers:
      Connection: [keep-alive]
      Content-Length: ['9212']
      Content-Type: [application/x-csv]
      Date: ['Tue, 21 Aug 2018 06:32:06 GMT']
      Server: [Apache-Coyote/1.1]
      Strict-Transport-Security: [max-age=63072000; includeSubdomains;]
      X-Content-Type-Options: [nosniff]
      X-Frame-Options: [SAMEORIGIN]
      X-XSS-Protection: [1; mode=block]
    status: {code: 200, message: OK}
version: 1
