interactions:
- request:
    body: null
    headers:
      Accept: ['*/*']
      Accept-Encoding: ['gzip, deflate']
      Connection: [keep-alive]
      User-Agent: [python-requests/2.19.1]
    method: GET
    uri: https://aviationweather.gov/adds/dataserver_current/httpparam?dataSource=metars&requestType=retrieve&format=csv&hoursBeforeNow=24&stationString=UGTB
  response:
    body: {string: 'No errors

        No warnings

        6 ms

        data source=metars

        48 results

        raw_text,station_id,observation_time,latitude,longitude,temp_c,dewpoint_c,wind_dir_degrees,wind_speed_kt,wind_gust_kt,visibility_statute_mi,altim_in_hg,sea_level_pressure_mb,corrected,auto,auto_station,maintenance_indicator_on,no_signal,lightning_sensor_off,freezing_rain_sensor_off,present_weather_sensor_off,wx_string,sky_cover,cloud_base_ft_agl,sky_cover,cloud_base_ft_agl,sky_cover,cloud_base_ft_agl,sky_cover,cloud_base_ft_agl,flight_category,three_hr_pressure_tendency_mb,maxT_c,minT_c,maxT24hr_c,minT24hr_c,precip_in,pcp3hr_in,pcp6hr_in,pcp24hr_in,snow_in,vert_vis_ft,metar_type,elevation_m

        UGTB 151800Z 31022KT 9999 FEW050CB BKN058 23/15 Q1015 NOSIG,UGTB,2018-09-15T18:00:00Z,41.67,44.95,23.0,15.0,310,22,,6.21,29.970472,,,,,,TRUE,,,,,FEW,5000,BKN,5800,,,,,VFR,,,,,,,,,,,,METAR,495.0

        UGTB 151730Z 32022G32KT 9999 SCT051CB 23/15 Q1015 NOSIG,UGTB,2018-09-15T17:30:00Z,41.67,44.95,23.0,15.0,320,22,32,6.21,29.970472,,,,,,TRUE,,,,,SCT,5100,,,,,,,VFR,,,,,,,,,,,,METAR,495.0

        UGTB 151700Z 33020KT 9999 FEW049 SCT057CB BKN066 23/16 Q1015 TEMPO 32025G35KT,UGTB,2018-09-15T17:00:00Z,41.67,44.95,23.0,16.0,330,20,,6.21,29.970472,,,,,,,,,,,FEW,4900,SCT,5700,BKN,6600,,,VFR,,,,,,,,,,,,METAR,495.0

        UGTB 151630Z 33019KT 9999 SCT056CB BKN066 24/16 Q1015 TEMPO 32025G35KT,UGTB,2018-09-15T16:30:00Z,41.67,44.95,24.0,16.0,330,19,,6.21,29.970472,,,,,,,,,,,SCT,5600,BKN,6600,,,,,VFR,,,,,,,,,,,,METAR,495.0

        UGTB 151600Z 33016KT 9999 SCT050CB 25/16 Q1014 BECMG 32025G35KT,UGTB,2018-09-15T16:00:00Z,41.67,44.95,25.0,16.0,330,16,,6.21,29.940945,,,,,,,,,,,SCT,5000,,,,,,,VFR,,,,,,,,,,,,METAR,495.0

        UGTB 151530Z 00000KT 9999 SCT067CB 26/17 Q1014 NOSIG,UGTB,2018-09-15T15:30:00Z,41.67,44.95,26.0,17.0,0,0,,6.21,29.940945,,,,,,TRUE,,,,,SCT,6700,,,,,,,VFR,,,,,,,,,,,,METAR,495.0

        UGTB 151500Z 15001KT 9999 SCT068CB 27/17 Q1014 NOSIG,UGTB,2018-09-15T15:00:00Z,41.67,44.95,27.0,17.0,150,1,,6.21,29.940945,,,,,,TRUE,,,,,SCT,6800,,,,,,,VFR,,,,,,,,,,,,METAR,495.0

        UGTB 151430Z 14004KT 9999 SCT050CB 27/18 Q1013 NOSIG,UGTB,2018-09-15T14:30:00Z,41.67,44.95,27.0,18.0,140,4,,6.21,29.911417,,,,,,TRUE,,,,,SCT,5000,,,,,,,VFR,,,,,,,,,,,,METAR,495.0

        UGTB 151400Z 16004KT 130V190 9999 SCT050CB 28/18 Q1013 NOSIG,UGTB,2018-09-15T14:00:00Z,41.67,44.95,28.0,18.0,160,4,,6.21,29.911417,,,,,,TRUE,,,,,SCT,5000,,,,,,,VFR,,,,,,,,,,,,METAR,495.0

        UGTB 151330Z 17004KT 140V200 9999 SCT050CB 28/17 Q1013 NOSIG,UGTB,2018-09-15T13:30:00Z,41.67,44.95,28.0,17.0,170,4,,6.21,29.911417,,,,,,TRUE,,,,,SCT,5000,,,,,,,VFR,,,,,,,,,,,,METAR,495.0

        UGTB 151300Z 18005KT 140V210 9999 SCT050CB 28/17 Q1013 NOSIG,UGTB,2018-09-15T13:00:00Z,41.67,44.95,28.0,17.0,180,5,,6.21,29.911417,,,,,,TRUE,,,,,SCT,5000,,,,,,,VFR,,,,,,,,,,,,METAR,495.0

        UGTB 151230Z 18007KT 160V220 CAVOK 29/17 Q1013 NOSIG,UGTB,2018-09-15T12:30:00Z,41.67,44.95,29.0,17.0,180,7,,6.21,29.911417,,,,,,TRUE,,,,,CAVOK,,,,,,,,VFR,,,,,,,,,,,,METAR,495.0

        UGTB 151200Z 19006KT 150V240 9999 SCT049 29/17 Q1013 NOSIG,UGTB,2018-09-15T12:00:00Z,41.67,44.95,29.0,17.0,190,6,,6.21,29.911417,,,,,,TRUE,,,,,SCT,4900,,,,,,,VFR,,,,,,,,,,,,METAR,495.0

        UGTB 151130Z VRB03KT 9999 SCT046 29/17 Q1013 NOSIG,UGTB,2018-09-15T11:30:00Z,41.67,44.95,29.0,17.0,0,3,,6.21,29.911417,,,,,,TRUE,,,,,SCT,4600,,,,,,,VFR,,,,,,,,,,,,METAR,495.0

        UGTB 151100Z 18004KT 080V250 CAVOK 29/17 Q1013 NOSIG,UGTB,2018-09-15T11:00:00Z,41.67,44.95,29.0,17.0,180,4,,6.21,29.911417,,,,,,TRUE,,,,,CAVOK,,,,,,,,VFR,,,,,,,,,,,,METAR,495.0

        UGTB 151030Z 20006KT 140V240 CAVOK 30/18 Q1013 NOSIG,UGTB,2018-09-15T10:30:00Z,41.67,44.95,30.0,18.0,200,6,,6.21,29.911417,,,,,,TRUE,,,,,CAVOK,,,,,,,,VFR,,,,,,,,,,,,METAR,495.0

        UGTB 151000Z VRB04KT CAVOK 30/17 Q1014 NOSIG,UGTB,2018-09-15T10:00:00Z,41.67,44.95,30.0,17.0,0,4,,6.21,29.940945,,,,,,TRUE,,,,,CAVOK,,,,,,,,VFR,,,,,,,,,,,,METAR,495.0

        UGTB 150930Z VRB05KT CAVOK 29/17 Q1014 NOSIG,UGTB,2018-09-15T09:30:00Z,41.67,44.95,29.0,17.0,0,5,,6.21,29.940945,,,,,,TRUE,,,,,CAVOK,,,,,,,,VFR,,,,,,,,,,,,METAR,495.0

        UGTB 150900Z 22007KT 160V250 CAVOK 27/17 Q1014 NOSIG,UGTB,2018-09-15T09:00:00Z,41.67,44.95,27.0,17.0,220,7,,6.21,29.940945,,,,,,TRUE,,,,,CAVOK,,,,,,,,VFR,,,,,,,,,,,,METAR,495.0

        UGTB 150830Z VRB05KT CAVOK 27/17 Q1015 NOSIG,UGTB,2018-09-15T08:30:00Z,41.67,44.95,27.0,17.0,0,5,,6.21,29.970472,,,,,,TRUE,,,,,CAVOK,,,,,,,,VFR,,,,,,,,,,,,METAR,495.0

        UGTB 150800Z VRB04KT CAVOK 26/16 Q1015 NOSIG,UGTB,2018-09-15T08:00:00Z,41.67,44.95,26.0,16.0,0,4,,6.21,29.970472,,,,,,TRUE,,,,,CAVOK,,,,,,,,VFR,,,,,,,,,,,,METAR,495.0

        UGTB 150730Z VRB02KT CAVOK 26/16 Q1015 NOSIG,UGTB,2018-09-15T07:30:00Z,41.67,44.95,26.0,16.0,0,2,,6.21,29.970472,,,,,,TRUE,,,,,CAVOK,,,,,,,,VFR,,,,,,,,,,,,METAR,495.0

        UGTB 150700Z VRB03KT 9999 SCT050CB 26/17 Q1016 NOSIG,UGTB,2018-09-15T07:00:00Z,41.67,44.95,26.0,17.0,0,3,,6.21,30.0,,,,,,TRUE,,,,,SCT,5000,,,,,,,VFR,,,,,,,,,,,,METAR,495.0

        UGTB 150630Z 10003KT 010V150 9999 FEW021 SCT050CB 24/17 Q1016 NOSIG,UGTB,2018-09-15T06:30:00Z,41.67,44.95,24.0,17.0,100,3,,6.21,30.0,,,,,,TRUE,,,,,FEW,2100,SCT,5000,,,,,VFR,,,,,,,,,,,,METAR,495.0

        UGTB 150600Z 07005KT 040V110 CAVOK 23/17 Q1016 NOSIG,UGTB,2018-09-15T06:00:00Z,41.67,44.95,23.0,17.0,70,5,,6.21,30.0,,,,,,TRUE,,,,,CAVOK,,,,,,,,VFR,,,,,,,,,,,,METAR,495.0

        UGTB 150530Z 08004KT 030V110 9999 SCT050CB 23/17 Q1016 NOSIG,UGTB,2018-09-15T05:30:00Z,41.67,44.95,23.0,17.0,80,4,,6.21,30.0,,,,,,TRUE,,,,,SCT,5000,,,,,,,VFR,,,,,,,,,,,,METAR,495.0

        UGTB 150500Z VRB01KT 9999 SCT050CB 23/17 Q1016 NOSIG,UGTB,2018-09-15T05:00:00Z,41.67,44.95,23.0,17.0,0,1,,6.21,30.0,,,,,,TRUE,,,,,SCT,5000,,,,,,,VFR,,,,,,,,,,,,METAR,495.0

        UGTB 150430Z VRB02KT 9999 SCT050CB 22/17 Q1016 NOSIG,UGTB,2018-09-15T04:30:00Z,41.67,44.95,22.0,17.0,0,2,,6.21,30.0,,,,,,TRUE,,,,,SCT,5000,,,,,,,VFR,,,,,,,,,,,,METAR,495.0

        UGTB 150400Z 33003KT 230V360 9999 SCT050CB 21/17 Q1016 NOSIG,UGTB,2018-09-15T04:00:00Z,41.67,44.95,21.0,17.0,330,3,,6.21,30.0,,,,,,TRUE,,,,,SCT,5000,,,,,,,VFR,,,,,,,,,,,,METAR,495.0

        UGTB 150330Z VRB02KT 9999 SCT050CB 21/17 Q1016 NOSIG,UGTB,2018-09-15T03:30:00Z,41.67,44.95,21.0,17.0,0,2,,6.21,30.0,,,,,,TRUE,,,,,SCT,5000,,,,,,,VFR,,,,,,,,,,,,METAR,495.0

        UGTB 150300Z 09006KT 9999 SCT065CB 21/16 Q1016 NOSIG,UGTB,2018-09-15T03:00:00Z,41.67,44.95,21.0,16.0,90,6,,6.21,30.0,,,,,,TRUE,,,,,SCT,6500,,,,,,,VFR,,,,,,,,,,,,METAR,495.0

        UGTB 150230Z 08009KT 9999 SCT067CB 22/17 Q1015 NOSIG,UGTB,2018-09-15T02:30:00Z,41.67,44.95,22.0,17.0,80,9,,6.21,29.970472,,,,,,TRUE,,,,,SCT,6700,,,,,,,VFR,,,,,,,,,,,,METAR,495.0

        UGTB 150200Z 06012KT 020V080 9999 SCT047CB BKN069 22/16 Q1015 TEMPO TSRA,UGTB,2018-09-15T02:00:00Z,41.67,44.95,22.0,16.0,60,12,,6.21,29.970472,,,,,,,,,,,SCT,4700,BKN,6900,,,,,VFR,,,,,,,,,,,,METAR,495.0

        UGTB 150130Z 32012KT 9999 BKN046CB 22/17 Q1017 TEMPO TSRA,UGTB,2018-09-15T01:30:00Z,41.67,44.95,22.0,17.0,320,12,,6.21,30.029528,,,,,,,,,,,BKN,4600,,,,,,,VFR,,,,,,,,,,,,METAR,495.0

        UGTB 150100Z 28006KT 220V300 9999 SCT046CB BKN063 21/17 Q1017 TEMPO TSRA,UGTB,2018-09-15T01:00:00Z,41.67,44.95,21.0,17.0,280,6,,6.21,30.029528,,,,,,,,,,,SCT,4600,BKN,6300,,,,,VFR,,,,,,,,,,,,METAR,495.0

        UGTB 150030Z 02005KT 340V060 9999 SCT054CB BKN062 22/16 Q1016 TEMPO TSRA,UGTB,2018-09-15T00:30:00Z,41.67,44.95,22.0,16.0,20,5,,6.21,30.0,,,,,,,,,,,SCT,5400,BKN,6200,,,,,VFR,,,,,,,,,,,,METAR,495.0

        UGTB 150000Z 33005KT 9999 SCT046CB BKN053 22/17 Q1017 NOSIG,UGTB,2018-09-15T00:00:00Z,41.67,44.95,22.0,17.0,330,5,,6.21,30.029528,,,,,,TRUE,,,,,SCT,4600,BKN,5300,,,,,VFR,,,,,,,,,,,,METAR,495.0

        UGTB 142330Z 28005KT 9999 SCT048CB BKN055 21/17 Q1017 NOSIG,UGTB,2018-09-14T23:30:00Z,41.67,44.95,21.0,17.0,280,5,,6.21,30.029528,,,,,,TRUE,,,,,SCT,4800,BKN,5500,,,,,VFR,,,,,,,,,,,,METAR,495.0

        UGTB 142300Z 28006KT 9999 SCT048CB BKN055 21/16 Q1017 NOSIG,UGTB,2018-09-14T23:00:00Z,41.67,44.95,21.0,16.0,280,6,,6.21,30.029528,,,,,,TRUE,,,,,SCT,4800,BKN,5500,,,,,VFR,,,,,,,,,,,,METAR,495.0

        UGTB 142230Z 04005KT 9999 SCT059CB 21/18 Q1017 NOSIG,UGTB,2018-09-14T22:30:00Z,41.67,44.95,21.0,18.0,40,5,,6.21,30.029528,,,,,,TRUE,,,,,SCT,5900,,,,,,,VFR,,,,,,,,,,,,METAR,495.0

        UGTB 142200Z 08003KT 050V110 9999 SCT050CB 20/18 Q1017 TEMPO TSRA,UGTB,2018-09-14T22:00:00Z,41.67,44.95,20.0,18.0,80,3,,6.21,30.029528,,,,,,,,,,,SCT,5000,,,,,,,VFR,,,,,,,,,,,,METAR,495.0

        UGTB 142130Z VRB03KT 9999 SCT050CB 20/17 Q1017 TEMPO TSRA,UGTB,2018-09-14T21:30:00Z,41.67,44.95,20.0,17.0,0,3,,6.21,30.029528,,,,,,,,,,,SCT,5000,,,,,,,VFR,,,,,,,,,,,,METAR,495.0

        UGTB 142100Z 05010KT 9999 SCT054CB 22/17 Q1016 TEMPO TSRA,UGTB,2018-09-14T21:00:00Z,41.67,44.95,22.0,17.0,50,10,,6.21,30.0,,,,,,,,,,,SCT,5400,,,,,,,VFR,,,,,,,,,,,,METAR,495.0

        UGTB 142030Z 01003KT 320V070 9999 SCT054CB 23/16 Q1018 TEMPO TSRA,UGTB,2018-09-14T20:30:00Z,41.67,44.95,23.0,16.0,10,3,,6.21,30.059055,,,,,,,,,,,SCT,5400,,,,,,,VFR,,,,,,,,,,,,METAR,495.0

        UGTB 142000Z 24005KT 9999 SCT053CB 22/17 Q1019 TEMPO TSRA,UGTB,2018-09-14T20:00:00Z,41.67,44.95,22.0,17.0,240,5,,6.21,30.088583,,,,,,,,,,,SCT,5300,,,,,,,VFR,,,,,,,,,,,,METAR,495.0

        UGTB 141930Z 06005KT 9999 SCT054CB 24/16 Q1017 TEMPO TSRA,UGTB,2018-09-14T19:30:00Z,41.67,44.95,24.0,16.0,60,5,,6.21,30.029528,,,,,,,,,,,SCT,5400,,,,,,,VFR,,,,,,,,,,,,METAR,495.0

        UGTB 141900Z 06005KT 360V070 9999 SCT050CB 23/16 Q1017 TEMPO TSRA,UGTB,2018-09-14T19:00:00Z,41.67,44.95,23.0,16.0,60,5,,6.21,30.029528,,,,,,,,,,,SCT,5000,,,,,,,VFR,,,,,,,,,,,,METAR,495.0

        UGTB 141830Z 14003KT 040V200 9999 SCT061CB 23/17 Q1017 TEMPO TSRA,UGTB,2018-09-14T18:30:00Z,41.67,44.95,23.0,17.0,140,3,,6.21,30.029528,,,,,,,,,,,SCT,6100,,,,,,,VFR,,,,,,,,,,,,METAR,495.0

'}
    headers:
      Connection: [keep-alive]
      Content-Length: ['9404']
      Content-Type: [application/x-csv]
      Date: ['Sat, 15 Sep 2018 18:09:46 GMT']
      Server: [Apache-Coyote/1.1]
      Strict-Transport-Security: [max-age=63072000; includeSubdomains;]
      X-Content-Type-Options: [nosniff]
      X-Frame-Options: [SAMEORIGIN]
      X-XSS-Protection: [1; mode=block]
    status: {code: 200, message: OK}
- request:
    body: null
    headers:
      Accept: ['*/*']
      Accept-Encoding: ['gzip, deflate']
      Connection: [keep-alive]
      User-Agent: [python-requests/2.19.1]
    method: GET
    uri: https://aviationweather.gov/adds/dataserver_current/httpparam?dataSource=metars&requestType=retrieve&format=csv&hoursBeforeNow=24&stationString=UGTB
  response:
    body: {string: 'No errors

        No warnings

        6 ms

        data source=metars

        48 results

        raw_text,station_id,observation_time,latitude,longitude,temp_c,dewpoint_c,wind_dir_degrees,wind_speed_kt,wind_gust_kt,visibility_statute_mi,altim_in_hg,sea_level_pressure_mb,corrected,auto,auto_station,maintenance_indicator_on,no_signal,lightning_sensor_off,freezing_rain_sensor_off,present_weather_sensor_off,wx_string,sky_cover,cloud_base_ft_agl,sky_cover,cloud_base_ft_agl,sky_cover,cloud_base_ft_agl,sky_cover,cloud_base_ft_agl,flight_category,three_hr_pressure_tendency_mb,maxT_c,minT_c,maxT24hr_c,minT24hr_c,precip_in,pcp3hr_in,pcp6hr_in,pcp24hr_in,snow_in,vert_vis_ft,metar_type,elevation_m

        UGTB 151800Z 31022KT 9999 FEW050CB BKN058 23/15 Q1015 NOSIG,UGTB,2018-09-15T18:00:00Z,41.67,44.95,23.0,15.0,310,22,,6.21,29.970472,,,,,,TRUE,,,,,FEW,5000,BKN,5800,,,,,VFR,,,,,,,,,,,,METAR,495.0

        UGTB 151730Z 32022G32KT 9999 SCT051CB 23/15 Q1015 NOSIG,UGTB,2018-09-15T17:30:00Z,41.67,44.95,23.0,15.0,320,22,32,6.21,29.970472,,,,,,TRUE,,,,,SCT,5100,,,,,,,VFR,,,,,,,,,,,,METAR,495.0

        UGTB 151700Z 33020KT 9999 FEW049 SCT057CB BKN066 23/16 Q1015 TEMPO 32025G35KT,UGTB,2018-09-15T17:00:00Z,41.67,44.95,23.0,16.0,330,20,,6.21,29.970472,,,,,,,,,,,FEW,4900,SCT,5700,BKN,6600,,,VFR,,,,,,,,,,,,METAR,495.0

        UGTB 151630Z 33019KT 9999 SCT056CB BKN066 24/16 Q1015 TEMPO 32025G35KT,UGTB,2018-09-15T16:30:00Z,41.67,44.95,24.0,16.0,330,19,,6.21,29.970472,,,,,,,,,,,SCT,5600,BKN,6600,,,,,VFR,,,,,,,,,,,,METAR,495.0

        UGTB 151600Z 33016KT 9999 SCT050CB 25/16 Q1014 BECMG 32025G35KT,UGTB,2018-09-15T16:00:00Z,41.67,44.95,25.0,16.0,330,16,,6.21,29.940945,,,,,,,,,,,SCT,5000,,,,,,,VFR,,,,,,,,,,,,METAR,495.0

        UGTB 151530Z 00000KT 9999 SCT067CB 26/17 Q1014 NOSIG,UGTB,2018-09-15T15:30:00Z,41.67,44.95,26.0,17.0,0,0,,6.21,29.940945,,,,,,TRUE,,,,,SCT,6700,,,,,,,VFR,,,,,,,,,,,,METAR,495.0

        UGTB 151500Z 15001KT 9999 SCT068CB 27/17 Q1014 NOSIG,UGTB,2018-09-15T15:00:00Z,41.67,44.95,27.0,17.0,150,1,,6.21,29.940945,,,,,,TRUE,,,,,SCT,6800,,,,,,,VFR,,,,,,,,,,,,METAR,495.0

        UGTB 151430Z 14004KT 9999 SCT050CB 27/18 Q1013 NOSIG,UGTB,2018-09-15T14:30:00Z,41.67,44.95,27.0,18.0,140,4,,6.21,29.911417,,,,,,TRUE,,,,,SCT,5000,,,,,,,VFR,,,,,,,,,,,,METAR,495.0

        UGTB 151400Z 16004KT 130V190 9999 SCT050CB 28/18 Q1013 NOSIG,UGTB,2018-09-15T14:00:00Z,41.67,44.95,28.0,18.0,160,4,,6.21,29.911417,,,,,,TRUE,,,,,SCT,5000,,,,,,,VFR,,,,,,,,,,,,METAR,495.0

        UGTB 151330Z 17004KT 140V200 9999 SCT050CB 28/17 Q1013 NOSIG,UGTB,2018-09-15T13:30:00Z,41.67,44.95,28.0,17.0,170,4,,6.21,29.911417,,,,,,TRUE,,,,,SCT,5000,,,,,,,VFR,,,,,,,,,,,,METAR,495.0

        UGTB 151300Z 18005KT 140V210 9999 SCT050CB 28/17 Q1013 NOSIG,UGTB,2018-09-15T13:00:00Z,41.67,44.95,28.0,17.0,180,5,,6.21,29.911417,,,,,,TRUE,,,,,SCT,5000,,,,,,,VFR,,,,,,,,,,,,METAR,495.0

        UGTB 151230Z 18007KT 160V220 CAVOK 29/17 Q1013 NOSIG,UGTB,2018-09-15T12:30:00Z,41.67,44.95,29.0,17.0,180,7,,6.21,29.911417,,,,,,TRUE,,,,,CAVOK,,,,,,,,VFR,,,,,,,,,,,,METAR,495.0

        UGTB 151200Z 19006KT 150V240 9999 SCT049 29/17 Q1013 NOSIG,UGTB,2018-09-15T12:00:00Z,41.67,44.95,29.0,17.0,190,6,,6.21,29.911417,,,,,,TRUE,,,,,SCT,4900,,,,,,,VFR,,,,,,,,,,,,METAR,495.0

        UGTB 151130Z VRB03KT 9999 SCT046 29/17 Q1013 NOSIG,UGTB,2018-09-15T11:30:00Z,41.67,44.95,29.0,17.0,0,3,,6.21,29.911417,,,,,,TRUE,,,,,SCT,4600,,,,,,,VFR,,,,,,,,,,,,METAR,495.0

        UGTB 151100Z 18004KT 080V250 CAVOK 29/17 Q1013 NOSIG,UGTB,2018-09-15T11:00:00Z,41.67,44.95,29.0,17.0,180,4,,6.21,29.911417,,,,,,TRUE,,,,,CAVOK,,,,,,,,VFR,,,,,,,,,,,,METAR,495.0

        UGTB 151030Z 20006KT 140V240 CAVOK 30/18 Q1013 NOSIG,UGTB,2018-09-15T10:30:00Z,41.67,44.95,30.0,18.0,200,6,,6.21,29.911417,,,,,,TRUE,,,,,CAVOK,,,,,,,,VFR,,,,,,,,,,,,METAR,495.0

        UGTB 151000Z VRB04KT CAVOK 30/17 Q1014 NOSIG,UGTB,2018-09-15T10:00:00Z,41.67,44.95,30.0,17.0,0,4,,6.21,29.940945,,,,,,TRUE,,,,,CAVOK,,,,,,,,VFR,,,,,,,,,,,,METAR,495.0

        UGTB 150930Z VRB05KT CAVOK 29/17 Q1014 NOSIG,UGTB,2018-09-15T09:30:00Z,41.67,44.95,29.0,17.0,0,5,,6.21,29.940945,,,,,,TRUE,,,,,CAVOK,,,,,,,,VFR,,,,,,,,,,,,METAR,495.0

        UGTB 150900Z 22007KT 160V250 CAVOK 27/17 Q1014 NOSIG,UGTB,2018-09-15T09:00:00Z,41.67,44.95,27.0,17.0,220,7,,6.21,29.940945,,,,,,TRUE,,,,,CAVOK,,,,,,,,VFR,,,,,,,,,,,,METAR,495.0

        UGTB 150830Z VRB05KT CAVOK 27/17 Q1015 NOSIG,UGTB,2018-09-15T08:30:00Z,41.67,44.95,27.0,17.0,0,5,,6.21,29.970472,,,,,,TRUE,,,,,CAVOK,,,,,,,,VFR,,,,,,,,,,,,METAR,495.0

        UGTB 150800Z VRB04KT CAVOK 26/16 Q1015 NOSIG,UGTB,2018-09-15T08:00:00Z,41.67,44.95,26.0,16.0,0,4,,6.21,29.970472,,,,,,TRUE,,,,,CAVOK,,,,,,,,VFR,,,,,,,,,,,,METAR,495.0

        UGTB 150730Z VRB02KT CAVOK 26/16 Q1015 NOSIG,UGTB,2018-09-15T07:30:00Z,41.67,44.95,26.0,16.0,0,2,,6.21,29.970472,,,,,,TRUE,,,,,CAVOK,,,,,,,,VFR,,,,,,,,,,,,METAR,495.0

        UGTB 150700Z VRB03KT 9999 SCT050CB 26/17 Q1016 NOSIG,UGTB,2018-09-15T07:00:00Z,41.67,44.95,26.0,17.0,0,3,,6.21,30.0,,,,,,TRUE,,,,,SCT,5000,,,,,,,VFR,,,,,,,,,,,,METAR,495.0

        UGTB 150630Z 10003KT 010V150 9999 FEW021 SCT050CB 24/17 Q1016 NOSIG,UGTB,2018-09-15T06:30:00Z,41.67,44.95,24.0,17.0,100,3,,6.21,30.0,,,,,,TRUE,,,,,FEW,2100,SCT,5000,,,,,VFR,,,,,,,,,,,,METAR,495.0

        UGTB 150600Z 07005KT 040V110 CAVOK 23/17 Q1016 NOSIG,UGTB,2018-09-15T06:00:00Z,41.67,44.95,23.0,17.0,70,5,,6.21,30.0,,,,,,TRUE,,,,,CAVOK,,,,,,,,VFR,,,,,,,,,,,,METAR,495.0

        UGTB 150530Z 08004KT 030V110 9999 SCT050CB 23/17 Q1016 NOSIG,UGTB,2018-09-15T05:30:00Z,41.67,44.95,23.0,17.0,80,4,,6.21,30.0,,,,,,TRUE,,,,,SCT,5000,,,,,,,VFR,,,,,,,,,,,,METAR,495.0

        UGTB 150500Z VRB01KT 9999 SCT050CB 23/17 Q1016 NOSIG,UGTB,2018-09-15T05:00:00Z,41.67,44.95,23.0,17.0,0,1,,6.21,30.0,,,,,,TRUE,,,,,SCT,5000,,,,,,,VFR,,,,,,,,,,,,METAR,495.0

        UGTB 150430Z VRB02KT 9999 SCT050CB 22/17 Q1016 NOSIG,UGTB,2018-09-15T04:30:00Z,41.67,44.95,22.0,17.0,0,2,,6.21,30.0,,,,,,TRUE,,,,,SCT,5000,,,,,,,VFR,,,,,,,,,,,,METAR,495.0

        UGTB 150400Z 33003KT 230V360 9999 SCT050CB 21/17 Q1016 NOSIG,UGTB,2018-09-15T04:00:00Z,41.67,44.95,21.0,17.0,330,3,,6.21,30.0,,,,,,TRUE,,,,,SCT,5000,,,,,,,VFR,,,,,,,,,,,,METAR,495.0

        UGTB 150330Z VRB02KT 9999 SCT050CB 21/17 Q1016 NOSIG,UGTB,2018-09-15T03:30:00Z,41.67,44.95,21.0,17.0,0,2,,6.21,30.0,,,,,,TRUE,,,,,SCT,5000,,,,,,,VFR,,,,,,,,,,,,METAR,495.0

        UGTB 150300Z 09006KT 9999 SCT065CB 21/16 Q1016 NOSIG,UGTB,2018-09-15T03:00:00Z,41.67,44.95,21.0,16.0,90,6,,6.21,30.0,,,,,,TRUE,,,,,SCT,6500,,,,,,,VFR,,,,,,,,,,,,METAR,495.0

        UGTB 150230Z 08009KT 9999 SCT067CB 22/17 Q1015 NOSIG,UGTB,2018-09-15T02:30:00Z,41.67,44.95,22.0,17.0,80,9,,6.21,29.970472,,,,,,TRUE,,,,,SCT,6700,,,,,,,VFR,,,,,,,,,,,,METAR,495.0

        UGTB 150200Z 06012KT 020V080 9999 SCT047CB BKN069 22/16 Q1015 TEMPO TSRA,UGTB,2018-09-15T02:00:00Z,41.67,44.95,22.0,16.0,60,12,,6.21,29.970472,,,,,,,,,,,SCT,4700,BKN,6900,,,,,VFR,,,,,,,,,,,,METAR,495.0

        UGTB 150130Z 32012KT 9999 BKN046CB 22/17 Q1017 TEMPO TSRA,UGTB,2018-09-15T01:30:00Z,41.67,44.95,22.0,17.0,320,12,,6.21,30.029528,,,,,,,,,,,BKN,4600,,,,,,,VFR,,,,,,,,,,,,METAR,495.0

        UGTB 150100Z 28006KT 220V300 9999 SCT046CB BKN063 21/17 Q1017 TEMPO TSRA,UGTB,2018-09-15T01:00:00Z,41.67,44.95,21.0,17.0,280,6,,6.21,30.029528,,,,,,,,,,,SCT,4600,BKN,6300,,,,,VFR,,,,,,,,,,,,METAR,495.0

        UGTB 150030Z 02005KT 340V060 9999 SCT054CB BKN062 22/16 Q1016 TEMPO TSRA,UGTB,2018-09-15T00:30:00Z,41.67,44.95,22.0,16.0,20,5,,6.21,30.0,,,,,,,,,,,SCT,5400,BKN,6200,,,,,VFR,,,,,,,,,,,,METAR,495.0

        UGTB 150000Z 33005KT 9999 SCT046CB BKN053 22/17 Q1017 NOSIG,UGTB,2018-09-15T00:00:00Z,41.67,44.95,22.0,17.0,330,5,,6.21,30.029528,,,,,,TRUE,,,,,SCT,4600,BKN,5300,,,,,VFR,,,,,,,,,,,,METAR,495.0

        UGTB 142330Z 28005KT 9999 SCT048CB BKN055 21/17 Q1017 NOSIG,UGTB,2018-09-14T23:30:00Z,41.67,44.95,21.0,17.0,280,5,,6.21,30.029528,,,,,,TRUE,,,,,SCT,4800,BKN,5500,,,,,VFR,,,,,,,,,,,,METAR,495.0

        UGTB 142300Z 28006KT 9999 SCT048CB BKN055 21/16 Q1017 NOSIG,UGTB,2018-09-14T23:00:00Z,41.67,44.95,21.0,16.0,280,6,,6.21,30.029528,,,,,,TRUE,,,,,SCT,4800,BKN,5500,,,,,VFR,,,,,,,,,,,,METAR,495.0

        UGTB 142230Z 04005KT 9999 SCT059CB 21/18 Q1017 NOSIG,UGTB,2018-09-14T22:30:00Z,41.67,44.95,21.0,18.0,40,5,,6.21,30.029528,,,,,,TRUE,,,,,SCT,5900,,,,,,,VFR,,,,,,,,,,,,METAR,495.0

        UGTB 142200Z 08003KT 050V110 9999 SCT050CB 20/18 Q1017 TEMPO TSRA,UGTB,2018-09-14T22:00:00Z,41.67,44.95,20.0,18.0,80,3,,6.21,30.029528,,,,,,,,,,,SCT,5000,,,,,,,VFR,,,,,,,,,,,,METAR,495.0

        UGTB 142130Z VRB03KT 9999 SCT050CB 20/17 Q1017 TEMPO TSRA,UGTB,2018-09-14T21:30:00Z,41.67,44.95,20.0,17.0,0,3,,6.21,30.029528,,,,,,,,,,,SCT,5000,,,,,,,VFR,,,,,,,,,,,,METAR,495.0

        UGTB 142100Z 05010KT 9999 SCT054CB 22/17 Q1016 TEMPO TSRA,UGTB,2018-09-14T21:00:00Z,41.67,44.95,22.0,17.0,50,10,,6.21,30.0,,,,,,,,,,,SCT,5400,,,,,,,VFR,,,,,,,,,,,,METAR,495.0

        UGTB 142030Z 01003KT 320V070 9999 SCT054CB 23/16 Q1018 TEMPO TSRA,UGTB,2018-09-14T20:30:00Z,41.67,44.95,23.0,16.0,10,3,,6.21,30.059055,,,,,,,,,,,SCT,5400,,,,,,,VFR,,,,,,,,,,,,METAR,495.0

        UGTB 142000Z 24005KT 9999 SCT053CB 22/17 Q1019 TEMPO TSRA,UGTB,2018-09-14T20:00:00Z,41.67,44.95,22.0,17.0,240,5,,6.21,30.088583,,,,,,,,,,,SCT,5300,,,,,,,VFR,,,,,,,,,,,,METAR,495.0

        UGTB 141930Z 06005KT 9999 SCT054CB 24/16 Q1017 TEMPO TSRA,UGTB,2018-09-14T19:30:00Z,41.67,44.95,24.0,16.0,60,5,,6.21,30.029528,,,,,,,,,,,SCT,5400,,,,,,,VFR,,,,,,,,,,,,METAR,495.0

        UGTB 141900Z 06005KT 360V070 9999 SCT050CB 23/16 Q1017 TEMPO TSRA,UGTB,2018-09-14T19:00:00Z,41.67,44.95,23.0,16.0,60,5,,6.21,30.029528,,,,,,,,,,,SCT,5000,,,,,,,VFR,,,,,,,,,,,,METAR,495.0

        UGTB 141830Z 14003KT 040V200 9999 SCT061CB 23/17 Q1017 TEMPO TSRA,UGTB,2018-09-14T18:30:00Z,41.67,44.95,23.0,17.0,140,3,,6.21,30.029528,,,,,,,,,,,SCT,6100,,,,,,,VFR,,,,,,,,,,,,METAR,495.0

'}
    headers:
      Connection: [keep-alive]
      Content-Length: ['9404']
      Content-Type: [application/x-csv]
      Date: ['Sat, 15 Sep 2018 18:18:15 GMT']
      Server: [Apache-Coyote/1.1]
      Strict-Transport-Security: [max-age=63072000; includeSubdomains;]
      X-Content-Type-Options: [nosniff]
      X-Frame-Options: [SAMEORIGIN]
      X-XSS-Protection: [1; mode=block]
    status: {code: 200, message: OK}
version: 1
